PARK_ID,Park Name,Address,City,State,Zip Code,Park District,Park Phone #,Longitude ,Latitude,parkurl,operhours,restroom,adacomply,camping,picnic,playground,basketball,tennis,volleyball,spraygroun,mtbcycle,golf,boating,fishing,swimming,discgolf,shelter,walking,dogpark,ampitheate,motorboat,horseback,garden,historical,skatepark,interpreti,tabletenni,recgym,fitness,rvcamp,sailing,pickleball,multipurps,rcflyarea,flwrgarden,indorpavil,aquaticctr,ballfield,batingcage,bicycleltr,bmxtrack,bocciball,confcenter,concesstnd,firepit,funbrella,gagaball,gazebo,opngrnspac,highropes,horseshoe,environedu,dockpier,playsixty,rockclimb,seniorctr,shadearbor,shuflboard,trlrunning,grnwyacces,handball,arts,multiuserm,playswings,parking,picture,PARK_TYPE,SUM_ACRES,ShapeSTArea,ShapeSTLength
AQUA,Mecklenburg County Aquatic Center,"800 E MARTIN LUTHER KING JR BV, CHARLOTTE, NC 28202",CHARLOTTE,NC,28202.0,Central,9803143483.0,1450347.383,539157.2422,https://www.mecknc.gov/parkandrec/pages/home.aspx?redirect=charmeck,Varies,Yes,Yes,No,No,No,No,No,No,No,No,No,No,No,Yes,No,No,No,No,No,No,No,No,No,No,No,No,No,No,No,No,No,No,No,No,No,Yes,No,No,No,No,No,No,No,No,Yes,No,No,No,No,No,No,No,No,No,No,No,No,No,No,No,No,No,No,Yes,https://maps.mecklenburgcountync.gov/evaluate/rest/services/park/Parks/FeatureServer/0/6/attachments/1299?token=,AQUATIC CENTER,4.11144471,179093.69575957,1808.86829774536
WOOD,Double Oaks Family Aquatic Center,"2014 STATESVILLE AV, CHARLOTTE, NC 28206",CHARLOTTE,NC,28206.0,Central,7043340308.0,1451993.07,550910.3955,https://www.mecknc.gov/parkandrec/pages/home.aspx?redirect=charmeck,Varies,Yes,Yes,No,No,No,No,No,No,No,No,No,No,No,Yes,No,No,No,No,No,No,No,No,No,No,No,No,No,No,No,No,No,No,No,No,No,Yes,No,No,No,No,No,No,No,No,No,No,No,No,No,No,No,No,No,No,No,No,No,No,No,No,No,No,No,Yes,https://maps.mecklenburgcountync.gov/evaluate/rest/services/park/Parks/FeatureServer/0/231/attachments/3208?token=,AQUATIC CENTER,2.4871354,108339.13390293,1399.69015845887
ABRP,Albemarle Road Park,"9120 E W T HARRIS BV, CHARLOTTE, NC 28227",CHARLOTTE,NC,28227.0,South,9803141003.0,1484195.618,530843.2177,https://www.mecknc.gov/parkandrec/pages/home.aspx?redirect=charmeck,Daylight,No,No,No,No,No,No,No,No,No,No,No,No,No,No,No,No,Yes,No,Yes,No,No,No,No,No,No,No,No,No,No,No,No,No,No,No,No,No,No,No,No,No,No,No,No,No,No,No,No,Yes,No,No,No,No,No,No,No,No,No,No,No,No,No,No,No,Yes,https://maps.mecklenburgcountync.gov/evaluate/rest/services/park/Parks/FeatureServer/0/9/attachments/2034?token=,COMMUNITY PARK,21.13117673,920470.468030469,6577.65588365785
BLTN,Ballantyne Park,"10082 COMMUNITY HOUSE RD, CHARLOTTE, NC 28277",CHARLOTTE,NC,28277.0,South,9803141003.0,1452428.668,475004.0866,https://www.mecknc.gov/parkandrec/pages/home.aspx?redirect=charmeck,Varies,Yes,Yes,No,No,No,No,No,No,No,Yes,No,No,No,No,No,Yes,No,No,No,No,No,No,No,No,No,No,No,No,No,No,No,Yes,No,No,No,No,Yes,No,No,No,No,No,No,No,No,No,No,No,No,No,No,No,No,No,No,No,No,No,No,No,No,No,No,Yes,https://maps.mecklenburgcountync.gov/evaluate/rest/services/park/Parks/FeatureServer/0/248/attachments/1311?token=,COMMUNITY PARK,90.11006012,3925179.23471172,17575.3251681944
BLYT,Blythe Landing Park,"15901 N C 73 HY, HUNTERSVILLE, NC 28078",HUNTERSVILLE,NC,28078.0,North,9803141001.0,1432786.65,618983.9881,https://www.mecknc.gov/parkandrec/pages/home.aspx?redirect=charmeck,Daylight,Yes,No,No,Yes,Yes,No,No,Yes,No,No,No,Yes,Yes,No,No,Yes,No,No,No,Yes,No,No,No,No,No,No,No,No,No,Yes,No,No,No,No,No,No,No,No,No,No,No,No,Yes,No,No,No,No,No,No,No,No,Yes,No,No,No,No,No,No,No,No,No,No,No,Yes,https://maps.mecklenburgcountync.gov/evaluate/rest/services/park/Parks/FeatureServer/0/24/attachments/1260?token=,COMMUNITY PARK,23.74402327,1034285.67798125,7736.07885823977
BRWD,Briarwood Park,"5349 WATERWOOD ST, CHARLOTTE, NC 28215",CHARLOTTE,NC,28215.0,North,9803141001.0,1472738.399,552337.4335,https://www.mecknc.gov/parkandrec/pages/home.aspx?redirect=charmeck,Daylight,Yes,No,No,No,Yes,No,No,No,No,No,No,No,No,No,No,No,Yes,No,No,No,No,No,No,No,No,No,No,No,No,No,No,No,No,No,No,No,Yes,No,No,No,No,No,No,No,No,No,No,No,No,No,No,No,No,No,No,No,No,No,No,No,No,No,Yes,Yes,https://maps.mecklenburgcountync.gov/evaluate/rest/services/park/Parks/FeatureServer/0/20/attachments/3258?token=,COMMUNITY PARK,33.28345924,1449821.80542539,6014.9066709324
CANP,Richard Barry Memorial Park,"13707 BEATTIES FORD RD, HUNTERSVILLE, NC 28078",HUNTERSVILLE,NC,28078.0,North,7047662220.0,1426544.381,606545.5214,https://www.huntersville.org/162/Parks-Recreation,Varies,Yes,Yes,No,No,Yes,No,No,No,No,No,No,No,No,No,No,Yes,Yes,No,No,No,No,No,No,No,No,No,No,No,No,No,No,Yes,No,No,No,No,No,No,No,No,No,No,No,No,No,No,No,No,No,No,No,No,No,No,No,No,No,No,No,No,No,No,Yes,Yes,https://maps.mecklenburgcountync.gov/evaluate/rest/services/park/Parks/FeatureServer/0/22/attachments/1235?token=,COMMUNITY PARK,41.87470919,1824054.7196125,6858.81990749356
CLAN,Clanton Park,"1520 CLANTON RD, CHARLOTTE, NC 28217",CHARLOTTE,NC,28217.0,Central,9803141002.0,1434491.148,536050.465,https://www.mecknc.gov/parkandrec/pages/home.aspx?redirect=charmeck,Daylight,Yes,Yes,No,No,Yes,Yes,No,No,No,No,No,No,No,No,No,Yes,No,No,No,No,No,No,No,No,No,No,No,No,No,No,No,Yes,No,No,No,No,Yes,No,Yes,No,No,No,No,No,No,No,No,No,No,No,No,No,No,No,No,No,No,No,Yes,No,No,No,Yes,No,https://maps.mecklenburgcountync.gov/evaluate/rest/services/park/Parks/FeatureServer/0/256/attachments/3236?token=,COMMUNITY PARK,72.26306621,3147766.47289883,12287.6567120618
CLWD,Shuffletown Park,"9530 BELLHAVEN BV, CHARLOTTE, NC 28216",CHARLOTTE,NC,28216.0,North,9803141001.0,1420082.321,575604.3038,https://www.mecknc.gov/parkandrec/pages/home.aspx?redirect=charmeck,Daylight,Yes,Yes,No,No,Yes,No,No,Yes,No,No,No,No,No,No,No,Yes,No,Yes,No,No,No,No,No,No,No,No,No,No,No,No,No,Yes,No,No,No,No,No,No,No,No,No,No,No,No,No,No,No,No,No,No,No,No,No,No,No,No,No,No,No,No,No,No,Yes,Yes,https://maps.mecklenburgcountync.gov/evaluate/rest/services/park/Parks/FeatureServer/0/32/attachments/1288?token=,COMMUNITY PARK,54.20351753,2361095.8266123,6309.14523681123
CMGP,Camp Greene Park,"1221 ALLEGHANY ST, CHARLOTTE, NC 28208",CHARLOTTE,NC,28208.0,Central,9803141002.0,1435535.911,546692.186,https://www.mecknc.gov/parkandrec/pages/home.aspx?redirect=charmeck,Daylight,Yes,No,No,No,Yes,Yes,No,No,No,No,No,No,No,No,No,No,Yes,No,No,No,No,No,No,No,No,No,No,No,No,No,No,No,No,No,No,No,No,No,No,No,No,No,No,No,No,No,No,No,No,No,No,No,No,No,No,No,No,No,No,No,No,No,Yes,Yes,https://maps.mecklenburgcountync.gov/evaluate/rest/services/park/Parks/FeatureServer/0/34/attachments/3228?token=,COMMUNITY PARK,27.4524676,1195824.87716895,6033.88370616198
CORP,Cordelia Park,"600 E 24TH ST, CHARLOTTE, NC 28205",CHARLOTTE,NC,28205.0,Central,9803141002.0,1457990.582,546282.8773,https://www.mecknc.gov/parkandrec/pages/home.aspx?redirect=charmeck,Daylight,No,Yes,No,No,Yes,Yes,No,No,Yes,No,No,No,No,Yes,No,Yes,No,No,No,No,No,Yes,No,No,No,No,No,No,No,No,No,No,No,No,Yes,No,No,No,No,No,No,No,No,No,No,No,No,Yes,No,No,No,No,No,No,No,No,No,No,Yes,No,No,No,Yes,Yes,https://maps.mecklenburgcountync.gov/evaluate/rest/services/park/Parks/FeatureServer/0/41/attachments/3211?token=,COMMUNITY PARK,20.89170481,910039.296081836,4990.86528661585
COUL,Coulwood Park,"198 COULWOOD PARK DR, CHARLOTTE, NC 28214",CHARLOTTE,NC,28214.0,North,9803141001.0,1421296.362,571867.1364,https://www.mecknc.gov/parkandrec/pages/home.aspx?redirect=charmeck,Daylight,Yes,Yes,No,No,Yes,No,Yes,Yes,No,No,No,No,No,No,No,Yes,Yes,No,Yes,No,No,No,No,No,No,No,No,No,No,No,No,No,No,No,No,No,Yes,Yes,No,No,No,No,No,No,No,No,No,No,No,No,No,No,No,No,No,No,No,No,No,No,No,No,No,Yes,https://maps.mecklenburgcountync.gov/evaluate/rest/services/park/Parks/FeatureServer/0/42/attachments/2008?token=,COMMUNITY PARK,24.57177361,1070342.15765059,5782.69519547836
DAVP,Clarks Creek Park,"5435 HUCKS RD, CHARLOTTE, NC 28269",CHARLOTTE,NC,28269.0,North,9803141001.0,1460042.412,587800.5253,https://www.mecknc.gov/parkandrec/pages/home.aspx?redirect=charmeck,Daylight,Yes,Yes,No,No,Yes,Yes,No,No,Yes,No,No,No,No,No,No,Yes,Yes,Yes,No,No,No,Yes,No,No,No,No,No,No,No,No,Yes,No,No,No,No,No,No,No,No,No,No,No,No,No,No,No,No,Yes,No,No,No,No,No,No,No,No,No,No,No,No,No,No,Yes,Yes,https://maps.mecklenburgcountync.gov/evaluate/rest/services/park/Parks/FeatureServer/0/97/attachments/1272?token=,COMMUNITY PARK,35.12391895,1529991.97890059,6325.43145993223
DBWP,David B. Waymer Park,"14200 HOLBROOKS RD, HUNTERSVILLE, NC 28078",HUNTERSVILLE,NC,28078.0,North,7047662220.0,1453280.177,605295.32,https://www.huntersville.org/162/Parks-Recreation,Daylight,Yes,Yes,No,No,Yes,Yes,Yes,No,No,No,No,No,No,No,No,Yes,Yes,No,No,No,No,No,No,No,No,No,No,No,No,No,Yes,Yes,No,No,No,No,Yes,No,No,No,No,No,No,No,No,No,No,No,No,No,No,No,No,No,No,No,No,No,No,No,No,No,Yes,Yes,https://maps.mecklenburgcountync.gov/evaluate/rest/services/park/Parks/FeatureServer/0/49/attachments/1248?token=,COMMUNITY PARK,18.86576374,821789.114284766,6742.06614203703
DRTA,Derita Park,"3509 FREW RD, CHARLOTTE, NC 28206",CHARLOTTE,NC,28206.0,North,9803141001.0,1460946.331,554062.2899,https://www.mecknc.gov/parkandrec/pages/home.aspx?redirect=charmeck,Daylight,No,No,No,Yes,Yes,Yes,No,No,No,No,No,No,No,No,No,Yes,No,No,No,No,No,No,No,No,No,No,No,No,No,No,No,Yes,No,No,No,No,No,No,No,No,No,No,No,No,No,No,No,No,No,No,No,No,No,No,No,No,No,No,No,No,No,No,Yes,No,https://maps.mecklenburgcountync.gov/evaluate/rest/services/park/Parks/FeatureServer/0/59/attachments/3205?token=,COMMUNITY PARK,23.53365666,1025121.76062246,6011.25737094079
EASP,Eastway Park,"423 EASTWAY DR, CHARLOTTE, NC 28215",CHARLOTTE,NC,28215.0,North,9803141001.0,1468679.964,551894.8877,https://www.mecknc.gov/parkandrec/pages/home.aspx?redirect=charmeck,Daylight,Yes,No,No,Yes,Yes,Yes,No,Yes,No,No,No,No,No,No,No,No,No,No,No,No,No,No,No,No,Yes,No,No,No,No,No,No,Yes,No,No,No,No,No,No,No,No,No,No,No,No,No,No,No,No,No,No,No,No,No,No,No,No,No,No,No,No,No,No,No,Yes,https://maps.mecklenburgcountync.gov/evaluate/rest/services/park/Parks/FeatureServer/0/265/attachments/801?token=,COMMUNITY PARK,90.43868874,3939493.92204434,11492.7230075854
FSPK,Firestone Park,"3501 FIRESTONE DR, CHARLOTTE, NC 28216",CHARLOTTE,NC,28216.0,North,9803141001.0,1441270.357,564949.7946,https://www.mecknc.gov/parkandrec/pages/home.aspx?redirect=charmeck,Daylight,No,Yes,No,No,Yes,Yes,No,No,No,No,No,No,No,No,No,Yes,Yes,No,No,No,No,No,No,No,No,No,No,No,No,No,No,Yes,No,No,No,No,No,No,No,No,No,No,No,No,No,No,No,No,No,No,No,No,No,No,No,No,No,No,No,No,No,No,Yes,No,https://maps.mecklenburgcountync.gov/evaluate/rest/services/park/Parks/FeatureServer/0/67/attachments/1285?token=,COMMUNITY PARK,54.61261865,2378916.15925645,9035.23472371234
HAPK,Huntersville Athletic Park,"11836 VERHOEFF DR, HUNTERSVILLE, NC 28078",HUNTERSVILLE,NC,28078.0,North,7047662220.0,1450108.385,602332.9091,https://www.huntersville.org/162/Parks-Recreation,Daylight,Yes,No,No,No,Yes,No,No,No,No,No,No,No,No,No,No,Yes,Yes,No,No,No,No,No,No,No,No,No,No,Yes,No,No,No,Yes,No,No,No,No,Yes,Yes,No,No,No,No,No,No,No,No,No,No,No,No,No,No,No,No,No,No,No,No,No,No,No,No,Yes,Yes,https://maps.mecklenburgcountync.gov/evaluate/rest/services/park/Parks/FeatureServer/0/200/attachments/1240?token=,COMMUNITY PARK,37.20501456,1620644.20686855,5412.04793813168
HUNT,Huntingtowne Farms Park,"2200 RAMBLEWOOD LN, CHARLOTTE, NC 28210",CHARLOTTE,NC,28210.0,South,9803141003.0,1443153.452,506777.1969,https://www.mecknc.gov/parkandrec/pages/home.aspx?redirect=charmeck,Daylight,No,Yes,No,Yes,Yes,Yes,Yes,No,No,No,No,No,No,No,No,Yes,Yes,No,No,No,No,Yes,No,No,No,No,No,No,No,No,No,No,No,No,No,No,No,No,No,No,No,No,No,No,No,No,No,Yes,No,No,No,No,No,No,No,No,No,No,Yes,No,No,No,Yes,Yes,https://maps.mecklenburgcountync.gov/evaluate/rest/services/park/Parks/FeatureServer/0/84/attachments/2405?token=,COMMUNITY PARK,22.80825043,993523.636239648,8056.2475958055
JBCP,James Boyce Park,"300 BOYCE RD, CHARLOTTE, NC 28211",CHARLOTTE,NC,28211.0,South,9803141003.0,1471143.229,513298.1812,https://www.mecknc.gov/parkandrec/pages/home.aspx?redirect=charmeck,Daylight,Yes,No,No,Yes,Yes,No,No,No,No,Yes,No,No,No,No,No,Yes,Yes,No,No,No,No,No,No,No,No,No,No,Yes,No,No,No,Yes,No,No,No,No,Yes,No,No,No,No,No,No,No,No,No,No,No,No,No,No,No,No,No,No,No,No,No,Yes,No,No,No,Yes,Yes,https://maps.mecklenburgcountync.gov/evaluate/rest/services/park/Parks/FeatureServer/0/95/attachments/3217?token=,COMMUNITY PARK,72.96512531,3178347.8368041,8332.44142211959
KLBN,Kilborne Park,"2600 KILBORNE DR, CHARLOTTE, NC 28205",CHARLOTTE,NC,28205.0,South,9803141003.0,1471109.586,539906.1002,https://www.mecknc.gov/parkandrec/pages/home.aspx?redirect=charmeck,Daylight,Yes,No,No,No,Yes,No,Yes,No,No,No,No,No,No,No,Yes,Yes,Yes,No,No,No,No,No,No,No,No,No,No,No,No,No,No,Yes,No,No,No,No,Yes,No,No,No,No,No,No,No,No,No,No,No,No,No,No,No,No,No,No,No,No,No,No,No,No,No,Yes,Yes,https://maps.mecklenburgcountync.gov/evaluate/rest/services/park/Parks/FeatureServer/0/90/attachments/13?token=,COMMUNITY PARK,50.87431181,2216075.91058887,6557.72714096082
MSNW,Mason Wallace Park,"7301 MONROE RD, CHARLOTTE, NC 28212",CHARLOTTE,NC,28212.0,South,9803141003.0,1475386.783,520579.8188,https://www.mecknc.gov/parkandrec/pages/home.aspx?redirect=charmeck,Daylight,No,No,No,No,Yes,Yes,Yes,No,No,No,No,No,No,No,No,Yes,Yes,No,No,No,No,No,No,No,No,No,No,Yes,No,No,No,Yes,No,No,No,No,Yes,Yes,No,No,No,No,No,No,No,No,No,No,No,No,No,No,No,No,No,No,No,No,No,No,No,No,Yes,Yes,https://maps.mecklenburgcountync.gov/evaluate/rest/services/park/Parks/FeatureServer/0/118/attachments/3218?token=,COMMUNITY PARK,30.39420367,1323966.14001211,6028.65707495435
LATP,Latta Park,"601 E PARK AV, CHARLOTTE, NC 28203",CHARLOTTE,NC,28203.0,Central,9803141002.0,1447160.203,536339.0379,https://www.mecknc.gov/parkandrec/pages/home.aspx?redirect=charmeck,Daylight,Yes,Yes,No,Yes,Yes,Yes,Yes,Yes,Yes,No,No,No,No,No,No,Yes,Yes,No,No,No,No,No,No,No,No,No,No,Yes,No,No,No,Yes,No,No,No,No,No,No,No,No,No,No,No,No,No,No,No,Yes,No,No,No,No,No,No,No,No,No,No,No,No,No,No,Yes,Yes,https://maps.mecklenburgcountync.gov/evaluate/rest/services/park/Parks/FeatureServer/0/92/attachments/3243?token=,COMMUNITY PARK,29.70289888,1293853.01235645,12895.8638682793
MCKE,McKee Road Park,"4201 MCKEE RD, CHARLOTTE, NC 28270",CHARLOTTE,NC,28270.0,South,9803141003.0,1474330.293,484449.0184,https://www.mecknc.gov/parkandrec/pages/home.aspx?redirect=charmeck,Daylight,No,No,No,No,No,No,No,No,No,No,No,No,No,No,No,No,No,No,No,No,No,No,No,No,No,No,No,No,No,No,No,Yes,No,No,No,No,No,No,No,No,No,No,No,No,No,No,No,No,No,No,No,No,No,No,No,No,No,No,No,No,No,No,No,Yes,https://maps.mecklenburgcountync.gov/evaluate/rest/services/park/Parks/FeatureServer/0/111/attachments/2029?token=,COMMUNITY PARK,19.63077795,855113.102608594,5061.77570798205
MLKP,Martin Luther King Jr. Park,"2600 RAVENCROFT DR, CHARLOTTE, NC 28208",CHARLOTTE,NC,28208.0,Central,9803141002.0,1441263.526,549621.5234,https://www.mecknc.gov/parkandrec/pages/home.aspx?redirect=charmeck,Daylight,Yes,No,No,No,Yes,Yes,No,No,No,No,No,No,No,No,No,Yes,No,No,No,No,No,No,No,No,No,No,No,No,No,No,Yes,Yes,No,No,No,No,No,No,No,No,No,No,No,No,No,No,No,Yes,No,No,No,No,No,No,No,No,No,No,No,No,No,No,Yes,Yes,https://maps.mecklenburgcountync.gov/evaluate/rest/services/park/Parks/FeatureServer/0/117/attachments/3226?token=,COMMUNITY PARK,28.9140445,1259490.84265977,5961.52387441042
NEWP,Newell Park,"9130 NEWELL BAPTIST CHURCH RD, CHARLOTTE, NC 28213",CHARLOTTE,NC,28213.0,North,9803141001.0,1482307.75,563623.7502,https://www.mecknc.gov/parkandrec/pages/home.aspx?redirect=charmeck,Daylight,No,No,No,Yes,No,No,No,No,No,No,No,No,No,No,No,Yes,Yes,No,No,No,No,No,No,No,No,No,No,No,No,No,No,No,No,No,No,No,Yes,No,No,No,No,No,No,No,No,No,No,No,No,No,No,No,No,No,No,No,No,No,No,No,No,No,No,Yes,https://maps.mecklenburgcountync.gov/evaluate/rest/services/park/Parks/FeatureServer/0/125/attachments/2801?token=,COMMUNITY PARK,31.64727783,1378549.78837051,12163.9458173405
NMPK,North Mecklenburg Park,"16131 OLD STATESVILLE RD, HUNTERSVILLE, NC 28078",HUNTERSVILLE,NC,28078.0,North,7047662220.0,1450832.798,617750.0735,https://www.huntersville.org/162/Parks-Recreation,Daylight,Yes,No,No,No,Yes,Yes,Yes,No,No,Yes,No,No,No,No,No,Yes,Yes,No,No,No,No,No,No,No,No,No,No,No,No,No,No,Yes,No,No,No,No,Yes,Yes,No,No,No,No,No,No,No,No,Yes,No,No,No,No,No,No,No,No,No,No,Yes,No,No,No,No,Yes,Yes,https://maps.mecklenburgcountync.gov/evaluate/rest/services/park/Parks/FeatureServer/0/127/attachments/1244?token=,COMMUNITY PARK,99.46247769,4332568.04807891,11929.7849545554
PKRD,Park Road Park,"6220 PARK RD, CHARLOTTE, NC 28210",CHARLOTTE,NC,28210.0,South,9803141003.0,1447014.845,513334.3738,https://www.mecknc.gov/parkandrec/pages/home.aspx?redirect=charmeck,Varies,Yes,No,No,Yes,Yes,Yes,No,Yes,No,Yes,No,No,Yes,No,No,Yes,Yes,No,No,No,No,No,No,No,No,No,No,No,No,No,No,No,No,No,No,No,Yes,Yes,No,No,No,No,Yes,No,No,No,No,No,No,No,No,Yes,No,No,No,No,No,No,Yes,No,No,No,Yes,Yes,https://maps.mecklenburgcountync.gov/evaluate/rest/services/park/Parks/FeatureServer/0/133/attachments/3262?token=,COMMUNITY PARK,71.41127562,3110662.71871602,8416.84212502436
RAMS,Ramsey Creek Park,"18445 NANTZ RD, CORNELIUS, NC 28078",CORNELIUS,NC,28078.0,North,9803141001.0,1435742.006,630032.3165,https://www.mecknc.gov/parkandrec/pages/home.aspx?redirect=charmeck,Varies,Yes,Yes,No,Yes,Yes,No,No,Yes,No,No,No,Yes,Yes,Yes,No,Yes,Yes,Yes,No,Yes,No,No,No,No,No,No,No,No,No,No,No,No,No,No,No,No,No,No,No,No,No,No,No,No,No,No,No,No,No,No,No,No,No,No,No,No,No,No,No,No,No,No,Yes,Yes,https://maps.mecklenburgcountync.gov/evaluate/rest/services/park/Parks/FeatureServer/0/140/attachments/1261?token=,COMMUNITY PARK,43.02486871,1874156.2081041,7471.13011763248
REVP,Revolution Park,"2433 BARRINGER DR, CHARLOTTE, NC 28208",CHARLOTTE,NC,28208.0,Central,9803141002.0,1439591.377,538625.5314,https://www.mecknc.gov/parkandrec/pages/home.aspx?redirect=charmeck,Daylight,Yes,Yes,No,No,Yes,No,No,No,No,No,No,No,No,No,No,Yes,No,No,No,No,No,No,No,No,No,No,No,No,No,No,No,Yes,No,No,No,No,Yes,No,No,No,No,No,No,No,No,No,No,No,No,No,No,No,No,No,No,No,No,No,Yes,No,No,No,Yes,Yes,https://maps.mecklenburgcountync.gov/evaluate/rest/services/park/Parks/FeatureServer/0/149/attachments/3233?token=,COMMUNITY PARK,30.45727067,1326713.56997168,6396.78055462528
RMBL,Ramblewood Soccer Complex,"10200 NATIONS FORD RD, CHARLOTTE, NC 28273",CHARLOTTE,NC,28273.0,South,9803141003.0,1431192.579,504991.6223,https://www.mecknc.gov/parkandrec/pages/home.aspx?redirect=charmeck,Varies,Yes,Yes,No,No,Yes,Yes,No,No,No,No,No,No,No,No,No,Yes,No,No,No,No,No,No,No,No,No,No,No,No,No,No,No,Yes,No,No,No,No,Yes,No,No,No,No,No,No,No,No,No,No,No,No,No,No,No,No,No,No,No,No,No,No,No,No,No,Yes,Yes,https://maps.mecklenburgcountync.gov/evaluate/rest/services/park/Parks/FeatureServer/0/152/attachments/2404?token=,COMMUNITY PARK,101.93386648,4440221.95453262,14290.3981419105
STHW,Southwest Park,"1729 VILMA ST, CHARLOTTE, NC 28203",CHARLOTTE,NC,28203.0,Central,9803141002.0,1427454.676,537079.5333,https://www.mecknc.gov/parkandrec/pages/home.aspx?redirect=charmeck,Varies,Yes,Yes,No,No,No,No,No,No,No,Yes,No,No,No,No,No,Yes,Yes,No,No,No,No,No,No,No,No,No,No,No,No,No,No,No,No,No,No,No,Yes,Yes,No,No,No,No,No,No,No,No,No,No,No,No,No,No,No,No,No,No,No,No,No,No,No,No,No,Yes,https://maps.mecklenburgcountync.gov/evaluate/rest/services/park/Parks/FeatureServer/0/167/attachments/3232?token=,COMMUNITY PARK,89.83005156,3912981.31750059,19018.9732900557
UNCC,Kirk Farm Fields Park,"201 E MALLARD CREEK CHURCH RD, CHARLOTTE, NC 28262",CHARLOTTE,NC,28262.0,North,9803141001.0,1483260.637,576128.4647,https://www.mecknc.gov/parkandrec/pages/home.aspx?redirect=charmeck,Daylight,No,No,No,No,No,No,No,No,No,No,No,No,No,No,No,No,No,No,No,No,No,No,No,No,No,No,No,No,No,No,No,Yes,No,No,No,No,No,No,No,No,No,No,No,No,No,No,No,No,No,No,No,No,No,No,No,No,No,No,Yes,No,No,No,No,Yes,https://maps.mecklenburgcountync.gov/evaluate/rest/services/park/Parks/FeatureServer/0/183/attachments/1277?token=,COMMUNITY PARK,35.51703805,1547115.91733398,5050.70008237275
EZEL,Ezell Farm Park,"4155 MINTWOOD DR, MINT HILL, NC 28227",MINT HILL,NC,28227.0,South,9803141003.0,1500639.634,516410.2285,https://www.mecknc.gov/parkandrec/pages/home.aspx?redirect=charmeck,Daylight,No,No,No,No,No,No,No,No,No,No,No,No,No,No,No,No,No,No,No,No,No,Yes,No,No,No,No,No,No,No,No,No,No,No,No,No,No,No,No,No,No,No,No,No,No,No,No,No,No,No,No,No,No,No,No,No,No,No,No,No,No,No,No,No,No,https://maps.mecklenburgcountync.gov/evaluate/rest/services/park/Parks/FeatureServer/0/72/attachments/1325?token=,COMMUNITY PARK,87.92206508,3829869.14602402,10106.6354330487
CADI,The Effortless Golf Center,"10401 CADILLAC ST, PINEVILLE, NC 28134",PINEVILLE,NC,28134.0,South,9803141003.0,1437564.629,495633.6694,https://www.mecknc.gov/parkandrec/pages/home.aspx?redirect=charmeck,Varies,Yes,No,No,No,No,No,No,No,No,No,Yes,No,No,No,No,No,No,No,No,No,No,No,No,No,No,No,No,No,No,No,No,No,No,No,No,No,No,No,No,No,No,No,No,No,No,No,No,No,No,No,No,No,No,No,No,No,No,No,No,No,No,No,No,Yes,https://maps.mecklenburgcountync.gov/evaluate/rest/services/park/Parks/FeatureServer/0/214/attachments/2022?token=,GOLF COURSE,26.928207,1172988.19054434,4491.28695315055
TOMH,Tom Hunter Park,"919 TOM HUNTER RD, CHARLOTTE, NC 28213",CHARLOTTE,NC,28213.0,North,9803141001.0,1468324.171,560956.3476,https://www.mecknc.gov/parkandrec/pages/home.aspx?redirect=charmeck,Daylight,No,No,No,Yes,Yes,Yes,No,No,No,No,No,No,No,No,No,No,No,No,No,No,No,No,No,No,No,No,No,No,No,No,No,No,No,No,No,No,No,No,No,No,No,No,No,No,No,No,No,Yes,No,No,No,No,No,No,No,No,No,No,No,No,No,No,Yes,No,https://maps.mecklenburgcountync.gov/evaluate/rest/services/park/Parks/FeatureServer/0/178/attachments/3202?token=,NEIGHBORHOOD PARK,8.38585803,365286.471941797,2581.68916189454
CTMY,C.T. Myers Golf Course,"7817 HARRISBURG RD, CHARLOTTE, NC 28215",CHARLOTTE,NC,28215.0,South,9803141003.0,1496508.108,539832.7766,https://www.mecknc.gov/parkandrec/pages/home.aspx?redirect=charmeck,Daylight,Yes,No,No,No,No,No,No,No,No,No,Yes,No,No,No,No,No,No,No,No,No,No,No,No,No,No,No,No,No,No,No,No,No,No,No,No,No,No,No,No,No,No,No,No,No,No,No,No,No,No,No,No,No,No,No,No,No,No,No,No,No,No,No,No,Yes,https://maps.mecklenburgcountync.gov/evaluate/rest/services/park/Parks/FeatureServer/0/250/attachments/2041?token=,GOLF COURSE,309.66245228,13488842.6255592,17588.9701930358
SOLO,Solomans Park,"3299 VENICE ST, CHARLOTTE, NC 28216",CHARLOTTE,NC,28216.0,Central,9803141002.0,1441622.376,555139.0659,https://www.mecknc.gov/parkandrec/pages/home.aspx?redirect=charmeck,Daylight,No,Yes,No,Yes,Yes,Yes,No,No,No,No,No,No,No,No,No,No,No,No,No,No,No,No,No,No,No,No,No,No,No,No,No,No,No,No,No,No,No,No,No,No,No,No,No,No,No,No,No,No,No,No,No,No,No,No,No,No,No,No,No,No,No,No,Yes,No,https://maps.mecklenburgcountync.gov/evaluate/rest/services/park/Parks/FeatureServer/0/164/attachments/2055?token=,NEIGHBORHOOD PARK,0.65207785,28404.3831597656,841.033486397806
MEMS,American Legion Memorial Stadium,"310 N KINGS DR, CHARLOTTE, NC 28204",CHARLOTTE,NC,28204.0,Central,7043362884.0,1453905.874,539746.4418,https://www.mecknc.gov/parkandrec/pages/home.aspx?redirect=charmeck,Varies,Yes,No,No,No,No,No,No,No,No,No,No,No,No,No,No,No,No,No,No,No,No,No,No,No,No,No,No,No,No,No,No,Yes,No,No,No,No,No,No,No,No,No,No,No,No,No,No,No,No,No,No,No,No,No,No,No,No,No,No,No,No,No,No,No,Yes,https://maps.mecklenburgcountync.gov/evaluate/rest/services/park/Parks/FeatureServer/0/114/attachments/3252?token=,EVENT VENUE,13.11948549,571482.428858398,5246.89581085179
REVG,Charles L. Sifford Golf Course,"2661 BARRINGER DR, CHARLOTTE, NC 28208",CHARLOTTE,NC,28208.0,Central,9803141002.0,1438529.898,537556.8295,https://www.mecknc.gov/parkandrec/pages/home.aspx?redirect=charmeck,Daylight,Yes,No,No,No,No,No,No,No,No,No,Yes,No,No,No,No,No,No,No,No,No,No,No,No,No,No,No,No,No,No,No,No,No,No,No,No,No,No,No,No,No,No,No,No,No,No,No,No,No,No,No,No,No,No,No,No,No,No,No,No,No,No,No,No,Yes,https://maps.mecklenburgcountync.gov/evaluate/rest/services/park/Parks/FeatureServer/0/148/attachments/3235?token=,GOLF COURSE,114.75706526,4998797.97755859,13468.3909751259
RGLF,Harry L. Jones Sr. Golf Course,"1525 W TYVOLA RD, CHARLOTTE, NC 28217",CHARLOTTE,NC,28217.0,South,9803141003.0,1429241.28,524383.1284,https://www.mecknc.gov/parkandrec/pages/home.aspx?redirect=charmeck,Daylight,Yes,No,No,No,No,No,No,No,No,No,Yes,No,No,No,No,No,No,No,No,No,No,No,No,No,No,No,No,No,No,No,No,No,No,No,No,No,No,No,No,No,No,No,No,No,No,No,No,No,No,No,No,No,No,No,No,No,No,No,No,No,No,No,No,Yes,https://maps.mecklenburgcountync.gov/evaluate/rest/services/park/Parks/FeatureServer/0/150/attachments/2046?token=,GOLF COURSE,342.33146929,14911898.384924,19069.4939500932
DAVS,Clarks Creek Nature Preserve,"5434 HUCKS RD, CHARLOTTE, NC 28269",CHARLOTTE,NC,28269.0,North,9803141001.0,1460036.146,587879.0109,https://www.mecknc.gov/parkandrec/pages/home.aspx?redirect=charmeck,Daylight,No,No,No,No,Yes,No,No,No,No,No,No,No,No,No,No,Yes,Yes,No,No,No,No,No,No,No,No,No,No,No,No,No,No,No,No,No,No,No,No,No,No,No,No,No,No,No,No,No,No,No,No,No,No,No,No,No,No,No,No,No,No,No,No,No,Yes,Yes,https://maps.mecklenburgcountync.gov/evaluate/rest/services/park/Parks/FeatureServer/0/46/attachments/1271?token=,NATURE PRESERVE,108.80733119,4739628.36441719,9682.45480038322
FRND,Friendship Sportsplex,"2310 CINDY LN, CHARLOTTE, NC 28216",CHARLOTTE,NC,28216.0,North,9803141001.0,1447108.335,563216.1885,https://www.mecknc.gov/parkandrec/pages/home.aspx?redirect=charmeck,Daylight,Yes,Yes,No,No,Yes,No,No,No,No,No,No,No,No,No,No,Yes,Yes,No,No,No,No,No,No,No,No,No,No,No,No,No,No,No,No,No,No,No,Yes,No,No,No,No,No,No,No,No,No,No,No,No,No,No,No,No,No,No,No,No,No,No,No,No,No,No,Yes,https://maps.mecklenburgcountync.gov/evaluate/rest/services/park/Parks/FeatureServer/0/225/attachments/1287?token=,REGIONAL PARK,4.03956726,175962.77696543,1849.59919348547
SUNH,Sunset Hills Golf Course,"800 RADIO RD, CHARLOTTE, NC 28216",CHARLOTTE,NC,28216.0,North,9803141001.0,1437141.011,571286.0144,https://www.mecknc.gov/parkandrec/pages/home.aspx?redirect=charmeck,Varies,Yes,Yes,No,No,No,No,No,No,No,No,Yes,No,No,No,No,No,No,No,No,No,No,No,No,No,No,No,No,No,No,No,No,No,No,No,No,No,No,No,No,No,No,No,No,No,No,No,No,No,No,No,No,No,No,No,No,No,No,No,No,No,No,No,No,Yes,https://maps.mecklenburgcountync.gov/evaluate/rest/services/park/Parks/FeatureServer/0/172/attachments/1284?token=,GOLF COURSE,264.27735806,11511877.2222623,26710.3632436652
TRGL,Tradition Golf Course,"3800 PROSPERITY CHURCH RD, CHARLOTTE, NC 28269",CHARLOTTE,NC,28269.0,North,9803141001.0,1470357.596,587398.5279,https://www.mecknc.gov/parkandrec/pages/home.aspx?redirect=charmeck,Varies,Yes,Yes,No,No,No,No,No,No,No,No,Yes,No,No,No,No,No,No,No,No,No,No,No,No,No,No,No,No,No,No,No,No,No,No,No,No,No,No,No,No,No,No,No,No,No,No,No,No,No,No,No,No,No,No,No,No,No,No,No,No,No,No,No,No,Yes,https://maps.mecklenburgcountync.gov/evaluate/rest/services/park/Parks/FeatureServer/0/179/attachments/2005?token=,GOLF COURSE,194.11074377,8455429.78602793,17687.3765571228
DRUD,Druid Hills Park,"2801 POINSETT ST, CHARLOTTE, NC 28206",CHARLOTTE,NC,28206.0,Central,9803141002.0,1453292.949,554069.1403,https://www.mecknc.gov/parkandrec/pages/home.aspx?redirect=charmeck,Daylight,No,Yes,No,No,Yes,Yes,No,No,No,No,No,No,No,No,No,No,Yes,No,No,No,No,Yes,No,No,No,No,No,Yes,No,No,No,No,No,No,No,No,No,No,No,No,No,No,No,No,No,No,No,No,No,No,No,No,No,No,No,No,No,No,No,No,No,No,Yes,No,https://maps.mecklenburgcountync.gov/evaluate/rest/services/park/Parks/FeatureServer/0/58/attachments/3601?token=,NEIGHBORHOOD PARK,6.92054024,301457.577490625,3360.70720436812
EVER,Evergreen Nature Preserve,"1336 NORLAND RD, CHARLOTTE, NC 28205",CHARLOTTE,NC,28205.0,South,9803141003.0,1468972.751,535558.5032,https://www.mecknc.gov/parkandrec/pages/home.aspx?redirect=charmeck,Daylight,Yes,No,No,No,No,Yes,No,No,No,No,No,No,No,No,No,Yes,Yes,No,No,No,No,No,No,No,No,No,No,No,No,No,No,No,No,No,No,No,No,No,No,No,No,No,No,No,No,No,No,No,No,No,No,No,No,No,No,No,No,No,No,No,No,No,No,Yes,https://maps.mecklenburgcountync.gov/evaluate/rest/services/park/Parks/FeatureServer/0/61/attachments/3215?token=,NATURE PRESERVE,77.41414574,3372147.00311621,9090.2958059876
FBNP,Flat Branch Nature Preserve,"11833 TOM SHORT RD, CHARLOTTE, NC 28277",CHARLOTTE,NC,28277.0,South,9803141003.0,1463138.029,476484.2369,https://www.mecknc.gov/parkandrec/pages/home.aspx?redirect=charmeck,Daylight,Yes,No,No,No,No,No,No,No,No,No,No,No,No,No,No,Yes,Yes,No,No,No,No,No,No,No,No,No,No,No,No,No,No,No,No,No,No,No,No,No,No,No,No,No,No,No,No,No,No,No,No,No,No,No,No,No,No,No,No,No,No,No,No,No,No,Yes,https://maps.mecklenburgcountync.gov/evaluate/rest/services/park/Parks/FeatureServer/0/270/attachments/2025?token=,NATURE PRESERVE,42.22003027,1839096.72862461,6145.37170283012
BRYT,Bryant Park,"1701 W MOREHEAD ST, CHARLOTTE, NC 28208",CHARLOTTE,NC,28208.0,Central,9803141002.0,1441724.342,543159.2186,https://www.mecknc.gov/parkandrec/pages/home.aspx?redirect=charmeck,Daylight,No,No,No,No,No,No,No,No,No,No,No,No,No,No,No,No,No,No,No,No,No,No,Yes,No,No,No,No,No,No,No,No,Yes,No,No,No,No,Yes,No,No,No,No,No,No,No,No,No,No,No,No,No,No,No,No,No,No,No,No,No,No,No,No,No,No,No,https://maps.mecklenburgcountync.gov/evaluate/rest/services/park/Parks/FeatureServer/0/21/attachments/3229?token=,NEIGHBORHOOD PARK,14.77402477,643553.795427148,6135.008541997
CARM,Carmel Road Park,"2365 CARMEL RD, CHARLOTTE, NC 28226",CHARLOTTE,NC,28226.0,South,9803141003.0,1459880.021,508712.683,https://www.mecknc.gov/parkandrec/pages/home.aspx?redirect=charmeck,Daylight,Yes,Yes,No,No,Yes,Yes,Yes,No,No,No,No,No,No,No,No,Yes,No,No,No,No,No,No,No,No,No,No,No,No,No,No,No,Yes,No,No,No,No,Yes,No,No,No,No,No,No,No,No,No,No,No,No,No,No,No,No,No,No,No,No,No,No,No,No,No,Yes,Yes,https://maps.mecklenburgcountync.gov/evaluate/rest/services/park/Parks/FeatureServer/0/25/attachments/2406?token=,NEIGHBORHOOD PARK,9.70009484,422534.588183984,2689.74189100781
MCCG,McAlpine Creek Community Garden,"399 HOLLY LN, CHARLOTTE, NC 28212",CHARLOTTE,NC,28212.0,South,9803141000.0,1471179.235,509524.479,https://www.mecknc.gov/parkandrec/pages/home.aspx?redirect=charmeck,Daylight,No,No,No,No,No,No,No,No,No,No,No,No,No,No,No,No,No,No,No,No,No,Yes,No,No,No,No,No,No,No,No,No,No,No,No,No,No,No,No,No,No,No,No,No,No,No,No,No,No,No,No,No,No,No,No,No,No,No,No,No,No,No,No,No,No,https://maps.mecklenburgcountync.gov/evaluate/rest/services/park/Parks/FeatureServer/0/258/attachments/3257?token=,GREENWAY,34.66151299,1509849.28848027,20398.2872329899
RIBW,Ribbonwalk Nature Preserve,"5017 HOYT HINSON RD, CHARLOTTE, NC 28269",CHARLOTTE,NC,28269.0,North,9803141000.0,1457448.575,566045.9846,https://www.mecknc.gov/parkandrec/pages/home.aspx?redirect=charmeck,Daylight,Yes,No,No,No,No,No,No,No,No,No,No,No,No,No,No,No,Yes,No,No,No,No,No,No,No,No,No,No,No,No,No,No,No,No,No,No,No,No,No,No,No,No,No,No,No,No,No,No,No,No,No,No,No,No,No,No,No,No,No,No,No,No,No,No,Yes,https://maps.mecklenburgcountync.gov/evaluate/rest/services/park/Parks/FeatureServer/0/151/attachments/1280?token=,NATURE PRESERVE,186.80713718,8137286.46737578,18263.9891970832
GRAY,Grayson Park,"750 BEAL ST, CHARLOTTE, NC 28211",CHARLOTTE,NC,28211.0,South,9803141003.0,1463335.645,529069.4498,https://www.mecknc.gov/parkandrec/pages/home.aspx?redirect=charmeck,Daylight,No,No,No,No,Yes,Yes,Yes,No,No,No,No,No,No,No,No,Yes,No,No,No,No,No,No,No,Yes,No,No,No,No,No,No,No,No,No,No,No,No,Yes,Yes,No,No,No,No,No,No,No,No,No,No,No,No,No,No,No,No,No,No,No,No,No,No,No,No,No,Yes,https://maps.mecklenburgcountync.gov/evaluate/rest/services/park/Parks/FeatureServer/0/253/attachments/3222?token=,NEIGHBORHOOD PARK,12.13351886,528533.817579492,3215.29244565317
BIGR,Big Rock Nature Preserve,"6500 ELMSTONE DR, CHARLOTTE, NC 28277",CHARLOTTE,NC,28277.0,South,9803141003.0,1453468.38,482058.1875,https://www.mecknc.gov/parkandrec/pages/home.aspx?redirect=charmeck,Daylight,No,No,No,No,No,No,No,No,No,No,No,No,No,No,No,No,Yes,No,No,No,No,No,No,No,No,No,No,No,No,No,No,No,No,No,No,No,No,No,No,No,No,No,No,No,No,No,No,No,No,No,No,No,No,No,No,No,No,No,No,No,No,No,No,No,https://maps.mecklenburgcountync.gov/evaluate/rest/services/park/Parks/FeatureServer/0/16/attachments/1310?token=,NATURE PRESERVE,21.85678581,952077.812834961,6137.74171184843
COWW,Cowans Ford Wildlife Refuge,"2329 NECK RD, HUNTERSVILLE, NC 28078",HUNTERSVILLE,NC,28078.0,North,9803141001.0,1411765.583,596232.0576,https://www.mecknc.gov/parkandrec/pages/home.aspx?redirect=charmeck,Daylight,No,No,No,No,No,No,No,No,No,No,No,No,No,No,No,No,No,No,No,No,No,No,No,No,No,No,No,No,No,No,No,No,No,No,No,No,No,No,No,No,No,No,No,No,No,No,No,No,No,No,No,Yes,No,No,No,No,No,No,No,No,No,No,No,Yes,https://maps.mecklenburgcountync.gov/evaluate/rest/services/park/Parks/FeatureServer/0/43/attachments/1268?token=,NATURE PRESERVE,849.35193205,36997622.537477,64834.3199448177
WBNP,West Branch Nature Preserve,"17439 SUMMERS WALK BV, DAVIDSON, NC 28036",DAVIDSON,NC,28036.0,North,9803141001.0,1472027.475,624495.3751,https://www.mecknc.gov/parkandrec/pages/home.aspx?redirect=charmeck,Daylight,No,No,No,No,No,No,No,No,No,No,No,No,No,No,No,No,Yes,No,No,No,No,No,No,No,No,No,No,No,No,No,No,No,No,No,No,No,No,No,No,No,No,No,No,No,No,No,No,No,No,No,No,No,No,No,No,No,No,No,Yes,No,No,No,No,No,https://maps.mecklenburgcountync.gov/evaluate/rest/services/park/Parks/FeatureServer/0/199/attachments/1263?token=,NATURE PRESERVE,90.59347073,3946235.727625,8414.41455394838
CEDR,Cedarwood Park,"6624 REDDMAN RD, CHARLOTTE, NC 28212",CHARLOTTE,NC,28212.0,South,9803141003.0,1477174.592,529105.6791,https://www.mecknc.gov/parkandrec/pages/home.aspx?redirect=charmeck,Daylight,No,No,No,No,Yes,No,No,No,No,No,No,No,No,No,No,No,Yes,No,No,No,No,No,No,No,No,No,No,No,No,No,No,No,No,No,No,No,No,No,No,No,No,No,No,No,No,No,No,Yes,No,No,No,No,No,No,No,No,No,No,No,No,No,No,Yes,No,https://maps.mecklenburgcountync.gov/evaluate/rest/services/park/Parks/FeatureServer/0/28/attachments/2035?token=,NEIGHBORHOOD PARK,8.59935948,374586.590281055,2656.79945212514
CHAS,Charles Avenue Park,"800 CHARLES AV, CHARLOTTE, NC 28205",CHARLOTTE,NC,28205.0,Central,9803141002.0,1460277.961,548213.0956,https://www.mecknc.gov/parkandrec/pages/home.aspx?redirect=charmeck,Daylight,No,No,No,Yes,No,Yes,No,No,No,No,No,No,No,No,No,Yes,No,No,No,No,No,No,No,No,No,No,No,No,No,No,No,No,No,No,No,No,No,No,No,No,No,No,No,No,No,No,No,No,No,No,No,No,No,No,No,No,No,No,No,No,No,No,No,No,https://maps.mecklenburgcountync.gov/evaluate/rest/services/park/Parks/FeatureServer/0/29/attachments/9?token=,NEIGHBORHOOD PARK,0.62904042,27400.8745310547,667.034570041602
CHTY,Chantilly Park,"222 WYANOKE AV, CHARLOTTE, NC 28205",CHARLOTTE,NC,28205.0,Central,9803141002.0,1459684.67,535404.7833,https://www.mecknc.gov/parkandrec/pages/home.aspx?redirect=charmeck,Daylight,No,No,No,Yes,Yes,No,No,Yes,No,No,No,No,No,No,No,Yes,Yes,No,No,No,No,No,No,No,No,Yes,No,No,No,No,No,Yes,No,No,No,No,No,No,No,No,No,No,No,No,No,No,No,No,No,No,No,No,No,No,No,No,No,No,No,No,No,No,Yes,No,https://maps.mecklenburgcountync.gov/evaluate/rest/services/park/Parks/FeatureServer/0/30/attachments/3223?token=,NEIGHBORHOOD PARK,19.48992629,848977.629094727,6088.20781726319
ALHS,Alexandriana Historic Site,"9921 OLD STATESVILLE RD, CHARLOTTE, NC 28269",CHARLOTTE,NC,28269.0,North,9803141001.0,1456584.958,590193.8029,https://www.mecknc.gov/parkandrec/pages/home.aspx?redirect=charmeck,Daylight,No,No,No,No,No,No,No,No,No,No,No,No,No,No,No,No,Yes,No,No,No,No,No,Yes,No,No,No,No,No,No,No,No,No,No,No,No,No,No,No,No,No,No,No,No,No,No,No,No,No,No,No,No,No,No,No,No,No,No,No,No,No,No,No,No,Yes,https://maps.mecklenburgcountync.gov/evaluate/rest/services/park/Parks/FeatureServer/0/10/attachments/1283?token=,HISTORIC SITE,1.01275109,44115.2785052734,1086.90125197183
MCIN,McIntyre Historic Site,"5801 BEATTIES FORD RD, CHARLOTTE, NC 28216",CHARLOTTE,NC,28216.0,North,9803141001.0,1444039.596,573817.5957,https://www.mecknc.gov/parkandrec/pages/home.aspx?redirect=charmeck,Daylight,No,No,No,Yes,No,No,No,No,No,No,No,No,No,No,No,No,Yes,No,No,No,No,No,Yes,No,No,No,No,No,No,No,No,No,No,No,No,No,No,No,No,No,No,No,No,No,No,No,No,No,No,No,No,No,No,No,No,No,No,No,No,No,No,No,No,Yes,https://maps.mecklenburgcountync.gov/evaluate/rest/services/park/Parks/FeatureServer/0/109/attachments/1282?token=,HISTORIC SITE,1.74716162,76105.9193097656,1122.66253351452
CLEM,Davis Flohr Park,"3020 CLEMSON AV, CHARLOTTE, NC 28205",CHARLOTTE,NC,28205.0,Central,9803141002.0,1461636.744,547720.8184,https://www.mecknc.gov/parkandrec/pages/home.aspx?redirect=charmeck,Daylight,No,No,No,No,Yes,Yes,No,No,No,No,No,No,No,No,No,No,No,No,No,No,No,No,No,No,No,No,No,Yes,No,No,No,No,No,No,No,No,No,No,No,No,No,No,No,No,No,No,No,No,No,No,No,No,No,No,No,No,No,No,No,No,No,No,Yes,No,https://maps.mecklenburgcountync.gov/evaluate/rest/services/park/Parks/FeatureServer/0/31/attachments/8?token=,NEIGHBORHOOD PARK,0.90918134,39603.7815060547,797.861432693549
GATE,Iswa Nature Preserve,"9909 WILKINSON BV, CHARLOTTE, NC 28214",CHARLOTTE,NC,28214.0,South,9803141003.0,1401189.0,550085.0001,https://www.mecknc.gov/parkandrec/pages/home.aspx?redirect=charmeck,Daylight,No,No,No,No,No,No,No,No,No,No,No,No,No,No,No,No,Yes,No,No,No,No,No,No,No,No,No,No,No,No,No,No,No,No,No,No,No,No,No,No,No,No,No,No,No,No,No,No,No,No,No,No,No,No,No,No,No,No,No,No,No,No,No,No,Yes,https://maps.mecklenburgcountync.gov/evaluate/rest/services/park/Parks/FeatureServer/0/68/attachments/2012?token=,NATURE PRESERVE,138.01847009,6012059.43883555,12233.2321767696
LATN,Latta Nature Preserve,"5226 SAMPLE RD, HUNTERSVILLE, NC 28216",HUNTERSVILLE,NC,28216.0,North,9803141129.0,1432158.248,591131.9673,https://www.mecknc.gov/parkandrec/pages/home.aspx?redirect=charmeck,Daylight,Yes,No,No,No,No,No,No,Yes,No,No,No,Yes,Yes,No,No,Yes,Yes,No,No,No,Yes,No,No,No,Yes,No,No,No,No,No,No,No,No,No,No,No,No,No,No,No,No,No,No,No,No,No,Yes,No,No,No,No,No,No,No,No,No,No,Yes,No,No,No,No,No,Yes,https://maps.mecklenburgcountync.gov/evaluate/rest/services/park/Parks/FeatureServer/0/91/attachments/4002?token=,NATURE PRESERVE,1471.5522888,64100560.8933961,68931.9237859403
MCDL,McDowell Nature Preserve,"15222 YORK RD, CHARLOTTE, NC 28278",CHARLOTTE,NC,28278.0,South,9803141128.0,1394705.428,495414.2011,https://www.mecknc.gov/parkandrec/pages/home.aspx?redirect=charmeck,Daylight,Yes,No,Yes,No,Yes,No,No,No,No,No,No,Yes,Yes,No,No,Yes,Yes,No,Yes,No,No,No,No,No,No,No,No,No,Yes,No,No,No,No,No,Yes,No,No,No,No,No,No,No,No,Yes,No,No,No,No,No,No,No,Yes,No,No,No,No,No,Yes,No,No,No,No,Yes,Yes,https://maps.mecklenburgcountync.gov/evaluate/rest/services/park/Parks/FeatureServer/0/108/attachments/17?token=,NATURE PRESERVE,1143.22860453,49798839.9197613,104780.964820538
RENP,Reedy Creek Nature Preserve,"2900 ROCKY RIVER RD, CHARLOTTE, NC 28215",CHARLOTTE,NC,28215.0,North,9803141001.0,1487659.751,560034.7351,https://www.mecknc.gov/parkandrec/pages/home.aspx?redirect=charmeck,Daylight,Yes,No,No,No,No,No,No,No,No,No,No,No,Yes,No,No,Yes,Yes,No,No,No,No,No,Yes,No,No,No,No,No,No,No,No,No,No,No,No,No,No,No,No,No,No,No,No,No,No,No,No,No,No,No,No,Yes,No,No,No,No,No,Yes,No,No,No,No,No,Yes,https://maps.mecklenburgcountync.gov/evaluate/rest/services/park/Parks/FeatureServer/0/145/attachments/2036?token=,NATURE PRESERVE,676.72572188,29478053.8737268,38308.9653320511
RURL,Rural Hill Nature Preserve,"4431 NECK RD, HUNTERSVILLE, NC 28078",HUNTERSVILLE,NC,28078.0,North,9803141001.0,1420177.126,600330.8759,https://www.mecknc.gov/parkandrec/pages/home.aspx?redirect=charmeck,Daylight,Yes,No,No,No,No,No,No,No,No,No,No,No,No,No,No,No,Yes,No,No,No,No,No,Yes,No,No,No,No,No,No,No,No,No,No,No,Yes,No,No,No,No,No,No,No,No,No,No,No,No,No,No,No,No,No,No,No,No,No,No,No,No,No,No,No,No,Yes,https://maps.mecklenburgcountync.gov/evaluate/rest/services/park/Parks/FeatureServer/0/155/attachments/1267?token=,NATURE PRESERVE,497.16240942,21656307.9482471,41293.9821938663
SHRM,Sherman Branch Nature Preserve,"12501 ROCKY RIVER CHURCH RD, MINT HILL, NC 28215",MINT HILL,NC,28215.0,North,9803141001.0,1512680.496,545396.3159,https://www.mecknc.gov/parkandrec/pages/home.aspx?redirect=charmeck,Daylight,Yes,No,No,No,No,No,No,No,No,Yes,No,No,No,No,No,No,Yes,No,No,No,No,No,No,No,No,No,No,No,No,No,No,No,No,No,No,No,No,No,No,No,No,No,No,No,No,No,No,No,No,No,No,No,No,No,No,No,No,Yes,No,No,No,No,No,Yes,https://maps.mecklenburgcountync.gov/evaluate/rest/services/park/Parks/FeatureServer/0/163/attachments/2032?token=,NATURE PRESERVE,209.52786092,9126997.52197637,12600.3967286576
STPH,Buckeye Cove Nature Preserve,"5901 STEPHENS RD, HUNTERSVILLE, NC 28078",HUNTERSVILLE,NC,28078.0,North,9803141001.0,1422651.546,606613.7284,https://www.mecknc.gov/parkandrec/pages/home.aspx?redirect=charmeck,Daylight,No,No,No,No,No,No,No,No,No,No,No,No,No,No,No,No,Yes,No,No,No,No,No,No,No,No,No,No,No,No,No,No,No,No,No,No,No,No,No,No,No,No,No,No,No,No,No,No,No,No,No,No,No,No,No,No,No,No,No,No,No,No,No,No,Yes,https://maps.mecklenburgcountync.gov/evaluate/rest/services/park/Parks/FeatureServer/0/169/attachments/1264?token=,NATURE PRESERVE,394.36269935,17178368.8907658,51400.3817129995
STPH,Buckeye Cove Nature Preserve,"4918 CASHION RD, HUNTERSVILLE, NC 28078",HUNTERSVILLE,NC,28078.0,North,9803141001.0,1420020.678,610417.1214,https://www.mecknc.gov/parkandrec/pages/home.aspx?redirect=charmeck,Daylight,No,No,No,No,No,No,No,No,No,No,No,No,No,No,No,No,Yes,No,No,No,No,No,No,No,No,No,No,No,No,No,No,No,No,No,No,No,No,No,No,No,No,No,No,No,No,No,No,No,No,No,No,No,No,No,No,No,No,No,No,No,No,No,No,Yes,https://maps.mecklenburgcountync.gov/evaluate/rest/services/park/Parks/FeatureServer/0/223/attachments/1265?token=,NATURE PRESERVE,394.36269935,17178368.8907658,51400.3817129995
MARS,Marshall Park,"800 E 3RD ST, CHARLOTTE, NC 28202",CHARLOTTE,NC,28202.0,Central,9803141002.0,1450791.701,540101.0559,https://www.mecknc.gov/parkandrec/pages/home.aspx?redirect=charmeck,Daylight,No,Yes,No,No,No,No,No,No,No,No,No,No,No,No,No,No,Yes,No,Yes,No,No,No,No,No,No,No,No,No,No,No,No,No,No,No,No,No,No,No,No,No,No,No,No,No,No,No,No,No,No,No,No,No,No,No,No,No,No,No,No,No,No,No,No,No,https://maps.mecklenburgcountync.gov/evaluate/rest/services/park/Parks/FeatureServer/0/202/attachments/1301?token=,NEIGHBORHOOD PARK,5.49856483,239516.460741211,2285.88256607256
BRNH,Rocky River Bluff Nature Preserve,"20532 SHEARER RD, DAVIDSON, NC 28036",DAVIDSON,NC,28036.0,North,9803141001.0,1467044.126,637081.3759,https://www.mecknc.gov/parkandrec/pages/home.aspx?redirect=charmeck,Daylight,No,No,No,No,No,No,No,No,No,No,No,No,No,No,No,No,No,No,No,No,No,No,No,No,No,No,No,No,No,No,No,No,No,No,No,No,No,No,No,No,No,No,No,No,No,No,No,No,No,No,No,No,No,No,No,No,No,No,No,No,No,No,No,No,https://maps.mecklenburgcountync.gov/evaluate/rest/services/park/Parks/FeatureServer/0/19/attachments/1262?token=,NATURE PRESERVE,61.07334776,2660343.80843535,9481.09522313491
SHFP,Shuffletown Prairie Nature Preserve,"2804 HART RD, CHARLOTTE, NC 28214",CHARLOTTE,NC,28214.0,North,9803141001.0,1415261.331,580173.5785,https://www.mecknc.gov/parkandrec/pages/home.aspx?redirect=charmeck,Non-Operational,No,No,No,No,No,No,No,No,No,No,No,No,No,No,No,No,No,No,No,No,No,No,No,No,No,No,No,No,No,No,No,No,No,No,No,No,No,No,No,No,No,No,No,No,No,No,No,No,No,No,No,No,No,No,No,No,No,No,No,No,No,No,No,No,https://maps.mecklenburgcountync.gov/evaluate/rest/services/park/Parks/FeatureServer/0/160/attachments/2007?token=,NATURE PRESERVE,18.06010959,786695.311670508,7817.8875160253
COLL,Collins Park,"4525 COLLINGWOOD DR, CHARLOTTE, NC 28209",CHARLOTTE,NC,28209.0,Central,9803141002.0,1440896.75,526061.0002,https://www.mecknc.gov/parkandrec/pages/home.aspx?redirect=charmeck,Daylight,No,No,No,No,Yes,No,Yes,No,No,No,No,No,No,No,No,Yes,Yes,No,No,No,No,No,No,No,No,No,No,Yes,No,No,No,Yes,No,No,No,No,No,No,No,No,No,No,No,No,No,No,No,No,No,No,No,No,No,No,No,No,No,No,No,No,No,No,Yes,No,https://maps.mecklenburgcountync.gov/evaluate/rest/services/park/Parks/FeatureServer/0/37/attachments/3241?token=,NEIGHBORHOOD PARK,3.6734543,160014.909522852,2057.42215461263
COLN,Colonial Park,"219 PROVIDENCE RD, CHARLOTTE, NC 28207",CHARLOTTE,NC,28207.0,Central,9803141002.0,1455178.719,535075.1338,https://www.mecknc.gov/parkandrec/pages/home.aspx?redirect=charmeck,Daylight,No,Yes,No,No,Yes,Yes,Yes,No,No,No,No,No,No,No,No,No,Yes,No,No,No,No,No,No,No,No,No,No,No,No,No,No,No,No,No,No,No,No,No,No,No,No,No,No,No,No,No,No,Yes,No,No,No,No,No,No,No,No,No,No,No,No,No,No,Yes,No,https://maps.mecklenburgcountync.gov/evaluate/rest/services/park/Parks/FeatureServer/0/38/attachments/3263?token=,NEIGHBORHOOD PARK,2.49295555,108592.663238477,1629.12327865575
CROS,Forest Pawtuckett Park,"1102 ASHFORD ST, CHARLOTTE, NC 28214",CHARLOTTE,NC,28214.0,North,9803141001.0,1419429.849,556645.6972,https://www.mecknc.gov/parkandrec/pages/home.aspx?redirect=charmeck,Daylight,No,Yes,No,Yes,Yes,No,No,No,No,No,No,No,No,No,No,Yes,Yes,No,No,No,No,No,No,No,No,No,No,No,No,No,No,No,No,Yes,No,No,No,No,No,No,No,No,No,No,No,No,No,Yes,No,No,No,No,No,No,No,No,No,No,No,No,No,No,Yes,No,https://maps.mecklenburgcountync.gov/evaluate/rest/services/park/Parks/FeatureServer/0/45/attachments/1292?token=,NEIGHBORHOOD PARK,8.01470042,349118.902437109,3723.90083233545
STVN,Stevens Creek Nature Preserve,"15700 THOMPSON RD, MINT HILL, NC 28227",MINT HILL,NC,28227.0,South,9803141003.0,1507866.416,512614.9737,https://www.mecknc.gov/parkandrec/pages/home.aspx?redirect=charmeck,Daylight,No,No,No,No,No,No,No,No,No,No,No,No,No,No,No,No,Yes,No,No,No,No,No,No,No,No,No,No,No,No,No,No,No,No,No,No,No,No,No,No,No,No,No,No,No,No,No,No,No,No,No,No,No,No,No,No,No,No,No,No,No,No,No,No,Yes,https://maps.mecklenburgcountync.gov/evaluate/rest/services/park/Parks/FeatureServer/0/259/attachments/1326?token=,NATURE PRESERVE,280.21079556,12205932.8218504,22001.810825131
HOSK,Eva B. Barber Park,"3801 GOSSETT AV, CHARLOTTE, NC 28208",CHARLOTTE,NC,28208.0,North,9803141001.0,1437463.883,554782.8835,https://www.mecknc.gov/parkandrec/pages/home.aspx?redirect=charmeck,Daylight,No,No,No,No,Yes,Yes,No,Yes,No,No,No,No,No,No,No,Yes,Yes,No,No,No,No,Yes,No,No,No,No,No,No,No,No,No,No,No,No,No,No,No,No,No,No,No,No,No,No,No,No,No,Yes,No,No,No,No,No,No,No,No,No,No,No,No,No,No,Yes,No,https://maps.mecklenburgcountync.gov/evaluate/rest/services/park/Parks/FeatureServer/0/79/attachments/2043?token=,NEIGHBORHOOD PARK,15.55598798,677616.101079492,5081.88919468466
ALEX,Alexander Park,"739 E 12TH ST, CHARLOTTE, NC 28206",CHARLOTTE,NC,28206.0,Central,9803141002.0,1454368.71,542959.2309,https://www.mecknc.gov/parkandrec/pages/home.aspx?redirect=charmeck,Daylight,Yes,Yes,No,No,Yes,Yes,Yes,No,No,No,No,No,No,No,No,Yes,No,No,No,No,No,No,No,No,No,No,No,No,No,No,No,Yes,No,No,No,No,No,No,No,No,No,No,No,No,No,No,No,No,No,No,No,No,No,No,No,No,No,No,Yes,No,No,No,Yes,Yes,https://maps.mecklenburgcountync.gov/evaluate/rest/services/park/Parks/FeatureServer/0/3/attachments/3213?token=,NEIGHBORHOOD PARK,4.4379737,193317.437073242,2651.03740477643
ALHP,Allen Hills Park,"4701 CHEVIOT RD, CHARLOTTE, NC 28269",CHARLOTTE,NC,28269.0,North,9803141001.0,1457258.371,563623.9445,https://www.mecknc.gov/parkandrec/pages/home.aspx?redirect=charmeck,Daylight,Yes,No,No,Yes,Yes,Yes,No,No,No,No,No,No,No,No,No,No,Yes,No,No,No,No,No,No,No,No,No,No,No,No,No,No,Yes,No,No,No,No,Yes,No,No,No,No,No,No,No,No,No,No,No,No,No,No,No,No,No,No,No,No,No,No,No,No,No,Yes,Yes,https://maps.mecklenburgcountync.gov/evaluate/rest/services/park/Parks/FeatureServer/0/11/attachments/1281?token=,NEIGHBORHOOD PARK,18.08717427,787874.238590039,5398.31968238691
ANSP,Anita Stroud Park,"2215 DOUBLE OAKS RD, CHARLOTTE, NC 28206",CHARLOTTE,NC,28206.0,Central,9803141002.0,1450370.587,551900.0398,https://www.mecknc.gov/parkandrec/pages/home.aspx?redirect=charmeck,Daylight,No,Yes,No,No,Yes,Yes,No,No,No,No,No,No,No,No,No,Yes,Yes,No,No,No,No,No,No,No,No,No,No,No,No,No,No,No,No,No,No,No,No,No,No,No,No,No,No,No,No,No,No,No,No,No,No,No,No,No,No,No,No,No,No,No,No,No,No,No,https://maps.mecklenburgcountync.gov/evaluate/rest/services/park/Parks/FeatureServer/0/5/attachments/3206?token=,NEIGHBORHOOD PARK,5.24940323,228663.219386328,3954.51194082491
BIDD,Biddleville Park,"500 ANDRILL TR, CHARLOTTE, NC 28216",CHARLOTTE,NC,28216.0,Central,9803141002.0,1447589.614,548667.2521,https://www.mecknc.gov/parkandrec/pages/home.aspx?redirect=charmeck,Daylight,No,No,No,No,No,Yes,No,No,No,No,No,No,No,No,No,No,No,No,No,No,No,No,No,No,No,No,No,No,No,No,No,No,No,No,No,No,Yes,No,No,No,No,No,No,No,No,No,No,No,No,No,No,No,No,No,No,No,No,No,No,No,No,No,No,No,https://maps.mecklenburgcountync.gov/evaluate/rest/services/park/Parks/FeatureServer/0/15/attachments/3209?token=,NEIGHBORHOOD PARK,3.22112292,140311.357352148,1827.0040757485
EALD,Eagles Landing Park,"1204 EAGLES LANDING DR, CHARLOTTE, NC 28214",CHARLOTTE,NC,28214.0,North,9803141001.0,1425159.716,559031.7724,https://www.mecknc.gov/parkandrec/pages/home.aspx?redirect=charmeck,Daylight,No,Yes,No,No,Yes,No,No,No,No,No,No,No,No,No,No,Yes,Yes,No,No,No,No,No,No,No,No,No,No,No,No,No,No,No,No,No,No,No,No,No,No,No,No,No,No,No,No,No,No,No,No,No,No,No,No,No,No,No,No,No,No,No,No,No,Yes,No,https://maps.mecklenburgcountync.gov/evaluate/rest/services/park/Parks/FeatureServer/0/52/attachments/1293?token=,NEIGHBORHOOD PARK,7.70411046,335589.68768125,3474.15948957108
EDGE,Edgehill Park,"812 S EDGEHILL RD, CHARLOTTE, NC 28207",CHARLOTTE,NC,28207.0,Central,9803141002.0,1452965.177,533600.4483,https://www.mecknc.gov/parkandrec/pages/home.aspx?redirect=charmeck,Daylight,No,No,No,No,Yes,No,Yes,No,No,No,No,No,No,No,No,No,Yes,No,No,No,No,No,No,No,No,No,No,Yes,No,No,No,No,No,No,No,No,No,No,No,No,No,No,No,No,No,No,No,No,No,No,No,No,No,No,No,No,No,No,No,No,No,No,Yes,No,https://maps.mecklenburgcountync.gov/evaluate/rest/services/park/Parks/FeatureServer/0/54/attachments/3224?token=,NEIGHBORHOOD PARK,5.37185906,233997.188330859,2990.77503205131
FOUR,Fourth Ward Park,"301 N POPLAR ST, CHARLOTTE, NC 28202",CHARLOTTE,NC,28202.0,Central,9803141002.0,1449875.708,544321.5989,https://www.mecknc.gov/parkandrec/pages/home.aspx?redirect=charmeck,Daylight,No,Yes,No,No,Yes,No,No,No,No,No,No,No,No,No,No,No,Yes,No,No,No,No,No,No,No,No,No,No,No,No,No,No,No,No,No,No,No,No,No,No,No,No,No,No,No,No,No,No,No,No,No,No,No,No,No,No,No,No,No,No,No,No,No,Yes,No,https://maps.mecklenburgcountync.gov/evaluate/rest/services/park/Parks/FeatureServer/0/64/attachments/1297?token=,NEIGHBORHOOD PARK,2.91757052,127089.00597168,2537.46666772504
FRAZ,Frazier Park,"1201 W 4TH ST EXT, CHARLOTTE, NC 28202",CHARLOTTE,NC,28202.0,Central,9803141002.0,1445548.778,545017.7281,https://www.mecknc.gov/parkandrec/pages/home.aspx?redirect=charmeck,Daylight,No,No,No,No,Yes,Yes,Yes,No,No,No,No,No,No,No,No,No,Yes,Yes,No,No,No,Yes,No,No,No,No,No,No,No,No,No,Yes,No,Yes,No,No,No,No,No,No,No,No,No,No,No,No,No,No,No,No,No,No,No,No,No,No,No,No,Yes,No,No,No,Yes,Yes,https://maps.mecklenburgcountync.gov/evaluate/rest/services/park/Parks/FeatureServer/0/71/attachments/1304?token=,NEIGHBORHOOD PARK,17.08388583,744170.864911523,6842.29756678049
FRED,Fred Alexander Park,"1832 GRIERS GROVE RD, CHARLOTTE, NC 28216",CHARLOTTE,NC,28216.0,North,9803141001.0,1445217.181,563028.3556,https://www.mecknc.gov/parkandrec/pages/home.aspx?redirect=charmeck,Daylight,No,Yes,No,No,Yes,Yes,Yes,No,No,No,No,No,No,No,No,Yes,No,No,No,No,No,Yes,No,No,No,No,No,No,No,No,No,No,No,No,No,No,No,No,No,No,No,No,No,No,No,No,No,No,No,No,No,No,No,No,No,No,No,No,No,No,No,No,Yes,No,https://maps.mecklenburgcountync.gov/evaluate/rest/services/park/Parks/FeatureServer/0/65/attachments/1286?token=,NEIGHBORHOOD PARK,6.04484121,263312.342516602,2240.55085216386
FRST,First Ward Park,"309 E 7TH ST, CHARLOTTE, NC 28202",CHARLOTTE,NC,28202.0,Central,9803141002.0,1451815.426,542871.3429,https://www.mecknc.gov/parkandrec/pages/home.aspx?redirect=charmeck,Daylight,No,Yes,No,No,Yes,No,No,No,Yes,No,No,No,No,No,No,No,No,No,No,No,No,No,No,No,No,No,No,Yes,No,No,No,No,No,No,Yes,No,No,No,No,No,No,No,No,No,No,No,No,Yes,No,No,No,No,No,No,No,Yes,No,No,No,No,No,No,No,No,https://maps.mecklenburgcountync.gov/evaluate/rest/services/park/Parks/FeatureServer/0/220/attachments/1296?token=,NEIGHBORHOOD PARK,3.06108676,133340.363347461,2047.48693272975
HOWA,Howie Acres Park,"1001 TREMBETH DR, CHARLOTTE, NC 28205",CHARLOTTE,NC,28205.0,North,9803141001.0,1467294.476,550544.5533,https://www.mecknc.gov/parkandrec/pages/home.aspx?redirect=charmeck,Daylight,No,No,No,No,Yes,Yes,No,No,No,No,No,No,No,No,No,Yes,No,No,No,No,No,No,No,No,No,No,No,No,No,No,No,No,No,No,No,No,No,No,No,No,No,No,No,No,No,No,No,No,No,No,No,No,No,No,No,No,No,No,No,No,No,No,Yes,Yes,https://maps.mecklenburgcountync.gov/evaluate/rest/services/park/Parks/FeatureServer/0/80/attachments/3210?token=,NEIGHBORHOOD PARK,7.8072333,340081.457331445,3870.33699607658
MIDT,Midtown Park,"510 S KINGS DR, CHARLOTTE, NC 28204",CHARLOTTE,NC,28204.0,Central,9803141002.0,1451630.387,536701.9948,https://www.mecknc.gov/parkandrec/pages/home.aspx?redirect=charmeck,Daylight,No,Yes,No,No,No,No,No,No,No,No,No,No,No,No,No,No,No,No,No,No,No,No,No,No,No,No,No,No,No,No,No,No,No,No,No,No,No,No,No,No,No,No,No,No,No,No,No,Yes,No,No,No,No,No,No,No,No,No,No,Yes,No,No,No,No,No,https://maps.mecklenburgcountync.gov/evaluate/rest/services/park/Parks/FeatureServer/0/206/attachments/4001?token=,NEIGHBORHOOD PARK,1.84764529,80483.2403658203,1314.84523126241
INDP,Independence Park,"1631 PARK DR, CHARLOTTE, NC 28204",CHARLOTTE,NC,28204.0,Central,9803141002.0,1455238.791,538372.317,https://www.mecknc.gov/parkandrec/pages/home.aspx?redirect=charmeck,Daylight,No,No,No,Yes,Yes,Yes,Yes,Yes,No,No,No,No,No,No,No,Yes,Yes,No,No,No,No,Yes,No,No,No,Yes,No,No,No,No,Yes,No,No,Yes,No,No,No,No,No,No,No,No,No,No,No,No,No,No,No,No,No,No,No,No,No,Yes,No,No,No,No,No,No,Yes,Yes,https://maps.mecklenburgcountync.gov/evaluate/rest/services/park/Parks/FeatureServer/0/82/attachments/3253?token=,NEIGHBORHOOD PARK,21.08165814,918313.0677,7103.17860231535
JUPK,Julian Underwood Park,"5400 GALWAY DR, CHARLOTTE, NC 28215",CHARLOTTE,NC,28215.0,South,9803141003.0,1475166.988,547499.4936,https://www.mecknc.gov/parkandrec/pages/home.aspx?redirect=charmeck,Daylight,No,No,No,No,Yes,No,No,No,No,No,No,No,No,No,No,Yes,No,No,No,No,No,No,No,No,No,No,No,No,No,No,No,No,No,No,No,No,No,No,No,No,No,No,No,No,No,No,No,Yes,No,No,No,No,No,No,No,No,No,No,No,No,No,No,Yes,No,https://maps.mecklenburgcountync.gov/evaluate/rest/services/park/Parks/FeatureServer/0/251/attachments/3259?token=,NEIGHBORHOOD PARK,13.47228971,586850.545102539,3654.17547458861
LCCP,L.C. Coleman Park,"1501 MCDONALD ST, CHARLOTTE, NC 28216",CHARLOTTE,NC,28216.0,Central,9803141002.0,1444327.015,554187.1161,https://www.mecknc.gov/parkandrec/pages/home.aspx?redirect=charmeck,Daylight,Yes,No,No,No,Yes,Yes,No,No,No,No,No,No,No,No,No,Yes,Yes,No,No,No,No,No,No,No,No,No,No,No,No,No,No,No,No,No,No,No,Yes,No,No,No,No,No,No,No,No,No,No,No,No,No,No,No,No,No,No,No,No,No,No,No,No,No,Yes,Yes,https://maps.mecklenburgcountync.gov/evaluate/rest/services/park/Parks/FeatureServer/0/94/attachments/2054?token=,NEIGHBORHOOD PARK,19.72830469,859361.80672832,9304.75687114927
LHTP,Lincoln Heights Park,"1819 CATHERINE SIMMONS AV, CHARLOTTE, NC 28216",CHARLOTTE,NC,28216.0,Central,9803141002.0,1447992.449,555882.6367,https://www.mecknc.gov/parkandrec/pages/home.aspx?redirect=charmeck,Daylight,No,Yes,No,Yes,Yes,Yes,No,No,No,No,No,No,No,No,No,Yes,Yes,No,No,No,No,Yes,No,No,No,No,No,Yes,No,No,No,No,No,No,No,No,No,No,No,No,No,No,No,No,No,No,No,No,No,No,No,No,No,No,No,No,No,No,No,No,No,No,Yes,Yes,https://maps.mecklenburgcountync.gov/evaluate/rest/services/park/Parks/FeatureServer/0/101/attachments/2052?token=,NEIGHBORHOOD PARK,9.19505471,400534.946549023,5817.77618183883
LIND,Delta Creek Park,"7300 LINDA LAKE DR, CHARLOTTE, NC 28215",CHARLOTTE,NC,28215.0,North,9803141001.0,1484133.106,548323.9679,https://www.mecknc.gov/parkandrec/pages/home.aspx?redirect=charmeck,Daylight,No,No,No,Yes,Yes,No,No,No,No,No,No,No,No,No,No,Yes,Yes,No,No,No,No,No,No,No,No,No,No,Yes,No,No,No,No,No,No,No,No,No,No,No,No,No,No,No,No,No,No,No,No,Yes,No,No,No,No,No,No,Yes,No,No,No,No,No,No,No,No,https://maps.mecklenburgcountync.gov/evaluate/rest/services/park/Parks/FeatureServer/0/204/attachments/10?token=,NEIGHBORHOOD PARK,10.88054297,473954.752193164,3935.41254772332
MIDW,Midwood Park,"2100 WILHELMINA AV, CHARLOTTE, NC 28205",CHARLOTTE,NC,28205.0,Central,9803141002.0,1461718.342,543588.4661,https://www.mecknc.gov/parkandrec/pages/home.aspx?redirect=charmeck,Daylight,Yes,No,No,Yes,Yes,Yes,Yes,No,No,No,No,No,No,No,No,Yes,Yes,No,Yes,No,No,No,No,No,No,No,No,No,No,No,No,Yes,No,No,No,No,Yes,No,No,No,No,No,No,No,No,No,No,No,No,No,No,No,No,No,No,No,No,No,No,No,No,No,Yes,Yes,https://maps.mecklenburgcountync.gov/evaluate/rest/services/park/Parks/FeatureServer/0/115/attachments/3214?token=,NEIGHBORHOOD PARK,6.23999608,271812.982726562,2978.40762620759
MORG,Cherry Park,"501 S TORRENCE ST, CHARLOTTE, NC 28204",CHARLOTTE,NC,28204.0,Central,9803141002.0,1452582.271,536491.9297,https://www.mecknc.gov/parkandrec/pages/home.aspx?redirect=charmeck,Daylight,No,No,No,No,Yes,Yes,No,No,No,No,No,No,No,No,No,No,No,No,No,No,No,No,No,No,No,No,No,No,No,No,No,Yes,No,No,No,No,Yes,No,No,No,No,No,No,No,No,No,No,No,No,No,No,No,No,No,No,No,No,No,No,No,No,No,Yes,No,https://maps.mecklenburgcountync.gov/evaluate/rest/services/park/Parks/FeatureServer/0/243/attachments/3244?token=,NEIGHBORHOOD PARK,2.28970321,99739.2900005859,1532.19382286767
NINT,Ninth Street Park,"417 W 9TH ST, CHARLOTTE, NC 28202",CHARLOTTE,NC,28202.0,Central,9803141002.0,1450224.243,545218.4455,https://www.mecknc.gov/parkandrec/pages/home.aspx?redirect=charmeck,Daylight,No,No,No,No,No,No,No,No,No,No,No,No,No,No,No,No,No,Yes,No,No,No,No,No,No,No,No,No,No,No,No,No,No,No,No,No,No,No,No,No,No,No,No,No,No,No,No,No,No,No,No,No,No,No,No,No,No,No,No,No,No,No,No,No,No,https://maps.mecklenburgcountync.gov/evaluate/rest/services/park/Parks/FeatureServer/0/126/attachments/1298?token=,NEIGHBORHOOD PARK,0.25527066,11119.554171875,423.379667010299
OAKT,Oakhurst Park,"3533 CRAIG AV, CHARLOTTE, NC 28211",CHARLOTTE,NC,28211.0,South,9803141003.0,1465359.696,529298.5952,https://www.mecknc.gov/parkandrec/pages/home.aspx?redirect=charmeck,Daylight,No,No,No,Yes,Yes,Yes,No,No,No,No,No,No,No,No,No,No,No,No,No,No,No,No,No,No,No,No,No,No,No,No,No,No,No,No,No,No,Yes,No,No,No,No,No,No,No,No,No,No,Yes,No,No,No,No,No,No,No,No,No,No,No,No,No,No,Yes,No,https://maps.mecklenburgcountync.gov/evaluate/rest/services/park/Parks/FeatureServer/0/252/attachments/3220?token=,NEIGHBORHOOD PARK,5.13354037,223616.192812695,2115.70178585871
PERL,Pearl Street Park,"602 KENILWORTH AV, CHARLOTTE, NC 28204",CHARLOTTE,NC,28204.0,Central,9803141002.0,1451264.987,537295.9481,https://www.mecknc.gov/parkandrec/pages/home.aspx?redirect=charmeck,Daylight,Yes,No,No,No,Yes,Yes,No,No,No,No,No,No,No,No,No,No,Yes,No,No,No,No,No,No,No,No,No,No,No,No,No,Yes,Yes,No,No,No,No,No,No,No,No,No,No,No,No,No,No,No,Yes,No,No,No,No,No,No,No,Yes,No,No,No,No,No,No,Yes,Yes,https://maps.mecklenburgcountync.gov/evaluate/rest/services/park/Parks/FeatureServer/0/132/attachments/3246?token=,NEIGHBORHOOD PARK,9.92081078,432148.936357227,4636.46659832561
REID,Reid Park,"3207 AMAY JAMES AV, CHARLOTTE, NC 28208",CHARLOTTE,NC,28208.0,Central,9803141002.0,1432367.44,534637.1879,https://www.mecknc.gov/parkandrec/pages/home.aspx?redirect=charmeck,Daylight,No,Yes,No,No,No,Yes,No,No,No,No,No,No,No,No,No,Yes,Yes,No,No,No,No,Yes,No,No,No,No,No,No,No,No,No,No,No,No,No,No,No,No,No,No,No,No,No,No,No,No,No,No,No,No,No,No,No,No,No,No,No,No,No,No,No,No,No,No,https://maps.mecklenburgcountync.gov/evaluate/rest/services/park/Parks/FeatureServer/0/144/attachments/3238?token=,NEIGHBORHOOD PARK,17.71694053,771746.878582227,7944.62172857255
ROBB,Robbins Park,"17738 WEST CATAWBA AV, CORNELIUS, NC 28031",CORNELIUS,NC,28031.0,North,7048926031.0,1437707.001,626301.9992,https://www.cornelius.org/103/Parks-Arts-Recreation-Culture,Daylight,Yes,Yes,No,Yes,Yes,No,Yes,Yes,No,No,No,No,Yes,No,Yes,Yes,Yes,No,No,No,No,No,No,No,No,No,No,No,No,No,Yes,Yes,No,No,No,No,No,No,No,No,No,No,No,No,No,Yes,No,No,No,No,No,Yes,No,No,No,No,No,No,Yes,No,No,No,No,Yes,https://maps.mecklenburgcountync.gov/evaluate/rest/services/park/Parks/FeatureServer/0/233/attachments/1206?token=,NEIGHBORHOOD PARK,7.95226925,346399.343205664,3200.85014573725
ROCK,Theresea C. Elder Park,"6325 ROCKWELL CHURCH RD, CHARLOTTE, NC 28269",CHARLOTTE,NC,28269.0,North,9803141001.0,1463108.376,571111.2459,https://www.mecknc.gov/parkandrec/pages/home.aspx?redirect=charmeck,Daylight,No,No,No,No,Yes,Yes,No,No,No,No,No,No,No,No,No,Yes,Yes,No,No,No,No,No,No,No,No,No,No,Yes,No,No,No,Yes,No,No,No,No,No,No,No,No,No,No,No,No,No,No,No,No,No,No,No,No,No,No,No,No,No,No,No,No,No,No,Yes,No,https://maps.mecklenburgcountync.gov/evaluate/rest/services/park/Parks/FeatureServer/0/153/attachments/1278?token=,NEIGHBORHOOD PARK,15.75024128,686077.89865625,3995.18575201695
SEDF,Sedgefield Park,"600 ELMHURST RD, CHARLOTTE, NC 28209",CHARLOTTE,NC,28209.0,Central,9803141002.0,1444953.404,532281.446,https://www.mecknc.gov/parkandrec/pages/home.aspx?redirect=charmeck,Daylight,No,Yes,No,Yes,Yes,Yes,Yes,No,No,No,No,No,No,No,No,Yes,Yes,No,No,No,No,No,No,No,No,No,No,No,No,No,No,No,No,No,No,No,No,No,No,No,No,No,No,No,No,No,No,No,No,No,No,No,No,No,No,No,No,No,No,No,No,No,Yes,No,https://maps.mecklenburgcountync.gov/evaluate/rest/services/park/Parks/FeatureServer/0/157/attachments/3240?token=,NEIGHBORHOOD PARK,5.05834035,220340.449640039,2139.74951168603
SEVP,Seversville Park,"540 S BRUNS AV, CHARLOTTE, NC 28217",CHARLOTTE,NC,28217.0,Central,9803141002.0,1442707.194,547178.6208,https://www.mecknc.gov/parkandrec/pages/home.aspx?redirect=charmeck,Daylight,No,Yes,No,Yes,Yes,No,No,No,No,No,No,No,No,No,No,Yes,Yes,No,No,No,No,No,No,No,No,No,No,No,No,No,No,No,No,No,No,No,No,No,No,No,No,No,No,No,No,No,No,No,No,No,No,No,No,No,No,No,No,No,Yes,No,No,No,Yes,No,https://maps.mecklenburgcountync.gov/evaluate/rest/services/park/Parks/FeatureServer/0/158/attachments/3231?token=,NEIGHBORHOOD PARK,11.08123782,482696.438323047,3671.82881312125
SHAM,Shamrock Park,"2545 JEFF ST, CHARLOTTE, NC 28205",CHARLOTTE,NC,28205.0,Central,9803141002.0,1467349.193,545361.9667,https://www.mecknc.gov/parkandrec/pages/home.aspx?redirect=charmeck,Daylight,No,No,No,Yes,Yes,No,Yes,No,No,No,No,No,No,No,No,Yes,Yes,No,No,No,No,No,No,No,No,No,No,No,No,No,No,No,No,No,No,No,No,No,No,No,No,No,No,No,No,No,No,No,No,No,No,No,No,No,No,No,No,No,No,No,No,No,Yes,No,https://maps.mecklenburgcountync.gov/evaluate/rest/services/park/Parks/FeatureServer/0/159/attachments/3260?token=,NEIGHBORHOOD PARK,2.21648056,96549.4470158203,1812.21053410016
SPRG,Springfield Park,"6700 DEANWOOD PL, CHARLOTTE, NC 28217",CHARLOTTE,NC,28217.0,South,9803141003.0,1431135.076,518528.0594,https://www.mecknc.gov/parkandrec/pages/home.aspx?redirect=charmeck,Daylight,No,No,No,Yes,No,Yes,No,No,No,No,No,No,No,No,No,No,No,No,No,No,No,No,No,No,No,No,No,No,No,No,No,No,No,No,No,No,No,No,No,No,No,No,No,No,No,No,No,No,No,No,No,No,No,No,No,No,No,No,No,No,No,No,No,No,https://maps.mecklenburgcountync.gov/evaluate/rest/services/park/Parks/FeatureServer/0/165/attachments/2049?token=,NEIGHBORHOOD PARK,11.52057966,501834.392693945,3411.9503463565
THMP,Thompson Park,"1125 E 3RD ST, CHARLOTTE, NC 28204",CHARLOTTE,NC,28204.0,Central,9803141002.0,1452180.288,538692.2129,https://www.mecknc.gov/parkandrec/pages/home.aspx?redirect=charmeck,Daylight,No,Yes,No,No,No,No,No,No,No,No,No,No,No,No,No,No,No,No,No,No,No,No,No,No,Yes,No,No,No,No,No,No,No,No,Yes,No,No,No,No,No,No,No,No,No,No,No,No,No,No,No,No,No,No,No,No,No,No,No,No,Yes,No,No,No,No,Yes,https://maps.mecklenburgcountync.gov/evaluate/rest/services/park/Parks/FeatureServer/0/175/attachments/3249?token=,NEIGHBORHOOD PARK,3.32889263,145006.001442187,1512.84603302711
THRD,James Dennis Rash Park,"1001 W 4TH ST EXT, CHARLOTTE, NC 28202",CHARLOTTE,NC,28202.0,Central,9803141002.0,1446096.741,544878.9741,https://www.mecknc.gov/parkandrec/pages/home.aspx?redirect=charmeck,Daylight,No,No,No,No,No,No,No,No,No,No,No,No,No,No,No,No,No,No,No,No,No,No,No,No,No,No,No,No,No,No,No,No,No,Yes,No,No,No,No,No,No,No,No,No,No,No,No,No,No,No,No,No,No,No,No,No,No,No,No,No,No,No,No,No,No,https://maps.mecklenburgcountync.gov/evaluate/rest/services/park/Parks/FeatureServer/0/176/attachments/1303?token=,NEIGHBORHOOD PARK,0.559811,24385.2647501953,828.583425327171
TUCP,Tuckaseegee Park,"4820 TUCKASEEGEE RD, CHARLOTTE, NC 28208",CHARLOTTE,NC,28208.0,North,9803141001.0,1430415.472,550805.5421,https://www.mecknc.gov/parkandrec/pages/home.aspx?redirect=charmeck,Daylight,Yes,No,No,No,Yes,Yes,Yes,No,No,No,No,No,No,No,No,Yes,Yes,No,No,No,No,No,No,No,No,No,No,No,No,No,Yes,Yes,No,No,No,No,Yes,No,No,No,No,No,No,No,No,No,No,Yes,No,No,No,No,No,No,No,No,No,No,No,No,No,No,Yes,Yes,https://maps.mecklenburgcountync.gov/evaluate/rest/services/park/Parks/FeatureServer/0/182/attachments/2011?token=,NEIGHBORHOOD PARK,19.74348673,860022.718342969,5935.6033149433
UNTY,Unity Park,"6401 KELSEY DR, CHARLOTTE, NC 28215",CHARLOTTE,NC,28215.0,North,9803141001.0,1476805.596,552276.8959,https://www.mecknc.gov/parkandrec/pages/home.aspx?redirect=charmeck,Daylight,No,No,No,No,Yes,No,Yes,No,No,No,No,No,No,No,No,Yes,No,No,No,No,No,No,No,No,No,No,No,No,No,No,No,Yes,No,No,No,No,No,No,No,No,No,No,No,No,No,No,No,No,No,No,No,No,No,No,No,No,No,No,No,No,No,No,Yes,No,https://maps.mecklenburgcountync.gov/evaluate/rest/services/park/Parks/FeatureServer/0/185/attachments/2803?token=,NEIGHBORHOOD PARK,5.32990644,232170.030919141,2213.52424433477
VIEW,Viewmont Park,"5400 VIEWMONT DR, CHARLOTTE, NC 28215",CHARLOTTE,NC,28215.0,North,9803141001.0,1477494.418,554226.9274,https://www.mecknc.gov/parkandrec/pages/home.aspx?redirect=charmeck,Daylight,No,No,No,No,No,No,No,No,No,No,No,No,No,No,No,No,No,No,No,No,No,No,No,No,No,No,No,No,No,No,No,No,No,No,No,No,No,No,No,No,No,No,No,No,No,No,No,Yes,No,No,No,No,No,No,No,No,No,No,No,No,No,No,Yes,No,https://maps.mecklenburgcountync.gov/evaluate/rest/services/park/Parks/FeatureServer/0/188/attachments/2802?token=,NEIGHBORHOOD PARK,11.0258968,480286.1271875,2766.41339536716
WADD,Waddell Street Park,"1505 WADDELL ST, CHARLOTTE, NC 28216",CHARLOTTE,NC,28216.0,Central,9803141002.0,1448839.995,552887.3995,https://www.mecknc.gov/parkandrec/pages/home.aspx?redirect=charmeck,Daylight,No,No,No,No,Yes,Yes,No,No,No,No,No,No,No,No,No,Yes,Yes,No,No,No,No,No,No,No,No,No,No,Yes,No,No,No,Yes,No,No,No,No,No,No,No,No,No,No,No,No,No,No,No,No,No,No,No,No,No,No,No,No,No,No,No,No,No,No,Yes,Yes,https://maps.mecklenburgcountync.gov/evaluate/rest/services/park/Parks/FeatureServer/0/189/attachments/2053?token=,NEIGHBORHOOD PARK,4.88140999,212633.479270898,2137.53690813374
WCPK,West Charlotte Park,"2401 KENDALL DR, CHARLOTTE, NC 28216",CHARLOTTE,NC,28216.0,Central,9803141002.0,1445799.331,557465.429,https://www.mecknc.gov/parkandrec/pages/home.aspx?redirect=charmeck,Daylight,No,Yes,No,Yes,Yes,Yes,No,No,Yes,No,No,No,No,No,No,Yes,No,No,No,No,No,No,No,No,No,No,No,No,No,No,No,No,No,No,No,No,No,No,No,No,No,No,No,No,No,No,No,No,No,No,No,No,No,No,No,No,No,No,No,No,No,No,Yes,Yes,https://maps.mecklenburgcountync.gov/evaluate/rest/services/park/Parks/FeatureServer/0/191/attachments/2051?token=,NEIGHBORHOOD PARK,3.21570916,140075.726352539,1506.80203321254
WEPK,Romare Bearden Park,"300 S CHURCH ST, CHARLOTTE, NC 28202",CHARLOTTE,NC,28202.0,Central,9803141002.0,1448476.753,542416.8192,https://www.mecknc.gov/parkandrec/pages/home.aspx?redirect=charmeck,Daylight,Yes,Yes,No,No,No,No,No,No,Yes,No,No,No,No,No,No,No,No,No,No,No,No,No,No,No,No,No,No,No,No,No,No,No,No,Yes,No,No,No,No,No,No,No,No,No,No,No,No,No,Yes,No,No,No,No,No,No,No,Yes,No,No,No,No,No,No,No,No,https://maps.mecklenburgcountync.gov/evaluate/rest/services/park/Parks/FeatureServer/0/201/attachments/1295?token=,NEIGHBORHOOD PARK,5.09255342,221830.744291211,1934.08221487023
YORK,Yorkmont Park,"6417 VICKERS RD, CHARLOTTE, NC 28217",CHARLOTTE,NC,28217.0,South,9803141003.0,1431594.515,520191.6372,https://www.mecknc.gov/parkandrec/pages/home.aspx?redirect=charmeck,Daylight,No,No,No,No,No,No,No,No,No,No,No,No,No,No,No,No,No,No,No,No,No,No,No,No,No,No,No,No,No,No,No,No,No,No,No,No,No,No,No,No,No,No,No,No,No,No,No,No,No,No,No,No,No,No,No,No,No,No,No,No,No,No,No,No,https://maps.mecklenburgcountync.gov/evaluate/rest/services/park/Parks/FeatureServer/0/196/attachments/2048?token=,NEIGHBORHOOD PARK,2.62214987,114220.451430273,1367.42735187735
BAIL,Bailey Road Park,"11536 BAILEY RD, CORNELIUS, NC 28031",CORNELIUS,NC,28031.0,North,7048926031.0,1450841.0,629579.9999,https://www.cornelius.org/103/Parks-Arts-Recreation-Culture,Daylight,Yes,Yes,No,Yes,Yes,Yes,Yes,No,No,No,No,No,No,No,Yes,Yes,Yes,No,Yes,No,No,No,No,No,No,No,No,No,No,No,No,Yes,No,No,No,No,Yes,Yes,No,No,No,No,No,No,No,No,No,No,No,No,No,No,No,No,No,No,No,Yes,Yes,No,No,No,Yes,Yes,https://maps.mecklenburgcountync.gov/evaluate/rest/services/park/Parks/FeatureServer/0/271/attachments/2?token=,NEIGHBORHOOD PARK,11.84673579,516041.749866016,4382.94515659209
ENDC,Bette Rae Thomas Recreation Center,"2921 TUCKASEEGEE RD, CHARLOTTE, NC 28208",CHARLOTTE,NC,28208.0,Central,9803141111.0,1439430.591,548073.46,https://www.mecknc.gov/parkandrec/pages/home.aspx?redirect=charmeck,Varies,Yes,No,No,Yes,No,No,No,No,No,No,No,No,No,No,No,No,Yes,No,No,No,No,No,No,No,No,No,Yes,Yes,No,No,No,No,No,No,No,No,No,No,No,No,No,No,No,No,No,No,No,No,No,No,No,No,No,No,No,No,No,No,No,No,No,No,No,Yes,https://maps.mecklenburgcountync.gov/evaluate/rest/services/park/Parks/FeatureServer/0/56/attachments/3227?token=,RECREATION CENTER,6.09173624,265355.096700781,2497.08186104956
METO,Second Ward Gymnasium,"710 E MARTIN LUTHER KING JR BV, CHARLOTTE, NC 28202",CHARLOTTE,NC,28202.0,Central,9803141002.0,1450307.352,539411.6044,https://www.mecknc.gov/parkandrec/pages/home.aspx?redirect=charmeck,Varies,Yes,Yes,No,No,No,Yes,No,No,No,No,No,No,No,No,No,No,No,No,No,No,No,No,No,No,No,No,Yes,No,No,No,No,No,No,No,No,No,No,No,No,No,No,No,No,No,No,No,No,No,No,No,No,No,No,No,No,No,No,No,No,No,No,No,No,Yes,https://maps.mecklenburgcountync.gov/evaluate/rest/services/park/Parks/FeatureServer/0/241/attachments/1300?token=,RECREATION CENTER,1.40546297,61221.6975484375,1029.669727619
IDLE,Idlewild Road Park,"10512 IDLEWILD RD, MINT HILL, NC 28105",MINT HILL,NC,28105.0,South,9803141003.0,1491924.957,519129.3077,https://www.mecknc.gov/parkandrec/pages/home.aspx?redirect=charmeck,Varies,Yes,No,No,Yes,Yes,No,No,No,No,No,No,No,Yes,No,Yes,Yes,Yes,No,No,No,No,No,No,No,No,No,No,No,No,No,No,No,No,No,No,No,Yes,No,No,No,No,No,No,No,No,No,No,No,No,No,No,No,No,No,No,No,No,No,No,No,No,No,Yes,Yes,https://maps.mecklenburgcountync.gov/evaluate/rest/services/park/Parks/FeatureServer/0/81/attachments/2031?token=,REGIONAL PARK,128.3835224,5592364.4856543,13731.8190898412
AFRM,Abersham Park,"22031 SHEARER RD, DAVIDSON, NC 28036",DAVIDSON,NC,28036.0,North,7048923349.0,1465333.359,644219.2039,https://www.ci.davidson.nc.us/130/Parks-Recreation,Daylight,No,Yes,No,No,No,No,No,No,No,No,No,No,No,No,No,No,Yes,No,No,No,No,No,No,No,No,No,No,No,No,No,No,No,No,No,No,No,No,No,No,No,No,No,No,No,No,No,No,Yes,No,No,No,No,No,No,No,No,No,No,Yes,No,No,No,No,Yes,https://maps.mecklenburgcountync.gov/evaluate/rest/services/park/Parks/FeatureServer/0/254/attachments/1219?token=,REGIONAL PARK,345.49023042,15049493.7666773,20748.1694108006
AFRM,Abersham Park,"3314 GREY RD, DAVIDSON, NC 28036",DAVIDSON,NC,28036.0,North,7048923349.0,1463087.377,643919.2072,https://www.ci.davidson.nc.us/130/Parks-Recreation,Daylight,No,Yes,No,No,No,No,No,No,No,No,No,No,No,No,No,No,Yes,No,No,No,No,No,No,No,No,No,No,No,No,No,No,No,No,No,No,No,No,No,No,No,No,No,No,No,No,No,No,Yes,No,No,No,No,No,No,No,No,No,No,Yes,No,No,No,No,Yes,https://maps.mecklenburgcountync.gov/evaluate/rest/services/park/Parks/FeatureServer/0/238/attachments/1218?token=,REGIONAL PARK,345.49023042,15049493.7666773,20748.1694108006
CATW,US National Whitewater Center,"5000 WHITEWATER CENTER PY, CHARLOTTE, NC 28214",CHARLOTTE,NC,28214.0,North,7043913900.0,1402482.619,559750.5007,https://usnwc.org,Daylight,Yes,Yes,No,No,No,No,No,No,No,Yes,No,Yes,No,No,No,No,Yes,No,No,No,No,No,No,No,No,No,No,No,No,No,No,No,No,No,No,No,No,No,No,No,No,No,No,No,No,No,No,No,Yes,No,No,No,No,Yes,No,No,No,Yes,No,No,No,No,No,Yes,https://maps.mecklenburgcountync.gov/evaluate/rest/services/park/Parks/FeatureServer/0/26/attachments/1290?token=,REGIONAL PARK,289.01089064,12589264.1825314,32548.4248968637
CDHP,R.C. Bradford Park,"17005 DAVIDSON-CONCORD RD, HUNTERSVILLE, NC 28078",HUNTERSVILLE,NC,28078.0,North,7047662220.0,1466888.484,622859.8956,https://www.huntersville.org/162/Parks-Recreation,Daylight,Yes,No,No,No,Yes,No,No,No,No,No,No,No,No,No,Yes,Yes,No,No,No,No,No,No,No,No,No,No,No,No,No,No,No,Yes,No,No,No,No,Yes,Yes,No,No,No,No,Yes,No,No,No,No,No,No,No,No,No,No,No,No,No,No,No,No,No,No,No,Yes,Yes,https://maps.mecklenburgcountync.gov/evaluate/rest/services/park/Parks/FeatureServer/0/27/attachments/1233?token=,REGIONAL PARK,210.85182672,9184669.17229336,15133.7406710295
COLB,Colonel Francis J. Beatty Park,"4330 WEDDINGTON RD, CHARLOTTE, NC 28105",CHARLOTTE,NC,28105.0,South,9803141003.0,1482781.59,483948.3282,https://www.mecknc.gov/parkandrec/pages/home.aspx?redirect=charmeck,Daylight,Yes,Yes,No,Yes,Yes,Yes,Yes,Yes,No,Yes,No,Yes,Yes,No,No,Yes,Yes,No,No,No,No,No,No,No,No,No,No,No,No,No,No,Yes,No,No,Yes,No,Yes,No,No,No,No,No,No,No,No,No,No,No,No,Yes,No,Yes,No,No,No,No,No,Yes,No,No,No,No,Yes,Yes,https://maps.mecklenburgcountync.gov/evaluate/rest/services/park/Parks/FeatureServer/0/35/attachments/2027?token=,REGIONAL PARK,264.5525566,11523860.6246641,21990.3917190931
DBWF,David B. Waymer Aeromodeller Park,"15401 HOLBROOKS RD, HUNTERSVILLE, NC 28078",HUNTERSVILLE,NC,28078.0,North,9803141001.0,1458548.653,606108.8939,https://www.mecknc.gov/parkandrec/pages/home.aspx?redirect=charmeck,Daylight,Yes,No,No,No,No,No,No,No,No,No,No,No,No,No,No,No,No,No,No,No,No,No,No,No,No,No,No,No,No,No,No,No,Yes,No,No,No,No,No,No,No,No,No,No,No,No,No,No,No,No,No,No,No,No,No,No,Yes,No,No,No,No,No,No,No,Yes,https://maps.mecklenburgcountync.gov/evaluate/rest/services/park/Parks/FeatureServer/0/48/attachments/2004?token=,REGIONAL PARK,139.78458383,6088992.44035938,13464.10899754
MATH,Mecklenburg County Sports Complex,"2425 SPORTS PY, MATTHEWS, NC 28105",MATTHEWS,NC,28105.0,South,9803147539.0,1490721.298,498490.2704,https://www.mecknc.gov/parkandrec/pages/home.aspx?redirect=charmeck,Varies,Yes,Yes,No,No,Yes,No,No,No,No,No,No,No,No,No,No,Yes,Yes,No,No,No,No,No,No,No,No,No,No,No,No,No,No,Yes,No,No,No,No,No,No,No,No,No,Yes,Yes,No,No,No,No,No,No,No,No,No,No,No,No,No,No,No,Yes,No,No,No,Yes,Yes,https://maps.mecklenburgcountync.gov/evaluate/rest/services/park/Parks/FeatureServer/0/105/attachments/7?token=,REGIONAL PARK,160.74129221,7001862.79012051,12061.2029300763
FREE,Freedom Park,"2435 CUMBERLAND AV, CHARLOTTE, NC 28203",CHARLOTTE,NC,28203.0,Central,9803141002.0,1448885.715,529821.9295,https://www.mecknc.gov/parkandrec/pages/home.aspx?redirect=charmeck,Daylight,Yes,Yes,No,Yes,Yes,Yes,Yes,Yes,No,No,No,No,Yes,No,No,Yes,Yes,No,Yes,No,No,No,No,No,No,No,No,No,No,No,Yes,Yes,No,Yes,Yes,No,Yes,Yes,No,No,No,No,Yes,No,No,No,No,No,No,No,No,No,Yes,No,No,No,No,No,Yes,No,No,No,Yes,Yes,https://maps.mecklenburgcountync.gov/evaluate/rest/services/park/Parks/FeatureServer/0/66/attachments/6?token=,REGIONAL PARK,104.89593038,4569248.3924332,12175.2903392461
H521,Elon Park,"11435 ARDREY KELL RD, CHARLOTTE, NC 28277",CHARLOTTE,NC,28277.0,South,9803141003.0,1447621.319,468246.0488,https://www.mecknc.gov/parkandrec/pages/home.aspx?redirect=charmeck,Daylight,Yes,No,No,Yes,No,No,No,No,No,No,No,No,No,No,Yes,No,No,No,No,No,No,No,No,No,No,No,No,No,No,No,No,Yes,No,No,No,No,Yes,No,No,No,No,No,No,No,No,No,Yes,No,No,No,No,No,No,No,No,No,No,No,No,No,No,No,No,Yes,https://maps.mecklenburgcountync.gov/evaluate/rest/services/park/Parks/FeatureServer/0/75/attachments/2023?token=,REGIONAL PARK,104.42198898,4548603.1522834,11446.5686106975
HACP,Harrisburg Road Sportsplex,"8045 HARRISBURG RD, CHARLOTTE, NC 28215",CHARLOTTE,NC,28215.0,South,9803141003.0,1497014.638,540819.5347,https://www.mecknc.gov/parkandrec/pages/home.aspx?redirect=charmeck,Varies,Yes,No,No,No,No,No,No,No,No,No,No,No,No,No,No,No,No,No,No,No,No,No,No,No,No,No,No,No,No,No,No,Yes,No,No,No,No,No,No,No,No,No,No,No,No,No,No,No,No,No,No,No,No,No,No,No,No,No,No,No,No,No,No,No,Yes,https://maps.mecklenburgcountync.gov/evaluate/rest/services/park/Parks/FeatureServer/0/249/attachments/2040?token=,REGIONAL PARK,106.20417543,4626234.55264063,10417.253282667
HORN,Hornets Nest Park,"6301 BEATTIES FORD RD, CHARLOTTE, NC 28216",CHARLOTTE,NC,28216.0,North,9803141001.0,1443656.172,576659.3389,https://www.mecknc.gov/parkandrec/pages/home.aspx?redirect=charmeck,Varies,Yes,No,No,No,Yes,Yes,Yes,Yes,No,No,No,No,Yes,No,Yes,Yes,Yes,No,No,No,No,No,No,No,No,No,No,No,No,No,No,No,No,No,Yes,No,Yes,No,No,Yes,No,No,No,No,No,No,No,No,No,Yes,No,No,Yes,No,No,No,No,No,No,No,No,No,Yes,Yes,https://maps.mecklenburgcountync.gov/evaluate/rest/services/park/Parks/FeatureServer/0/78/attachments/1601?token=,REGIONAL PARK,172.00581568,7492543.47360508,13371.4616420818
JPLN,Jetton Park,"19000 JETTON RD, CORNELIUS, NC 28078",CORNELIUS,NC,28078.0,North,9803141001.0,1434814.351,633583.2008,https://www.mecknc.gov/parkandrec/pages/home.aspx?redirect=charmeck,Daylight,Yes,Yes,No,Yes,Yes,No,Yes,No,No,Yes,No,No,Yes,No,No,No,Yes,No,No,No,No,No,No,No,No,No,No,No,No,No,No,No,No,No,Yes,No,No,No,No,No,No,No,No,No,No,No,Yes,No,No,No,No,No,No,No,No,No,No,No,No,No,No,No,Yes,Yes,https://maps.mecklenburgcountync.gov/evaluate/rest/services/park/Parks/FeatureServer/0/89/attachments/1204?token=,REGIONAL PARK,104.01018434,4530665.27450078,15894.9215173781
LTRC,Robert L. Smith Park,"1604 LITTLE ROCK RD, CHARLOTTE, NC 28214",CHARLOTTE,NC,28214.0,North,9803141001.0,1420685.098,553808.957,https://www.mecknc.gov/parkandrec/pages/home.aspx?redirect=charmeck,Daylight,Yes,No,No,No,Yes,No,No,No,No,No,No,No,No,No,Yes,No,Yes,No,No,No,No,No,No,No,No,No,No,No,No,No,No,Yes,No,No,No,No,No,No,No,No,No,No,No,No,No,No,No,No,No,No,No,No,No,No,No,No,No,No,No,No,No,No,Yes,Yes,https://maps.mecklenburgcountync.gov/evaluate/rest/services/park/Parks/FeatureServer/0/103/attachments/2009?token=,REGIONAL PARK,211.23449128,9201338.01407559,25567.8028583523
MCCP,McAlpine Creek Park,"8711 MONROE RD, CHARLOTTE, NC 28212",CHARLOTTE,NC,28212.0,South,9803141003.0,1478221.489,514435.2479,https://www.mecknc.gov/parkandrec/pages/home.aspx?redirect=charmeck,Daylight,No,No,No,No,No,No,No,No,No,No,No,No,Yes,No,No,Yes,Yes,Yes,No,No,No,No,No,No,No,No,No,No,No,No,No,Yes,No,No,No,No,No,No,No,No,No,No,No,No,No,No,No,No,No,No,No,Yes,No,No,No,Yes,No,Yes,Yes,No,No,No,No,Yes,https://maps.mecklenburgcountync.gov/evaluate/rest/services/park/Parks/FeatureServer/0/107/attachments/3216?token=,REGIONAL PARK,109.38763669,4764906.55321094,11289.6198922517
MLCP,Mallard Creek Park,"3001 JOHNSTON OEHLER RD, CHARLOTTE, NC 28269",CHARLOTTE,NC,28269.0,North,9803141001.0,1475023.32,591399.4427,https://www.mecknc.gov/parkandrec/pages/home.aspx?redirect=charmeck,Daylight,Yes,No,No,Yes,Yes,No,Yes,Yes,No,No,No,No,No,No,No,Yes,No,No,No,No,No,No,No,No,No,No,No,No,No,No,No,Yes,No,No,No,No,Yes,Yes,No,No,No,No,No,No,No,No,No,No,No,No,No,No,No,No,No,No,No,No,No,No,No,No,Yes,Yes,https://maps.mecklenburgcountync.gov/evaluate/rest/services/park/Parks/FeatureServer/0/116/attachments/1273?token=,REGIONAL PARK,310.3932698,13520676.4368568,29169.7556783525
NEVN,Nevin Park,"6100 STATESVILLE RD, CHARLOTTE, NC 28269",CHARLOTTE,NC,28269.0,North,9803141001.0,1451160.866,569885.1162,https://www.mecknc.gov/parkandrec/pages/home.aspx?redirect=charmeck,Varies,Yes,No,No,Yes,Yes,No,No,No,Yes,No,No,No,No,No,Yes,Yes,Yes,No,No,No,No,No,No,No,No,No,No,No,No,No,No,Yes,No,No,No,No,Yes,No,No,No,Yes,No,Yes,No,No,No,No,No,No,Yes,No,No,No,No,No,No,Yes,No,No,No,No,No,Yes,Yes,https://maps.mecklenburgcountync.gov/evaluate/rest/services/park/Parks/FeatureServer/0/124/attachments/1279?token=,REGIONAL PARK,196.36118401,8553459.51028926,14916.4473062731
REDY,Reedy Creek Park,"2900 ROCKY RIVER RD, CHARLOTTE, NC 28215",CHARLOTTE,NC,28215.0,North,9803141001.0,1487582.496,559996.4957,https://www.mecknc.gov/parkandrec/pages/home.aspx?redirect=charmeck,Daylight,Yes,Yes,No,No,Yes,Yes,No,Yes,No,No,No,No,No,No,Yes,Yes,Yes,Yes,No,No,No,No,No,No,No,No,No,No,No,No,No,Yes,No,No,Yes,No,Yes,No,No,No,No,No,Yes,No,No,No,No,No,No,Yes,No,No,Yes,No,No,Yes,No,No,No,No,No,No,Yes,Yes,https://maps.mecklenburgcountync.gov/evaluate/rest/services/park/Parks/FeatureServer/0/143/attachments/5?token=,REGIONAL PARK,299.02549238,13025499.0510162,16146.0769998968
RSPK,Renaissance Park,"1536 W TYVOLA RD, CHARLOTTE, NC 28217",CHARLOTTE,NC,28217.0,South,9803141003.0,1429340.235,524412.7907,https://www.mecknc.gov/parkandrec/pages/home.aspx?redirect=charmeck,Varies,Yes,Yes,No,No,No,No,No,Yes,No,Yes,No,No,No,No,Yes,No,No,Yes,No,No,No,No,No,Yes,No,No,No,No,No,No,No,No,No,No,No,No,Yes,No,No,No,No,No,No,No,No,No,No,No,No,No,No,No,No,No,No,No,No,No,No,No,No,No,No,Yes,https://maps.mecklenburgcountync.gov/evaluate/rest/services/park/Parks/FeatureServer/0/154/attachments/2045?token=,REGIONAL PARK,144.9680894,6314784.94268672,13941.8523118144
TMCW,T.M. Winget Park,"12025 WINGET RD, CHARLOTTE, NC 28278",CHARLOTTE,NC,28278.0,South,9803141003.0,1401277.841,508885.5819,https://www.mecknc.gov/parkandrec/pages/home.aspx?redirect=charmeck,Varies,Yes,Yes,No,Yes,Yes,Yes,No,Yes,No,No,No,No,No,No,Yes,Yes,Yes,No,No,No,No,No,No,No,No,No,No,No,No,No,No,Yes,No,No,No,No,Yes,No,No,No,No,No,No,No,No,No,No,Yes,No,Yes,No,No,No,No,No,No,No,No,No,No,No,No,Yes,Yes,https://maps.mecklenburgcountync.gov/evaluate/rest/services/park/Parks/FeatureServer/0/177/attachments/2017?token=,REGIONAL PARK,149.19215254,6498783.94493828,12144.4016375593
UPST,Berewick Park,"5920 DIXIE RIVER RD, CHARLOTTE, NC 28208",CHARLOTTE,NC,28208.0,South,9803141003.0,1408120.605,523981.0722,https://www.mecknc.gov/parkandrec/pages/home.aspx?redirect=charmeck,Daylight,Yes,Yes,No,No,Yes,No,No,No,No,No,No,No,No,No,No,Yes,Yes,No,No,No,No,No,No,No,No,No,No,No,No,No,No,Yes,No,No,No,No,Yes,No,No,No,No,No,No,No,No,No,No,No,No,No,No,No,No,No,No,No,No,No,No,No,No,No,No,Yes,https://maps.mecklenburgcountync.gov/evaluate/rest/services/park/Parks/FeatureServer/0/186/attachments/2013?token=,REGIONAL PARK,197.67562297,8610689.66410723,17563.8982204275
WRDP,William R. Davie Park,"4635 PINEVILLE-MATTHEWS RD, CHARLOTTE, NC 28226",CHARLOTTE,NC,28226.0,South,9803141003.0,1460098.028,492722.5787,https://www.mecknc.gov/parkandrec/pages/home.aspx?redirect=charmeck,Daylight,Yes,No,No,Yes,Yes,Yes,No,Yes,No,No,No,No,No,No,No,No,Yes,Yes,No,No,No,No,No,No,No,No,No,No,No,No,No,Yes,No,No,Yes,No,Yes,Yes,No,No,No,Yes,No,No,No,No,No,No,No,No,No,No,No,No,No,Yes,No,No,No,No,No,No,Yes,Yes,https://maps.mecklenburgcountync.gov/evaluate/rest/services/park/Parks/FeatureServer/0/195/attachments/2402?token=,REGIONAL PARK,106.64467215,4645423.24314746,8807.80799186833
BCKP,Back Creek Park,"3343 BACK CREEK CHURCH RD, CHARLOTTE, NC 28213",CHARLOTTE,NC,28213.0,North,9803141001.0,1492047.596,564895.0866,https://www.mecknc.gov/parkandrec/pages/home.aspx?redirect=charmeck,Non-Operational,No,No,No,No,No,No,No,No,No,No,No,No,No,No,No,No,No,No,No,No,No,No,No,No,No,No,No,No,No,No,No,No,No,No,No,No,No,No,No,No,No,No,No,No,No,No,No,No,No,No,No,No,No,No,No,No,No,No,No,No,No,No,No,No,https://maps.mecklenburgcountync.gov/evaluate/rest/services/park/Parks/FeatureServer/0/13/attachments/401?token=,REGIONAL PARK,126.85128099,5525618.44291406,14815.786177155
WEAC,Westmoreland Athletic Complex,"8430 WESTMORELAND RD, CORNELIUS, NC 28031",CORNELIUS,NC,28031.0,North,7048926031.0,1438561.364,628117.8763,https://www.cornelius.org/103/Parks-Arts-Recreation-Culture,Daylight,Yes,No,No,Yes,Yes,No,No,No,No,No,No,No,No,No,No,No,No,No,No,No,No,No,No,No,No,No,No,No,No,No,No,No,No,No,No,No,Yes,Yes,No,No,No,No,Yes,No,No,No,No,No,No,No,No,No,No,No,No,No,No,No,Yes,No,No,No,No,Yes,https://maps.mecklenburgcountync.gov/evaluate/rest/services/park/Parks/FeatureServer/0/291/attachments/1207?token=,REGIONAL PARK,99.50884193,4334588.36425449,16301.3485804565
