OBJECTID,PRKID,PRKNAME,PRKADDR,STREETNO,STREETDIR,STREETNM,STREETTYPE,STREETSUFF,CITY,STATE,ZIP,PRKTYPE,PRKSTATUS,PRKDIST,PRKSIZE,PRKXCOORD,PRKYCOORD,PRKPHONE,PRKAGE,PRKADAACC,CITYCOUNCI,BOCC,PRKDATE,USERID,UPSIZE_TS,X,Y,LEASEDID
1,YORK,Yorkmont Park,6417 VICKERS RD,6417, ,VICKERS,RD, ,CHARLOTTE,NC,28217,Neighborhood,Developed,South,,,,9803141003,,,District 3,District 2,1998/07/28 00:00:00+00,,,1431594.51492967,520191.63716336,Mecklenburg
2,PKRD,Park Road Park,6220 PARK RD,6220, ,PARK,RD, ,CHARLOTTE,NC,28210,Community,Developed,South,,,,9803141003,,,District 6,District 5,1999/05/07 00:00:00+00,,,1447014.84498847,513334.37375139,Mecklenburg
3,SEDF,Sedgefield Park,600 ELMHURST RD,600, ,ELMHURST,RD, ,CHARLOTTE,NC,28209,Neighborhood,Developed,Central,,,,9803141002,,,District 1,District 4,1998/07/28 00:00:00+00,,,1444953.40430087,532281.44604902,Mecklenburg
4,KING,Wilmore Centennial Park at Southend,1711 S TRYON ST,1711,S,TRYON,ST, ,CHARLOTTE,NC,28203,Neighborhood,Developed,Central,,,,9803141002,,,District 3,District 2,2012/05/17 00:00:00+00,,,1444332.62585601,538160.81585605,Mecklenburg
5,ABRP,Albemarle Road Park,9120 E W T HARRIS BV,9120,E,W T HARRIS,BV,NO,CHARLOTTE,NC,28227,Community,Developed,South,,,,9803141003,,,District 5,District 4,2002/03/18 00:00:00+00,,,1484195.61806604,530843.21767961,Mecklenburg
6,PENN,Charles and Ida Graham Park,8101 OLIVER HAGER RD,0, , , ,NO,HUNTERSVILLE,NC,28078,Town Park,Undeveloped,North,,,,7047662220,,,,District 1,2008/04/21 00:00:00+00,,,1433550.73054622,616092.10167685,Huntersville
7,DRTA,Derita Park,3509 FREW RD,3509, ,FREW,RD, ,CHARLOTTE,NC,28206,Community,Developed,North,,,,9803141001,,,District 1,District 3,1998/07/28 00:00:00+00,,,1460946.33117642,554062.2899138,Mecklenburg
8,NEVN,Nevin Park,6100 STATESVILLE RD,6100, ,STATESVILLE,RD, ,CHARLOTTE,NC,28269,Regional,Developed,North,,,,9803141001,,,District 2,District 3,2000/12/11 00:00:00+00,,,1451160.86573388,569885.11615397,Mecklenburg
9,BRNH,Rocky River Bluff Nature Preserve,20532 SHEARER RD,0, ,NO ADDRESS, , ,DAVIDSON,NC,28036,Nature Preserve,Developed,North,,,,9803141001,,,,District 1,2003/07/11 00:00:00+00,,,1467044.12585603,637081.37585603,Mecklenburg
10,KPPK,KP Park,320 E MATTHEWS ST,320,E,MATTHEWS,ST,,MATTHEWS,NC,28105,Town Park,Developed,South,,,,7043217275,,,,District 6,,,,1486277.07906,501986.15411836,Matthews
11,LATN,Latta Nature Preserve,5226 SAMPLE RD,5226, ,SAMPLE,RD, ,HUNTERSVILLE,NC,28216,Nature Preserve,Developed,North,,,,9803141129,,,,District 1,1998/07/28 00:00:00+00,,,1432158.24810465,591131.96731652,Mecklenburg
12,OLDP,Olde Providence Park,3800 REA RD,3800, ,REA,RD, ,CHARLOTTE,NC,28226,Community,Developed,South,,,,9803141003,,,District 7,District 5,1998/07/28 00:00:00+00,,,1462464.34268114,499870.05936098,Mecklenburg
13,SUGC,Sugaw Creek Recreation Center,943 W SUGAR CREEK RD,943,W,SUGAR CREEK,RD, ,CHARLOTTE,NC,28213,Recreation Center,Developed,North,,,,9803141001,,,District 1,District 3,1998/07/28 00:00:00+00,,,1463875.50833802,558915.30954829,Mecklenburg
14,COOK,Cook Park,15010 ERVIN COOK RD,0, , , ,NO,HUNTERSVILLE,NC,28078,Town Park,Undeveloped,North,,,,7047662220,,,,District 1,2005/12/08 00:00:00+00,,,1435257.20823318,613461.87054826,Huntersville
15,RIBW,Ribbonwalk Nature Preserve,5017 HOYT HINSON RD,5017, ,HOYT HINSON,RD, ,CHARLOTTE,NC,28269,Nature Preserve,Developed,North,,,,9803141000,,,District 2,District 3,2005/07/11 00:00:00+00,,,1457448.57479759,566045.98464716,Mecklenburg
16,WMJP,West Mecklenburg Park,2765 WESTERWOOD VILLAGE DR.,0, , , ,NO,CHARLOTTE,NC,28214,Neighborhood,Undeveloped,North,,,,9803141001,,,District 3,District 2,2008/07/28 00:00:00+00,,,1416395.27172606,551607.9466518,Mecklenburg
17,TUCP,Tuckaseegee Park,4820 TUCKASEEGEE RD,4820, ,TUCKASEEGEE,RD, ,CHARLOTTE,NC,28208,Neighborhood,Developed,North,,,,9803141001,,,District 2,District 2,1998/07/28 00:00:00+00,,,1430415.4719132,550805.54210021,Mecklenburg
18,BCKP,Back Creek Park,3343 BACK CREEK CHURCH RD,0, ,NO ADDRESS, , ,CHARLOTTE,NC,28213,Regional,Undeveloped,North,,,,9803141001,,,District 4,District 3,2002/03/18 00:00:00+00,,,1492047.59592807,564895.08657813,Mecklenburg
19,INPP,Independence Pointe Park,9902 INDEPENDENCE POINTE PY,0, , , ,NO,MATTHEWS,NC,28105,Town Park,Undeveloped,South,,,,7043217275,,,,District 6,2003/07/11 00:00:00+00,,,1487684.4920242,507491.60133268,Matthews
20,FORP,Forest Point Park,7721 FOREST POINT BV,7721,,FOREST POINT,BV,,CHARLOTTE,NC,28217,Neighborhood Park,Undeveloped,South,,,,9803141003,,,District 3,District 2,,,,1430689.34534025,510515.81436808,Mecklenburg
21,LDNP,Lake Davidson Nature Preserve,750 JETTON ST,750,,JETTON,ST,,DAVIDSON,NC,28036,Nature Preserve,Developed,North,,,,7048923349,,,,District 1,,,,1446084.90983638,643443.41345002,Davidson
22,EALD,Eagles Landing Park,1204 EAGLES LANDING DR,0, ,NO ADDRESS, , ,CHARLOTTE,NC,28214,Neighborhood,Developed,North,,,,9803141001,,,District 2,District 2,2003/07/11 00:00:00+00,,,1425159.71578474,559031.77237631,Mecklenburg
23,WBNP,West Branch Nature Preserve,17439 SUMMERS WALK BV,0, , , ,NO,DAVIDSON,NC,28036,Nature Preserve,Developed,North,,,,9803141001,,,,District 1,2008/10/31 00:00:00+00,,,1472027.47469285,624495.37513904,Mecklenburg
24,TMCW,T.M. Winget Park,12025 WINGET RD,12025, ,WINGET,RD, ,CHARLOTTE,NC,28278,Regional,Developed,South,,,,9803141003,,,District 3,District 2,1998/07/28 00:00:00+00,,,1401277.84098262,508885.58185768,Mecklenburg
25,ALHP,Allen Hills Park,4701 CHEVIOT RD,4701, ,CHEVIOT,RD, ,CHARLOTTE,NC,28269,Neighborhood,Developed,North,,,,9803141001,,,District 1,District 3,2007/10/16 00:00:00+00,,,1457258.37133479,563623.94450358,Mecklenburg
26,NATM,Discovery Place Nature Museum,1658 STERLING RD,1658, ,STERLING,RD, ,CHARLOTTE,NC,28209,Museum,Developed,Central,,,,7043726261,,,District 1,District 5,1998/07/28 00:00:00+00,,,1449490.06344724,528492.20969044,Discovery Place
27,AMRC,Amay James Recreation Center & Annex,2425 LESTER ST,2425,,LESTER,ST,,CHARLOTTE,NC,28208,Recreation Center,Undeveloped,Central,,,,9803141002,,,District 3,District 2,2022/08/17 15:44:39+00,,,1431958.00067541,534153.00012825,Mecklenburg
28,WCLT,West Charlotte Recreation Center,2401 KENDALL DR,2401, ,KENDALL,DR, ,CHARLOTTE,NC,28216,Recreation Center,Developed,Central,,,,9803141002,,,District 2,District 2,1998/07/28 00:00:00+00,,,1445689.56901386,557814.66541933,Mecklenburg
29,COPP,Copperhead Island,15200 SOLDIER RD,15200, ,SOLDIER,RD, ,CHARLOTTE,NC,28278,Nature Preserve,Developed,South,,,,9803141003,,,,District 2,1998/07/28 00:00:00+00,,,1394440.25998615,501026.64192905,Mecklenburg
30,JBCP,James Boyce Park,300 BOYCE RD,300, ,BOYCE,RD, ,CHARLOTTE,NC,28211,Community,Developed,South,,,,9803141003,,,District 6,District 5,1999/02/11 00:00:00+00,,,1471143.22903475,513298.18118201,Mecklenburg
31,ARCH,Archdale Park,5400 CHERRYCREST LN,5400, ,CHERRYCREST,LN, ,CHARLOTTE,NC,28217,Neighborhood,Developed,South,,,,9803141003,,,District 3,District 5,2008/09/02 00:00:00+00,,,1436172.61020872,515649.98632927,Mecklenburg
32,EZEL,Ezell Farm Park,4155 MINTWOOD DR,4155, ,MINTWOOD,DR, ,MINT HILL,NC,28227,Community,Developed,South,,,,9803141003,,,,District 6,2003/07/11 00:00:00+00,,,1500639.6336538,516410.22847739,Mecklenburg
33,LNCH,Lake Norman Charter High School Gymnasium,12701 OLD STATESVILLE RD,12701,,OLD STATESVILLE,RD,,HUNTERSVILLE,NC,28078,Recreation Center,Developed,North,,,,7047662220,,,,District 1,,,,1452873.81291521,602745.96758975,Huntersville
34,DBWP,David B. Waymer Park,14200 HOLBROOKS RD,302, ,HOLBROOKS,RD, ,HUNTERSVILLE,NC,28078,Town Park,Developed,North,,,,7047662220,,,,District 1,2003/07/11 00:00:00+00,,,1453280.17666817,605295.32003877,Huntersville
35,MTHC,Methodist Home Recreation Center,3200 SHAMROCK DR,3200, ,SHAMROCK,DR, ,CHARLOTTE,NC,28205,Recreation Center,Developed,South,,,,9803141123,,,District 1,District 4,1998/07/28 00:00:00+00,,,1470575.45623237,545221.96882314,Mecklenburg
36,STVC,Stevens Creek Nature Center,15700 THOMPSON RD,15700,,THOMPSON,RD,,MINT HILL,NC,28227,Nature Center,Developed,South,,,,9803142526,,,,District 6,2020/06/01 11:04:56+00,,,1508713.55389167,511563.54784469,Mecklenburg
37,CTMY,C.T. Myers Golf Course,7817 HARRISBURG RD,7817, ,HARRISBURG,RD, ,CHARLOTTE,NC,28215,Golf Course,Developed,South,,,,9803141003,,,District 5,District 4,2002/03/18 00:00:00+00,,,1496508.10782485,539832.77664553,Mecklenburg
38,SOLO,Solomans Park,3299 VENICE ST,3299, ,VENICE,ST, ,CHARLOTTE,NC,28216,Neighborhood,Developed,Central,,,,9803141002,,,District 2,District 2,1998/07/28 00:00:00+00,,,1441622.37585604,555139.06585603,Mecklenburg
39,MTSP,Matthews-Sardis Park,9650 SARDIS RD,9650,,SARDIS,RD,,MATTHEWS,NC,28105,Town Park,Developed,South,,,,7043217275,,,,District 6,,,,1478847.28320913,502415.59181851,Matthews
40,HARP,Harrisburg Road Park,7701 HARRISBURG RD,7701, ,HARRISBURG,RD, ,CHARLOTTE,NC,28215,Neighborhood,Developed,South,,,,9803141003,,,District 5,District 4,1998/07/28 00:00:00+00,,,1496390.43705367,539205.71976124,Mecklenburg
41,ABER,Abernathy Park,205 GLENDALE DR,205,,GLENDALE,DR,,HUNTERSVILLE,NC,28078,Town Park,Developed,North,,,,7047662220,,,,District 1,,,,1452410.09950764,612667.1392009,Huntersville
42,RURL,Rural Hill Nature Preserve,4431 NECK RD,4431, ,NECK,RD, ,HUNTERSVILLE,NC,28078,Nature Preserve,Developed,North,,,,9803141001,,,,District 1,1998/07/28 00:00:00+00,,,1420177.12585604,600330.87585603,Mecklenburg
43,GRWP,Greenway Park,226 GREENWAY ST,226,,GREENWAY,ST,,HUNTERSVILLE,NC,28078,Town Park,Developed,North,,,,7047662220,,,,District 1,,,,1449771.01106961,607678.62626459,Huntersville
44,LKWD,Lakewood Park,3207 KALYNNE ST,0, , , , ,CHARLOTTE,NC,28208,Neighborhood,Developed,Central,,,,9803141002,,,District 2,District 2,,,,1439226.17631003,552307.84999146,Mecklenburg
45,MOOR,West Cove Park,10012 MOORES CHAPEL LP,10012,,MOORES CHAPEL,LP,,CHARLOTTE,NC,28214,Neighborhood,Undeveloped,South,,,,9803141003,,,,District 2,,,,1401390.76292558,550551.70748833,Mecklenburg
46,PHGP,Parham Gateway Park,710 LAKE PARK DR,710,,LAKE PARK,DR,,DAVIDSON,NC,28036,Town Park,Developed,North,,,,7048923349,,,,District 1,,,,1445399.25828946,641446.64959385,Davidson
47,DELL,Dellwood Center,508 DELLWOOD DR,508,,DELLWOOD,DR,,HUNTERSVILLE,NC,28078,Community Center,Developed,North,,,,7047662220,,,,District 1,,,,1453407.49517803,607319.16974057,Huntersville
48,MDLC,Marion Diehl Recreation Center & Pool,2219 TYVOLA RD,2219, ,TYVOLA,RD, ,CHARLOTTE,NC,28210,Recreation Center,Developed,South,,,,9803141003,,,District 6,District 5,1998/07/28 00:00:00+00,,,1444863.519187,518404.97159144,Mecklenburg
49,LNCE,Lake Norman Charter Elementary School Gymnasium,10019 HAMBRIGHT RD,10019,,HAMBRIGHT,RD,,HUNTERSVILLE,NC,28078,Recreation Center,Developed,North,,,,7047662220,,,,District 1,,,,1442758.99779624,598762.21908929,Huntersville
50,PROG,Progress Park,1301 PARKWOOD AV,1301, ,PARKWOOD,AV, ,CHARLOTTE,NC,28205,Neighborhood,Developed,Central,,,,9803141002,,,District 1,District 3,1998/07/28 00:00:00+00,,,1458838.966985,544717.02925171,Mecklenburg
51,CLAN,Clanton Park,1520 CLANTON RD,1520, ,CLANTON,AV, ,CHARLOTTE,NC,28217,Community,Developed,Central,,,,9803141002,,,District 3,District 2,1998/07/28 00:00:00+00,,,1434491.1482441,536050.46499577,Mecklenburg
52,SWCG,Smallwood Community Garden,2625 ROSLYN AV,2625,,ROSLYN,AV,,CHARLOTTE,NC,28208,Community Garden,Developed,Central,,,,9803141000,,,District 2,District 2,2018/08/24 00:00:00+00,,,1442650.31077462,550766.80974843,Mecklenburg
53,NCPK,North Charlotte Park,3400 SPENCER ST,3400, ,SPENCER,ST, ,CHARLOTTE,NC,28205,Neighborhood,Developed,Central,,,,9803141002,,,District 1,District 4,1998/07/28 00:00:00+00,,,1463246.29339956,549329.76044779,Mecklenburg
54,VIEW,Viewmont Park,5400 VIEWMONT DR,5400, ,VIEWMONT,DR, ,CHARLOTTE,NC,28215,Neighborhood,Developed,North,,,,9803141001,,,District 1,District 3,1998/07/28 00:00:00+00,,,1477494.41831151,554226.92737339,Mecklenburg
55,STMP,Stumptown Park,120 S TRADE ST,120,S,TRADE,ST,,MATTHEWS,NC,28105,Town Park,Developed,South,,,,7043217275,,,,District 6,,,,1484623.54103363,501289.91987824,Matthews
56,CHAS,Charles Avenue Park,800 CHARLES AV,800, ,CHARLES,AV, ,CHARLOTTE,NC,28205,Neighborhood,Developed,Central,,,,9803141002,,,District 1,District 4,1998/07/28 00:00:00+00,,,1460277.96138297,548213.09558709,Mecklenburg
57,HGRC,Hickory Grove Recreation Center,6709 PENCE RD,6709, ,PENCE,RD, ,CHARLOTTE,NC,28215,Recreation Center,Developed,South,,,,9803141003,,,District 5,District 4,2008/02/26 00:00:00+00,,,1487014.49801129,541732.7855729,Mecklenburg
58,FRAZ,Frazier Park,1201 W 4TH ST EXT,1201,W,4TH,ST,EX,CHARLOTTE,NC,28202,Neighborhood,Developed,Central,,,,9803141002,,,District 2,District 4,1998/07/28 00:00:00+00,,,1445548.77815126,545017.72808199,Mecklenburg
59,FOUR,Fourth Ward Park,301 N POPLAR ST,301,N,POPLAR,ST, ,CHARLOTTE,NC,28202,Neighborhood,Developed,Central,,,,9803141002,,,District 2,District 4,2007/12/12 00:00:00+00,,,1449875.70770836,544321.59885255,Mecklenburg
60,FERL,Ferrelltown Park & Preserve,11355 ASBURY CHAPEL RD,11355,,ASBURY CHAPEL,RD,,HUNTERSVILLE,NC,28078,Nature Preserve,Developed,North,,,,9803141001,,,,District 1,2019/11/19 10:00:08+00,,,1461125.09827387,599116.00292338,Mecklenburg
61,STPH,Buckeye Cove Nature Preserve,5901 STEPHENS RD,0, ,NO ADDRESS, ,NO,HUNTERSVILLE,NC,28078,Nature Preserve,Developed,North,,,,9803141001,,,,District 1,1998/07/28 00:00:00+00,,,1422651.5463426,606613.72842097,Mecklenburg
62,MSNW,Mason Wallace Park,7301 MONROE RD,7301, ,MONROE,RD, ,CHARLOTTE,NC,28212,Community,Developed,South,,,,9803141003,,,District 5,District 4,1998/07/28 00:00:00+00,,,1475386.78283872,520579.81877334,Mecklenburg
63,BERP,Berryhill Park,10007 WALKERS FERRY RD,10007,,WALKERS FERRY,RD,,CHARLOTTE,NC,28214,Regional,Undeveloped,South,,,,9803141003,,,,District 2,,,,1407770.99094534,540394.37679182,Mecklenburg
64,EPDO,Monroe Road Park,5715 MONROE RD,5715, ,MONROE,RD, ,CHARLOTTE,NC,28212,Neighborhood,Developed,South,,,,9803141003,,,District 5,District 4,2002/06/12 00:00:00+00,,,1472227.86940674,527689.40730394,Mecklenburg
65,FVRP,Fairview Road Park,10601 FAIRVIEW RD,0, , , ,NO,CHARLOTTE,NC,28227,Regional,Undeveloped,South,,,,9803141003,,,,District 6,2015/03/12 00:00:00+00,,,1519394.12585604,521412.40585603,Mecklenburg
66,HORT,Horticultural Maintenance Facility,11826 MALLARD CREEK RD,11826, ,MALLARD CREEK,RD, ,CHARLOTTE,NC,28269,Operational,Operational,North,,,,9803141001,,,District 4,District 3,1998/08/12 00:00:00+00,,,1476341.76450583,589065.79478429,Mecklenburg
67,MLKP,Martin Luther King Jr. Park,2600 RAVENCROFT DR,2600, ,RAVENCROFT,DR, ,CHARLOTTE,NC,28208,Community,Developed,Central,,,,9803141002,,,District 2,District 2,1998/07/28 00:00:00+00,,,1441263.52550791,549621.52339946,Mecklenburg
68,STHS,Southside Park,645 REMOUNT RD,645, ,REMOUNT,RD, ,CHARLOTTE,NC,28203,Community,Developed,Central,,,,9803141002,,,District 3,District 2,1998/07/28 00:00:00+00,,,1440013.67793728,535946.91209565,Mecklenburg
69,TWSP,Two Spring Park,1133 DOBY SPRINGS DR,1133,,DOBY SPRINGS,DR,,CHARLOTTE,NC,28262,Neighborhood,Undeveloped,North,,,,9803141001,,,District 4,District 3,2022/06/06 00:00:00+00,,,1469041.1038671,565596.3591332,Mecklenburg
70,COCG,Cornelius Community Garden,20708 CATAWBA AV,20708,E,CATAWBA,AV,,CORNELIUS,NC,28031,Community Garden,Developed,North,,,,7048926031,,,,District 1,2013/03/01 00:00:00+00,,,1443079.92047551,636248.83968274,Cornelius
71,HACP,Harrisburg Road Sportsplex,8045 HARRISBURG RD,0, ,NO ADDRESS, , ,CHARLOTTE,NC,28215,Regional,Developed,South,,,,9803141003,,,District 5,District 4,2002/04/03 00:00:00+00,,,1497014.63831733,540819.53473425,Mecklenburg
72,CEDA,Cedarwood Pointe Park,6110 CEDARWOOD POINTE CR,6110,,CEDARWOOD POINTE,CR,,CHARLOTTE,NC,28215,Neighborhood,Undeveloped,South,,,,9803141003,,,District 5,District 4,,,,1496647.97546807,539079.49573702,Mecklenburg
73,CREW,Crews Recreation Center,1201 CREWS RD,1201,,CREWS,RD,,MATTHEWS,NC,28105,Recreation Center,Developed,South,,,,7043217275,,,,District 6,,,,1485539.26845188,504885.06893808,Matthews
74,GRHT,Grier Heights Park,3120 LEROY ST,3120, ,LEROY,ST, ,CHARLOTTE,NC,28205,Neighborhood,Developed,Central,,,,9803141002,,,District 1,District 4,2007/07/16 00:00:00+00,,,1459885.99585602,531103.81585603,Mecklenburg
75,BLTN,Ballantyne Park,10082 COMMUNITY HOUSE RD,0, ,NO ADDRESS, , ,CHARLOTTE,NC,28277,Community,Developed,South,,,,9803141003,,,District 7,District 6,2002/03/18 00:00:00+00,,,1452428.66773783,475004.08656326,Mecklenburg
76,ROBB,Robbins Park,17738 WEST CATAWBA AV,0, , , , ,CORNELIUS,NC,28031,Town Park,Developed,North,,,,7048926031,,,,District 1,2011/09/18 00:00:00+00,,,1437707.00066033,626301.99922885,Cornelius
77,WHIT,White Park,16500 DAVIDSON-CONCORD RD,0, , , ,NO,DAVIDSON,NC,28078,Town Park,Undeveloped,North,,,,7048923349,,,,District 1,2008/04/21 00:00:00+00,,,1469411.52248847,621889.86660065,Davidson
78,TSRC,Tom Sykes Recreation Center,1501 EUCLID AV,1501, ,EUCLID,AV, ,CHARLOTTE,NC,28203,Recreation Center,Developed,Central,,,,9803141113,,,District 1,District 4,2007/02/08 00:00:00+00,,,1446771.10265523,537409.23581868,Mecklenburg
79,CANP,Richard Barry Memorial Park,13707 BEATTIES FORD RD,0, ,NO ADDRESS, , ,HUNTERSVILLE,NC,28078,Town Park,Developed,North,,,,7047662220,,,,District 1,2002/04/03 00:00:00+00,,,1426544.38133998,606545.52143258,Huntersville
80,DBLP,Double Oaks Park,2603 DOUBLE OAKS RD,2603, ,DOUBLE OAKS,RD, ,CHARLOTTE,NC,28206,Neighborhood,Undeveloped,Central,,,,9803141002,,,District 1,District 2,2008/05/14 00:00:00+00,,,1451262.34127046,553450.41003053,Mecklenburg
81,CAPP,Capps Park,17501 MCKEE RD,0, , , ,NO,CHARLOTTE,NC,28278,Community,Undeveloped,South,,,,9803141003,,,,District 6,2003/07/11 00:00:00+00,,,1395719.14607415,483682.65101233,Mecklenburg
82,DRUD,Druid Hills Park,2801 POINSETT ST,2801, ,POINSETT,ST, ,CHARLOTTE,NC,28206,Neighborhood,Developed,Central,,,,9803141002,,,District 1,District 3,1998/10/07 00:00:00+00,,,1453292.9490992,554069.1402861,Mecklenburg
83,BESG,Barnette Elementary School Gymnasium,13659 BEATTIES FORD RD,13659,,BEATTIES FORD,RD,,HUNTERSVILLE,NC,28078,Recreation Center,Developed,North,,,,7047662220,,,,District 1,,,,1426486.26603986,606130.46563414,Huntersville
84,CDHP,R.C. Bradford Park,17005 DAVIDSON-CONCORD RD,0, ,NO ADDRESS, , ,HUNTERSVILLE,NC,28078,Town Park,Developed,North,,,,7047662220,,,,District 1,2007/07/09 00:00:00+00,,,1466888.48361003,622859.89558922,Huntersville
85,CHTY,Chantilly Park,222 WYANOKE AV,222, ,WYANOKE,AV, ,CHARLOTTE,NC,28205,Neighborhood,Developed,Central,,,,9803141002,,,District 1,District 4,1998/07/28 00:00:00+00,,,1459684.66991921,535404.78326172,Mecklenburg
86,BERE,Berewick Recreation Center,5910 DIXIE RIVER RD,5910, ,DIXIE RIVER,RD, ,CHARLOTTE,NC,28208,Recreation Center,Developed,South,,,,9803141003,,,District 3,District 2,2002/11/06 00:00:00+00,,,1408860.1380937,524108.91223726,Mecklenburg
87,PERL,Pearl Street Park,602 KENILWORTH AV,602, ,KENILWORTH,AV, ,CHARLOTTE,NC,28204,Neighborhood,Developed,Central,,,,9803141002,,,District 1,District 4,1998/07/28 00:00:00+00,,,1451264.98688589,537295.94808379,Mecklenburg
88,MLCP,Mallard Creek Park,3001 JOHNSTON OEHLER RD,3001, ,JOHNSTON OEHLER,RD, ,CHARLOTTE,NC,28269,Regional,Developed,North,,,,9803141001,,,District 4,District 1,1998/07/28 00:00:00+00,,,1475023.31981157,591399.44266404,Mecklenburg
89,BJCC,Belle Johnston Community Center,1000 JOHNSTON DR,1000,,JOHNSTON,DR,,PINEVILLE,NC,28134,Recreation Center,Developed,South,,,,7048892400,,,,District 6,,,,1433803.31626667,488956.79333688,Pineville
90,ROSM,Rosedale Nature Park,9519 ROSEWOOD MEADOW LN,9519,,ROSEWOOD MEADOW,LN,,HUNTERSVILLE,NC,28078,Town Park,Developed,North,,,,7047662220,,,,District 1,2023/07/01 00:00:00+00,,,1443275.47211917,609492.38226596,Huntersville
91,SHAM,Shamrock Park,2545 JEFF ST,2545, ,JEFF,ST, ,CHARLOTTE,NC,28205,Neighborhood,Developed,Central,,,,9803141002,,,District 1,District 4,1998/07/28 00:00:00+00,,,1467349.19254094,545361.96669634,Mecklenburg
92,EDGE,Edgehill Park,812 S EDGEHILL RD,812,S,EDGEHILL,RD,NO,CHARLOTTE,NC,28207,Neighborhood,Developed,Central,,,,9803141002,,,District 6,District 5,1998/07/28 00:00:00+00,,,1452965.17706406,533600.44830804,Mecklenburg
93,NORL,Northlake Park,10801 ALEXANDRIANA RD,10801,,ALEXANDRIANA,RD,,HUNTERSVILLE,NC,28078,Community,Undeveloped,North,,,,9803141001,,,,District 1,,,,1447585.10124959,593507.65713659,Mecklenburg
94,MLDC,Mallard Creek Recreation Center,2530 JOHNSTON OEHLER RD,2530, ,JOHNSTON OEHLER,RD, ,CHARLOTTE,NC,28269,Recreation Center,Developed,North,,,,9803141121,,,District 4,District 1,1998/08/12 00:00:00+00,,,1475333.69938931,589500.05171554,Mecklenburg
95,AFRM,Abersham Park,3314 GREY RD,3314,,GREY,RD,,DAVIDSON,NC,28036,Town Park,Developed,North,,,,7048923349,,,,District 1,2008/04/17 00:00:00+00,,,1463087.37701525,643919.20718531,Davidson
96,PRES,Pressley Road Park,1431 PRESSLEY RD,1431, ,PRESSLEY,RD,NO,CHARLOTTE,NC,28217,Neighborhood,Developed,Central,,,,9803141002,,,District 3,District 2,1998/07/28 00:00:00+00,,,1434818.7138892,531932.16462964,Mecklenburg
97,LEGP,Legion Park,21214 LEGION ST,21214,,LEGION,ST,,CORNELIUS,NC,28031,Town Park,Developed,North,,,,7048926031,,,,District 1,1997/05/26 00:00:00+00,,,1446308.27697654,637457.24123415,Cornelius
98,KERN,Gar Creek Park,9230 KERNS RD,9230,,KERNS,RD,,HUNTERSVILLE,NC,28078,Regional,Undeveloped,North,,,,9803141001,,,,District 1,,,,1441473.52534862,591147.25593053,Mecklenburg
99,NINT,Ninth Street Park,417 W 9TH ST,417,W,9TH,ST, ,CHARLOTTE,NC,28202,Neighborhood,Developed,Central,,,,9803141002,,,District 2,District 4,1998/07/28 00:00:00+00,,,1450224.24301341,545218.44554573,Mecklenburg
100,CROS,Forest Pawtuckett Park,1102 ASHFORD ST,0, ,NO ADDRESS, , ,CHARLOTTE,NC,28214,Neighborhood,Developed,North,,,,9803141001,,,District 3,District 2,2003/07/11 00:00:00+00,,,1419429.84942545,556645.69717002,Mecklenburg
101,BAUC,Baucom Park,601 SADIE DR,601,,SADIE,DR,,MATTHEWS,NC,28105,Town Park,Developed,South,,,,7043217275,,,,District 6,,,,1486318.64920686,499834.00877392,Matthews
102,NMPK,North Mecklenburg Park,16131 OLD STATESVILLE RD,16131, ,OLD STATESVILLE,RD, ,HUNTERSVILLE,NC,28078,Town Park,Developed,North,,,,7047662220,,,,District 1,1998/07/28 00:00:00+00,,,1450832.79790348,617750.0735161,Huntersville
103,DBWC,David B. Waymer Recreation & Senior Center,14008 HOLBROOKS RD,14008,,HOLBROOKS,RD,,HUNTERSVILLE,NC,28078,Recreation Center,Developed,North,,,,7047662220,,,,District 1,2020/06/01 10:35:46+00,,,1453025.51379077,605191.38035086,Huntersville
104,HARC,Huntersville Athletic Recreation Center,11836 VERHOEFF DR,11836,,VERHOEFF,DR,,HUNTERSVILLE,NC,28078,Recreation Center,Developed,North,,,,7044645520,,,,District 1,,,,1450524.52119282,602604.44242854,Huntersville
105,CMNP,Clear Creek Park,8616 CLEAR MEADOW LN,8616,,CLEAR MEADOW,LN,,CHARLOTTE,NC,28227,Community,Undeveloped,South,,,,9803141003,,,,District 6,,,,1524300.24578066,530524.87549481,Mecklenburg
106,PPNP,Piedmont Pine Nature Preserve,10505 COBLE RD,10505,,COBLE,RD,,CHARLOTTE,NC,28227,Nature Preserve,Developed,South,,,,9803141003,,,,District 6,,,,1523568.60727009,539691.41014507,Mecklenburg
107,MORG,Cherry Park,501 S TORRENCE ST,501,S,TORRENCE,ST,,CHARLOTTE,NC,28204,Neighborhood,Developed,Central,,,,9803141002,,,District 1,District 4,1998/07/28 00:00:00+00,,,1452582.27125438,536491.92967552,Mecklenburg
108,NMRC,Northern Regional Recreation Center,18121 OLD STATESVILLE RD,18121,,OLD STATESVILLE,RD,,CORNELIUS,NC,28031,Recreation Center,Developed,North,,,,9803141001,,,,District 1,2019/01/15 00:00:00+00,,,1450977.927964,627125.512862,Mecklenburg
109,RICE,Rice Park,2540 RICE RD,2540,,RICE,RD,,MATTHEWS,NC,28105,Town Park,Developed,South,,,,7043217275,,,,District 6,,,,1489992.16893139,510218.80847631,Matthews
110,EAST,Eastover Park,2730 RANDOLPH RD,2730, ,RANDOLPH,RD, ,CHARLOTTE,NC,28207,Neighborhood,Developed,Central,,,,9803141002,,,District 6,District 5,1998/07/28 00:00:00+00,,,1458408.11076438,532565.71704535,Mecklenburg
111,WEST,Westerly Hills Park,3970 BRISTOL DR,3970, ,BRISTOL,DR, ,CHARLOTTE,NC,28208,Neighborhood,Developed,Central,,,,9803141002,,,District 3,District 2,1998/07/28 00:00:00+00,,,1431354.50023103,544156.91648102,Mecklenburg
112,SUNH,Sunset Hills Golf Course,800 RADIO RD,800, ,RADIO,RD, ,CHARLOTTE,NC,28216,Golf Course,Developed,North,,,,9803141001,,,,District 2,1998/07/28 00:00:00+00,,,1437141.01108797,571286.01443262,Mecklenburg
113,BRYT,Bryant Park,1701 W MOREHEAD ST,1701,W,MOREHEAD,ST, ,CHARLOTTE,NC,28208,Neighborhood,Developed,Central,,,,9803141002,,,District 2,District 2,2002/03/18 00:00:00+00,,,1441724.34238173,543159.21857056,Mecklenburg
114,WADD,Waddell Street Park,1505 WADDELL ST,1505, ,WADDELL,ST, ,CHARLOTTE,NC,28216,Neighborhood,Developed,Central,,,,9803141002,,,District 1,District 2,1998/07/28 00:00:00+00,,,1448839.99451984,552887.39948541,Mecklenburg
115,SHFP,Shuffletown Prairie Nature Preserve,2804 HART RD,0, ,NO ADDRESS, , ,CHARLOTTE,NC,28214,Nature Preserve,Undeveloped,North,,,,9803141001,,,District 2,District 1,2002/05/13 00:00:00+00,,,1415261.33132802,580173.57853079,Mecklenburg
116,PLAZ,Plaza Road Park,8518 PLAZA RD EXT,8518,,PLAZA,RD,,CHARLOTTE,NC,28215,Neighborhood,Undeveloped,North,,,,9803141001,,,District 5,District 3,,,,1487953.25058161,552226.28211476,Mecklenburg
117,HESG,Huntersville Elementary School Gymnasium,200 GILEAD RD,200,,GILEAD,RD,,HUNTERSVILLE,NC,28078,Recreation Center,Developed,North,,,,7047662220,,,,District 1,,,,1449828.16502415,609956.60324483,Huntersville
118,COUL,Coulwood Park,198 COULWOOD PARK DR,198, ,COULWOOD PARK,DR, ,CHARLOTTE,NC,28214,Community,Developed,North,,,,9803141001,,,District 2,District 2,1998/07/28 00:00:00+00,,,1421296.36194776,571867.13644038,Mecklenburg
119,REID,Reid Park,3207 AMAY JAMES AV,0, ,NO ADDRESS, , ,CHARLOTTE,NC,28208,Neighborhood,Developed,Central,,,,9803141002,,,District 3,District 2,1998/10/12 00:00:00+00,,,1432367.4397292,534637.18787639,Mecklenburg
120,FULL,Fullwood Community Garden,427 COVENANT CHURCH LN,427,,COVENANT CHURCH,LN,,MATTHEWS,NC,28105,Community Garden,Developed,South,,,,7047081288,,,,District 6,,,,1481763.33315115,503242.60492818,Matthews
121,HOWA,Howie Acres Park,1001 TREMBETH DR,1001, ,TREMBETH,DR, ,CHARLOTTE,NC,28205,Neighborhood,Developed,North,,,,9803141001,,,District 1,District 3,1998/07/28 00:00:00+00,,,1467294.47645806,550544.55327371,Mecklenburg
122,ABBT,Abbott Park,1300 SPRUCE ST,1300, ,SPRUCE,ST, ,CHARLOTTE,NC,28203,Neighborhood,Developed,Central,,,,9803141002,,,District 3,District 2,2007/09/13 00:00:00+00,,,1441233.64932875,538472.58931866,Mecklenburg
123,COLN,Colonial Park,219 PROVIDENCE RD,219, ,PROVIDENCE,RD, ,CHARLOTTE,NC,28207,Neighborhood,Developed,Central,,,,9803141002,,,District 6,District 5,1998/07/28 00:00:00+00,,,1455178.71857129,535075.13381212,Mecklenburg
124,HAYP,Haymarket Nature Preserve,11634 BROOKSHIRE BV,0, ,NO ADDRESS, , ,CHARLOTTE,NC,28214,Nature Preserve,Undeveloped,North,,,,9803141001,,,,District 1,2003/07/11 00:00:00+00,,,1415200.68709043,584912.57162245,Mecklenburg
125,CLWD,Shuffletown Park,9530 BELLHAVEN BV,0, ,NO ADDRESS, , ,CHARLOTTE,NC,28216,Community,Developed,North,,,,9803141001,,,District 2,District 1,1998/08/12 00:00:00+00,,,1420082.32122847,575604.30375443,Mecklenburg
126,GRAY,Grayson Park,750 BEAL ST,750, ,BEAL,ST, ,CHARLOTTE,NC,28211,Neighborhood,Developed,South,,,,9803141003,,,District 6,District 5,1998/07/28 00:00:00+00,,,1463335.64535132,529069.44978248,Mecklenburg
127,PUHU,Purser-Hulsey Park,3024 MATTHEWS-MINT HILL RD,3024, ,MATTHEWS-MINT HILL,RD, ,MATTHEWS,NC,28105,Town Park,Developed,South,,,,7043217275,,,,District 6,2007/02/28 00:00:00+00,,,1496506.50784011,507596.29154465,Matthews
128,BRWD,Briarwood Park,5349 WATERWOOD ST,5349, ,WATERWOOD,ST, ,CHARLOTTE,NC,28215,Community,Developed,North,,,,9803141001,,,District 1,District 3,2002/03/18 00:00:00+00,,,1472738.39859827,552337.43348989,Mecklenburg
129,CGTL,Caldwell Green Tot Lot,320 CALDWELL LN,320,,CALDWELL,LN,,DAVIDSON,NC,28036,Town Park,Developed,North,,,,7048923349,,,,District 1,,,,1454775.46468417,639323.69444917,Davidson
130,HUNT,Huntingtowne Farms Park,2200 RAMBLEWOOD LN,2400, ,RAMBLEWOOD,LN, ,CHARLOTTE,NC,28210,Community,Developed,South,,,,9803141003,,,District 6,District 5,1998/07/28 00:00:00+00,,,1443153.45203777,506777.19694035,Mecklenburg
131,TNGP,Town Green Park,232 MATTHEWS STATION ST,232,,MATTHEWS STATION,ST,,MATTHEWS,NC,28105,Town Park,Developed,South,,,,7043217275,,,,District 6,,,,1486048.94244556,501683.88499069,Matthews
132,TUCC,Tuckaseegee Recreation Center,4820 TUCKASEEGEE RD,4820, ,TUCKASEEGEE,RD, ,CHARLOTTE,NC,28208,Recreation Center,Developed,North,,,,9803141001,,,District 2,District 2,1998/07/28 00:00:00+00,,,1430590.5020514,550832.18879601,Mecklenburg
133,AQUA,Mecklenburg County Aquatic Center,800 E MARTIN LUTHER KING JR BV,800,E,MARTIN LUTHER KING JR,BV, ,CHARLOTTE,NC,28202,Aquatic Center,Developed,Central,,,,9803143483,,,District 1,District 4,2002/03/18 00:00:00+00,,,1450347.38282324,539157.24219421,Mecklenburg
134,DAVS,Clarks Creek Nature Preserve,5434 HUCKS RD,0, ,NO ADDRESS, , ,CHARLOTTE,NC,28269,Nature Preserve,Developed,North,,,,9803141001,,,District 4,District 1,2003/07/11 00:00:00+00,,,1460036.14629455,587879.01088058,Mecklenburg
135,MOCG,Merry Oaks Community Garden,3000 HARBINGER CT,3000,,HARBINGER,CT,,CHARLOTTE,NC,28205,Community Garden,Developed,Central,,,,9803141002,,,District 1,District 4,2017/01/12 00:00:00+00,,,1464702.25321558,540960.09274095,Mecklenburg
136,IRWN,Rays Splash Planet,215 N SYCAMORE ST,215,N,SYCAMORE,ST, ,CHARLOTTE,NC,28202,Aquatic Center,Developed,Central,,,,9803144729,,,District 2,District 4,1998/10/06 00:00:00+00,,,1447182.96527189,546670.29759924,Mecklenburg
137,BERR,Berryhill Nature Preserve,10334 WALKERS FERRY RD,0, ,NO ADDRESS,TR, ,CHARLOTTE,NC,28214,Nature Preserve,Developed,South,,,,9803141003,,,,District 2,2002/03/18 00:00:00+00,,,1406298.00146833,539308.13990733,Mecklenburg
138,HAPK,Huntersville Athletic Park,11836 VERHOEFF DR,0, , , , ,HUNTERSVILLE,NC,28078,Town Park,Developed,North,,,,7047662220,,,,District 1,1975/01/01 00:00:00+00,,,1450108.38454111,602332.90904951,Huntersville
139,LTNC,Quest at Latta Nature Preserve,6345 SAMPLE RD,6345, ,SAMPLE,RD, ,CHARLOTTE,NC,28078,Nature Center,Developed,North,,,,9803141129,,,,District 1,2016/07/06 00:00:00+00,,,1431481.00397289,590670.2947098,Mecklenburg
140,PRNP,Providence Nature Preserve,2710 PEVERELL LN,0, , , ,NO,CHARLOTTE,NC,28270,Nature Preserve,Undeveloped,South,,,,9803141003,,,District 7,District 6,2000/06/27 00:00:00+00,,,1474635.56724131,493859.50720759,Mecklenburg
141,NSLP,North & South Lawn Park,185 HARPER LEE ST,185,,HARPER LEE,ST,,DAVIDSON,NC,28036,Town Park,Developed,North,,,,7048923349,,,,District 1,,,,1455264.52789447,640482.70726255,Davidson
142,MCIN,McIntyre Historic Site,5801 BEATTIES FORD RD,5801, ,BEATTIES FORD,RD, ,CHARLOTTE,NC,28216,Historic,Developed,North,,,,9803141001,,,District 2,District 2,1998/07/28 00:00:00+00,,,1444039.59560676,573817.59566777,Mecklenburg
143,IDLE,Idlewild Road Park,10512 IDLEWILD RD,10512, ,IDLEWILD,RD, ,MINT HILL,NC,28105,Regional,Developed,South,,,,9803141003,,,,District 6,1998/07/28 00:00:00+00,,,1491924.95713772,519129.3077112,Mecklenburg
144,TPDP,The Preserve Dog Park,336 O HENRY AV,336,,O HENRY,AV,,DAVIDSON,NC,28036,Dog Park,Developed,North,,,,7048923349,,,,District 1,,,,1455310.08446747,640786.42891513,Davidson
145,MEMS,American Legion Memorial Stadium,310 N KINGS DR,310,N,KINGS,DR, ,CHARLOTTE,NC,28204,Event Venue,Developed,Central,,,,7043362884,,,District 1,District 4,1998/07/28 00:00:00+00,,,1453905.87445004,539746.44178768,Mecklenburg
146,CMCP,Campbell Creek Park,6601 BARCLIFF DR,6601, ,BARCLIFFE,DR, ,CHARLOTTE,NC,28212,Community,Developed,South,,,,9803141003,,,District 5,District 4,1998/07/28 00:00:00+00,,,1481781.30898839,537915.14910336,Mecklenburg
147,FLTB,Flat Branch Park,11830 TOM SHORT RD,0, ,NO ADDRESS, , ,CHARLOTTE,NC,28277,Community,Developed,South,,,,9803141003,,,District 7,District 6,1998/10/06 00:00:00+00,,,1463068.51380785,476440.55346794,Mecklenburg
148,JATC,Jeff Adams Tennis Center,1520 W TYVOLA RD,1200,W,TYVOLA,RD, ,CHARLOTTE,NC,28217,Tennis Center,Developed,South,,,,7045293273,,,District 3,District 2,1998/07/28 00:00:00+00,,,1430324.92393054,522928.3603362,Mecklenburg
149,LATT,Latta Place Historic Site,5225 SAMPLE RD B,5225, ,SAMPLE,RD, ,HUNTERSVILLE,NC,28216,Historic,Closed,North,,,,9803141001,,,,District 1,1998/07/28 00:00:00+00,,,1424655.46977805,589006.14209983,Mecklenburg
150,GAND,Gander Cove Park,MONROE RD,10502,,MONROE,RD,,MATTHEWS,NC,28105,Neighborhood,Undeveloped,South,,,,9803141003,,,,District 6,,,,1481622.05357817,506724.35354215,Mecklenburg
151,ADAJ,Ada Jenkins Athletic Field,212 GAMBLE ST,212,,GAMBLE,ST,,DAVIDSON,NC,28036,Town Park,Developed,North,,,,7049409641,,,,District 1,,,,1448256.88251236,641544.64316288,Davidson
152,HIDD,Hidden Valley Park,260 NORTHCHASE DR,0, , , ,NO,CHARLOTTE,NC,28213,Neighborhood,Undeveloped,North,,,,9803141002,,,District 1,District 3,2000/05/23 00:00:00+00,,,1469748.13005723,555552.31938568,Mecklenburg
153,RWPP,Roosevelt Wilson Park,420 GRIFFITH ST,420,,GRIFFITH,ST,,DAVIDSON,NC,28036,Town Park,Developed,North,,,,7048923349,,,,District 1,,,,1448301.33969948,643068.54524319,Davidson
154,OEHP,Oehler Nature Preserve,14511 HUNTERSVILLE-CONCORD RD,0, , , ,NO,CHARLOTTE,NC,28078,Nature Preserve,Undeveloped,North,,,,9803141001,,,,District 1,2003/07/11 00:00:00+00,,,1463392.24212813,610821.65741998,Mecklenburg
155,GREN,Greene Street Park,5612 GREENE ST,5612, ,GREENE,ST, ,CHARLOTTE,NC,28269,Neighborhood,Undeveloped,North,,,,9803141001,,,District 2,District 3,2017/04/17 00:00:00+00,,,1460390.85516687,572092.56753881,Mecklenburg
156,MART,McDowell Arts Center,123 E MCDOWELL ST,123,E,MCDOWELL,ST,,MATTHEWS,NC,28105,Arts Center,Developed,South,,,,7048479746,,,,District 6,,,,1484770.68585603,500742.67523103,Matthews
157,MOEP,Merry Oaks Park,1806 MERRY OAKS RD,0, , , , ,CHARLOTTE,NC,28205,Neighborhood,Developed,Central,,,,9803141002,,,District 1,District 4,1998/10/12 00:00:00+00,,,1466732.02159101,539660.22501142,Mecklenburg
158,SUCR,Old Potters Road Park,4410 W SUGAR CREEK RD,4410,W,SUGAR CREEK,RD,,CHARLOTTE,NC,28269,Neighborhood,Undeveloped,North,,,,9803141001,,,District 2,District 3,,,,1459730.09487981,574335.72657983,Mecklenburg
159,JWRC,JV Washam Recreation Center,9611 WESTMORELAND RD,9611,,WESTMORELAND,RD,,CORNELIUS,NC,28031,Recreation Center,Developed,North,,,,7048926031,,,,District 1,2006/08/01 00:00:00+00,,,1443751.42487569,629648.23289411,Cornelius
160,MAYP,Mayerling Drive Park,8320 MAYERLING DR,0, ,NO ADDRESS, , ,CHARLOTTE,NC,28227,Neighborhood,Developed,South,,,,9803141003,,,,District 6,2003/07/11 00:00:00+00,,,1491199.03239501,527559.94655918,Mecklenburg
161,WEAC,Westmoreland Athletic Complex,8430 WESTMORELAND RD,8430,,WESTMORELAND,RD,,CORNELIUS,NC,28031,Town Park,Developed,North,,,,7048926031,,,,District 1,2012/07/09 00:00:00+00,,,1438561.36419609,628117.87633419,Cornelius
162,ELZA,Elizabeth Park,1100 E TRADE ST,1100,E,TRADE,ST,NO,CHARLOTTE,NC,28204,Neighborhood,Developed,Central,,,,9803141002,,,District 1,District 4,2001/08/21 00:00:00+00,,,1452640.74572723,539523.49594899,Mecklenburg
163,LEMS,Crab Orchard Park,3420 LEMSFORD WY,3420,,LEMSFORD,WY,,CHARLOTTE,NC,28215,Community,Undeveloped,North,,,,9803141001,,,,District 3,,,,1499868.41428775,559088.97836047,Mecklenburg
164,GOGP,Glen Oak Green Park,18905 COACHMAN'S TRACE,18905,,COACHMAN'S TRACE,,,CORNELIUS,NC,28031,Town Park,Developed,North,,,,7048926031,,,,District 1,2007/09/01 00:00:00+00,,,1446631.82528852,629158.7836034,Cornelius
165,WAHP,Walter Henderson Park,20214 TAILWIND LN,20214,,TAILWIND,LN,,CORNELIUS,NC,28031,Town Park,Developed,North,,,,7048926031,,,,District 1,2001/06/14 00:00:00+00,,,1435373.44929405,638517.86753878,Cornelius
166,JPLN,Jetton Park,19000 JETTON RD,19000, ,JETTON,RD, ,CORNELIUS,NC,28078,Regional,Developed,North,,,,9803141001,,,,District 1,1998/07/28 00:00:00+00,,,1434814.35087912,633583.200849,Mecklenburg
167,ELNC,Elon Recreation Center,11401 ARDREY KELL RD,11401, ,ARDREY KELL,RD, ,CHARLOTTE,NC,28277,Recreation Center,Developed,South,,,,9803141103,,,District 7,District 6,2008/01/16 00:00:00+00,,,1449679.65455107,467223.17422526,Mecklenburg
168,LSCG,Little Sugar Creek Community Garden,1319 N ALEXANDER ST,1319,N,ALEXANDER,ST,,CHARLOTTE,NC,28206,Community Garden,Developed,Central,,,,9803141000,,,District 1,District 3,2018/08/24 00:00:00+00,,,1455765.7532735,544551.43361509,Mecklenburg
169,MRND,Possum Walk Nature Preserve,3540 MIRANDA RD,0, , , , ,CHARLOTTE,NC,28216,Nature Preserve,Developed,North,,,,9803141001,,,,District 2,2014/08/06 00:00:00+00,,,1438355.38131033,581697.06659426,Mecklenburg
170,HVET,Veterans Park,201 HUNTERSVILLE-CONCORD RD,201,,HUNTERSVILLE-CONCORD,RD,,HUNTERSVILLE,NC,28078,Town Park,Developed,North,,,,7047662220,,,,District 1,,,,1451419.8448347,609620.1240553,Huntersville
171,MCDL,McDowell Nature Preserve,15222 YORK RD,15222, ,YORK,RD, ,CHARLOTTE,NC,28278,Nature Preserve,Developed,South,,,,9803141128,,,,District 2,1998/07/28 00:00:00+00,,,1394705.42756645,495414.20110719,Mecklenburg
172,RVRP,Riverside Drive Park,1640 RIVERSIDE DR,0, , , ,NO,CHARLOTTE,NC,28214,Community,Undeveloped,North,,,,9803141001,,,,District 1,2017/01/10 00:00:00+00,,,1408142.75023104,576874.08335602,Mecklenburg
173,PUHU,Purser-Hulsey Park,13201 PHILLIPS RD,13201,,PHILLIPS,RD,,MATTHEWS,NC,28105,Town Park,Developed,South,,,,7043217275,,,,District 6,2007/02/28 00:00:00+00,,,1496345.92176808,506074.62255809,Matthews
174,COLB,Colonel Francis J. Beatty Park,4330 WEDDINGTON RD,4330, ,WEDDINGTON,RD, ,CHARLOTTE,NC,28105,Regional,Developed,South,,,,9803141003,,,District 7,District 6,1998/07/28 00:00:00+00,,,1482781.58997305,483948.32822819,Mecklenburg
175,RAND,Randolph Road Park,201 BILLINGSLEY RD,201, ,BILLINGSLEY,RD, ,CHARLOTTE,NC,28205,Community,Developed,Central,,,,9803141002,,,District 1,District 4,1998/07/28 00:00:00+00,,,1459459.57692824,529232.80062455,Mecklenburg
176,UNCC,Kirk Farm Fields Park,201 E MALLARD CREEK CHURCH RD,201,E,MALLARD CREEK CHURCH,RD, ,CHARLOTTE,NC,28262,Community,Developed,North,,,,9803141001,,,District 4,District 3,1998/07/28 00:00:00+00,,,1483260.63675703,576128.46471968,Mecklenburg
177,HORN,Hornets Nest Park,6301 BEATTIES FORD RD,6331, ,BEATTIES FORD,RD, ,CHARLOTTE,NC,28216,Regional,Developed,North,,,,9803141001,,,District 2,District 2,1998/07/28 00:00:00+00,,,1443656.17199133,576659.33893414,Mecklenburg
178,OEHL,Ridge Road Park,4419 RIDGE RD,4419,,RIDGE,RD,,CHARLOTTE,NC,28269,Community Park,Undeveloped,North,,,,9803141001,,,District 4,District 1,,,,1471553.12555334,596023.06569241,Mecklenburg
179,ABRC,Albemarle Recreation Center,5027 IDLEWILD RD NORTH,5027,N,IDLEWILD,RD, ,CHARLOTTE,NC,28227,Recreation Center,Developed,South,,,,9803141101,,,District 5,District 4,2002/03/18 00:00:00+00,,,1484748.74568757,530702.9793404,Mecklenburg
180,ANSP,Anita Stroud Park,2215 DOUBLE OAKS RD,2215, ,DOUBLE OAKS,RD, ,CHARLOTTE,NC,28206,Neighborhood,Developed,Central,,,,9803141002,,,District 1,District 2,2007/04/20 00:00:00+00,,,1450370.58687226,551900.03977631,Mecklenburg
181,TRCP,Torrence Chapel Park,21309 TORRENCE CHAPEL RD,21309,,TORRENCE CHAPEL,RD,,CORNELIUS,NC,28031,Town Park,Developed,North,,,,7048926031,,,,District 1,2000/10/28 00:00:00+00,,,1440746.58936507,639443.92333256,Cornelius
182,SVCT,Southview Recreation Center,1720 VILMA ST,1720, ,VILMA,ST, ,CHARLOTTE,NC,28208,Recreation Center,Developed,Central,,,,9803141105,,,District 3,District 2,1999/04/29 00:00:00+00,,,1427424.50720131,537420.94660609,Mecklenburg
183,GRDY,Grady Cole Center,310 N KINGS DR,310,N,KINGS,DR, ,CHARLOTTE,NC,28204,Event Venue,Developed,Central,,,,7043362884,,,District 1,District 4,1998/07/28 00:00:00+00,,,1453709.89873609,539716.09938563,Mecklenburg
184,CSDC,Community School of Davidson Athletic Complex,13828 BEATTIES FORD RD,13828,,BEATTIES FORD,RD,,HUNTERSVILLE,NC,28078,Town Park,Developed,North,,,,7047662220,,,,District 1,2020/01/01 00:00:00+00,,,1426479.28769198,607324.32650928,Huntersville
185,HIKV,Hickory View Park,14942 HICKORY VIEW LN,14942,,HICKORY VIEW,LN,,CHARLOTTE,NC,28278,Community,Undeveloped,South,,,,9803141003,,,,District 6,,,,1396765.93260835,492121.43196066,Mecklenburg
186,HOSK,Eva B. Barber Park,3801 GOSSETT AV,3801, ,GOSSETT,AV, ,CHARLOTTE,NC,28208,Neighborhood,Developed,North,,,,9803141001,,,District 2,District 2,1998/07/28 00:00:00+00,,,1437463.88268001,554782.88348001,Mecklenburg
187,SEVP,Seversville Park,540 S BRUNS AV,540,S,BRUNS,AV, ,CHARLOTTE,NC,28217,Neighborhood,Developed,Central,,,,9803141002,,,District 2,District 2,2002/04/03 00:00:00+00,,,1442707.19443598,547178.62083077,Mecklenburg
188,GATE,Iswa Nature Preserve,9909 WILKINSON BV,9701, ,WILKINSON,BV, ,CHARLOTTE,NC,28214,Nature Preserve,Developed,South,,,,9803141003,,,,District 2,1998/07/28 00:00:00+00,,,1401188.99987768,550085.00008842,Mecklenburg
189,BIDD,Biddleville Park,500 ANDRILL TR,500, ,ANDRILL,TR, ,CHARLOTTE,NC,28216,Neighborhood,Developed,Central,,,,9803141002,,,District 1,District 2,2007/07/09 00:00:00+00,,,1447589.61352105,548667.25206861,Mecklenburg
190,MLKR,Martin Luther King Jr. Middle School Site,500 BILMARK AV,0, , , , ,CHARLOTTE,NC,28213,Recreation Center,Developed,North,,,,9803141124,,,District 1,District 3,,,,1468942.50693062,555464.07242847,Mecklenburg
191,VETS,Veterans Park,2136 CENTRAL AV,2136, ,CENTRAL,AV, ,CHARLOTTE,NC,28205,Neighborhood,Developed,Central,,,,9803141002,,,District 1,District 4,1998/07/28 00:00:00+00,,,1461194.79153892,539774.37739188,Mecklenburg
192,LNCM,Lake Norman Charter Middle School Gymnasium,12435 OLD STATESVILLE RD,12435,,OLD STATESVILLE,RD,,HUNTERSVILLE,NC,28078,Recreation Center,Developed,North,,,,7047662220,,,,District 1,,,,1452996.21486312,602281.20672755,Huntersville
193,OAKT,Oakhurst Park,3533 CRAIG AV,3533, ,CRAIG,AV, ,CHARLOTTE,NC,28211,Neighborhood,Developed,South,,,,9803141003,,,District 5,District 5,1998/07/28 00:00:00+00,,,1465359.69576316,529298.59521529,Mecklenburg
194,REVC,Revolution Park Sports Academy,1225 REMOUNT RD,1225, ,REMOUNT,RD, ,CHARLOTTE,NC,28208,Recreation Center,Developed,Central,,,,9803141116,,,District 3,District 2,1998/07/28 00:00:00+00,,,1438886.59500879,538088.90340038,Mecklenburg
195,COLL,Collins Park,4525 COLLINGWOOD DR,4525, ,COLLINGWOOD,DR, ,CHARLOTTE,NC,28209,Neighborhood,Developed,Central,,,,9803141002,,,District 1,District 5,1998/07/28 00:00:00+00,,,1440896.75023103,526061.00023103,Mecklenburg
196,REDD,Reddman Road Park,6350 REDDMAN RD,6350, ,REDDMAN,RD, ,CHARLOTTE,NC,28212,Community,Undeveloped,South,,,,9803141003,,,District 5,District 4,2003/07/11 00:00:00+00,,,1477267.2523375,530855.02239375,Mecklenburg
197,REVP,Revolution Park,2433 BARRINGER DR,2433, ,BARRINGER,DR, ,CHARLOTTE,NC,28208,Community,Developed,Central,,,,9803141002,,,District 3,District 2,1998/07/28 00:00:00+00,,,1439591.37673864,538625.53140013,Mecklenburg
198,WILM,Wilmore Park,900 SPRUCE ST,900, ,SPRUCE,ST, ,CHARLOTTE,NC,28203,Neighborhood,Developed,Central,,,,9803141002,,,District 3,District 2,1998/07/28 00:00:00+00,,,1442129.57117838,540638.28389107,Mecklenburg
199,BRRC,Bailey Road Recreation Center,11900 BAILEY RD,11900,,BAILEY,RD,,CORNELIUS,NC,28031,Recreation Center,Developed,North,,,,7048926031,,,,District 1,2006/08/01 00:00:00+00,,,1453247.65868777,630099.88073282,Cornelius
200,JUPK,Julian Underwood Park,5400 GALWAY DR,5400, ,GALWAY,DR, ,CHARLOTTE,NC,28215,Neighborhood,Developed,South,,,,9803141003,,,District 1,District 3,1998/07/28 00:00:00+00,,,1475166.98801653,547499.49360551,Mecklenburg
201,WPRC,Wallace Pruitt Recreation Center,501 S BRUNS AV,0, , , , ,CHARLOTTE,NC,28208,Recreation Center,Developed,Central,,,,9803141114,,,District 2,District 2,,,,1443170.69923046,547226.37335412,Mecklenburg
202,DEVS,Devonshire Park,6330 BARRINGTON DR,6330, ,BARRINGTON,DR, ,CHARLOTTE,NC,28215,Neighborhood,Developed,North,,,,9803141001,,,District 1,District 3,1998/07/28 00:00:00+00,,,1478858.01460408,549509.81411056,Mecklenburg
203,RSPK,Renaissance Park,1536 W TYVOLA RD,1536,W,TYVOLA,RD, ,CHARLOTTE,NC,28217,Regional,Developed,South,,,,9803141003,,,District 3,District 2,2002/02/01 00:00:00+00,,,1429340.23477829,524412.79068333,Mecklenburg
204,COWW,Cowans Ford Wildlife Refuge,2329 NECK RD,0, ,NO ADDRESS, , ,HUNTERSVILLE,NC,28078,Nature Preserve,Developed,North,,,,9803141001,,,,District 1,1998/08/04 00:00:00+00,,,1411765.58298039,596232.05761166,Mecklenburg
205,MCCG,McAlpine Creek Community Garden,399 HOLLY LN,399,,HOLLY,LN,,CHARLOTTE,NC,28212,Community Garden,Developed,South,,,,9803141000,,,District 6,District 5,2018/08/24 00:00:00+00,,,1471179.23487525,509524.47897753,Mecklenburg
206,WRDP,William R. Davie Park,4635 PINEVILLE-MATTHEWS RD,4635, ,PINEVILLE-MATTHEWS,RD, ,CHARLOTTE,NC,28226,Regional,Developed,South,,,,9803141003,,,District 7,District 6,2008/05/14 00:00:00+00,,,1460098.028438,492722.57866834,Mecklenburg
207,YCPP,Yacht Club Park Playground,18625 HARBOR LIGHT BV,18625,,HARBOR LIGHT,BV,,CORNELIUS,NC,28031,Town Park,Developed,North,,,,7048926031,,,,District 1,2001/10/01 00:00:00+00,,,1424740.2222424,631157.33082986,Cornelius
208,SMTP,Smithville Park,19710 FERRY ST,19710,S,FERRY,ST,,CORNELIUS,NC,28031,Town Park,Developed,North,,,,7048926031,,,,District 1,2005/06/18 00:00:00+00,,,1443478.87848711,636031.88140346,Cornelius
209,HUTP,The Hut,413 JOHNSTON DR,413,,JOHNSTON,DR,,PINEVILLE,NC,28134,Event Venue,Developed,South,,,,7048892400,,,,District 6,,,,1434315.26340376,490207.87741906,Pineville
210,LCCP,L.C. Coleman Park,1501 MCDONALD ST,1501, ,MCDONALD,ST, ,CHARLOTTE,NC,28216,Neighborhood,Developed,Central,,,,9803141002,,,District 2,District 2,1998/11/06 00:00:00+00,,,1444327.0146634,554187.11611716,Mecklenburg
211,PNVP,Lakeview Park,1310 LAKEVIEW DR,0, ,NO ADDRESS, , ,PINEVILLE,NC,28134,Community,Undeveloped,South,,,,9803141003,,,,District 6,1998/09/18 00:00:00+00,,,1431565.44066666,488079.88649209,Mecklenburg
212,LTLP,Little Peoples Park,1120 HARRILL ST,1200, ,HARRILL,ST, ,CHARLOTTE,NC,28205,Neighborhood,Developed,Central,,,,9803141002,,,District 1,District 3,1998/07/28 00:00:00+00,,,1456404.89647949,543042.17361002,Mecklenburg
213,EVER,Evergreen Nature Preserve,1336 NORLAND RD,0, ,NO ADDRESS, , ,CHARLOTTE,NC,28205,Nature Preserve,Developed,South,,,,9803141003,,,District 5,District 4,1998/12/14 00:00:00+00,,,1468972.75050354,535558.50317217,Mecklenburg
214,PLCP,Plum Creek Park,18928 BARTLETTE CREEK DR,18928,,BARTLETTE CREEK,DR,,DAVIDSON,NC,28036,Town Park,Developed,North,,,,7048923349,,,,District 1,,,,1456980.91391623,632326.27366136,Davidson
215,BKTR,Brooktree Park,5121 BROOKTREE DR,5121,,BROOKTREE,DR,,CHARLOTTE,NC,28208,Neighborhood,Undeveloped,North,,,,9803141001,,,District 2,District 2,,,,1427963.33379596,557485.00070824,Mecklenburg
216,CRAP,Carolina Raptor Center,6000 SAMPLE RD,6000, ,SAMPLE,RD, ,HUNTERSVILLE,NC,28216,Raptor Center,Developed,North,,,,9803141001,,,,District 1,1998/07/28 00:00:00+00,,,1427937.70793793,588095.03273253,Mecklenburg
217,TMNT,T.M. Winget Nature Preserve,12222 WINGET RD,12222,,WINGET,RD,,CHARLOTTE,NC,28278,Nature Preserve,Developed,South,,,,9803141003,,,District 3,District 2,2022/11/01 16:23:31+00,,,1401843.15905027,507951.95397255,Mecklenburg
218,CALD,Caldwell Park,6301 CALDWELL PARK DR,0, , , ,NO,CHARLOTTE,NC,28213,Neighborhood,Undeveloped,North,,,,9803141001,,,,District 3,2016/09/01 00:00:00+00,,,1496887.17372103,572811.56435385,Mecklenburg
219,RMBL,Ramblewood Soccer Complex,10200 NATIONS FORD RD,10200, ,NATIONS FORD,RD, ,CHARLOTTE,NC,28273,Community,Developed,South,,,,9803141003,,,District 3,District 2,1998/07/28 00:00:00+00,,,1431192.57895136,504991.62226354,Mecklenburg
220,CLAR,Clarks Creek Greenway Park,9715 MALLARD CREEK RD,0, , , ,NO,CHARLOTTE,NC,28269,Neighborhood,Developed,North,,,,9803141001,,,District 4,District 1,2015/07/07 00:00:00+00,,,1469677.97475488,579434.75922409,Mecklenburg
221,STVN,Stevens Creek Nature Preserve,15700 THOMPSON RD,0, ,NO ADDRESS, , ,MINT HILL,NC,28227,Nature Preserve,Developed,South,,,,9803141003,,,,District 6,1998/10/06 00:00:00+00,,,1507866.41644157,512614.97370146,Mecklenburg
222,MIDW,Midwood Park,2100 WILHELMINA AV,2100, ,WILHELMINA,AV, ,CHARLOTTE,NC,28205,Neighborhood,Developed,Central,,,,9803141002,,,District 1,District 4,1998/07/28 00:00:00+00,,,1461718.34184265,543588.46608074,Mecklenburg
223,CADI,The Effortless Golf Center,10401 CADILLAC ST,0, , , , ,PINEVILLE,NC,28134,Golf Course,Developed,South,,,,9803141003,,,,District 6,2009/01/02 00:00:00+00,,,1437564.62937276,495633.6693612,Mecklenburg
224,PILP,Pineville Lake Park,909 LAKEVIEW DR,909,,LAKEVIEW,DR,,PINEVILLE,NC,28134,Town Park,Developed,South,,,,7048892400,,,,District 6,,,,1433097.29546663,489221.54634482,Pineville
225,LIND,Delta Creek Park,7300 LINDA LAKE DR,0, , , , ,CHARLOTTE,NC,28215,Neighborhood,Developed,North,,,,9803141001,,,District 5,District 3,1998/12/15 00:00:00+00,,,1484133.10594672,548323.96792725,Mecklenburg
226,EBMP,EB Moore Park,901 MARSH RD,901, ,MARSH,RD,NO,CHARLOTTE,NC,28209,Neighborhood,Developed,Central,,,,9803141002,,,District 1,District 4,1998/07/28 00:00:00+00,,,1444753.8452014,528449.99383067,Mecklenburg
227,WGRC,T.M. Winget Recreation Center,12235 WINGET RD,0, , , , ,CHARLOTTE,NC,28278,Recreation Center,Developed,South,,,,9803141103,,,District 3,District 2,1994/10/17 00:00:00+00,,,1401928.4519694,508402.43249278,Mecklenburg
228,AFRM,Abersham Park,22031 SHEARER RD,22031, ,SHEARER,RD, ,DAVIDSON,NC,28036,Town Park,Developed,North,,,,7048923349,,,,District 1,2008/04/17 00:00:00+00,,,1465333.35861157,644219.2038587,Davidson
229,CLEM,Davis Flohr Park,3020 CLEMSON AV,3020, ,CLEMSON,AV, ,CHARLOTTE,NC,28205,Neighborhood,Developed,Central,,,,9803141002,,,District 1,District 4,1998/07/28 00:00:00+00,,,1461636.74436203,547720.81842895,Mecklenburg
230,CEDR,Cedarwood Park,6624 REDDMAN RD,6624, ,REDDMAN,RD, ,CHARLOTTE,NC,28212,Neighborhood,Developed,South,,,,9803141003,,,District 5,District 4,1998/07/28 00:00:00+00,,,1477174.59192212,529105.6790763,Mecklenburg
231,EASR,Eastway Regional Recreation Center,3150 EASTWAY PARK DR,3150, ,EASTWAY PARK,DR, ,CHARLOTTE,NC,28213,Recreation Center,Developed,North,,,,9803141001,,,District 1,District 3,,,,1469889.38047537,552535.05689816,Mecklenburg
232,GCNP,Gar Creek Nature Preserve,10020 MCCOY RD,0, ,NO ADDRESS, , ,HUNTERSVILLE,NC,28078,Nature Preserve,Developed,North,,,,9803141001,,,,District 1,2002/05/13 00:00:00+00,,,1437984.06930739,592017.11124243,Mecklenburg
233,TEDD,Teddington Park,5517 FREEDOM DR,0, ,NO ADDRESS, , ,CHARLOTTE,NC,28214,Neighborhood,Undeveloped,North,,,,9803141001,,,District 2,District 2,2003/07/11 00:00:00+00,,,1424012.93169376,557594.02880353,Mecklenburg
234,ARGC,Arbor Glen Outreach Center,1520 CLANTON RD,1520, ,CLANTON,RD, ,CHARLOTTE,NC,28217,Recreation Center,Developed,Central,,,,9803141110,,,District 3,District 2,2002/04/03 00:00:00+00,,,1434541.76669854,535919.85458604,Mecklenburg
235,MELD,Melody Park,10832 KEMPSFORD DR,10832,,KEMPSFORD,DR,,CHARLOTTE,NC,28262,Community,Undeveloped,North,,,,7048926031,,,District 4,District 3,2022/01/19 00:00:00+00,,,1490733.42973688,578182.74293155,Mecklenburg
236,THRD,James Dennis Rash Park,1001 W 4TH ST EXT,1001,W,4TH,ST, ,CHARLOTTE,NC,28202,Neighborhood,Developed,Central,,,,9803141002,,,District 2,District 4,1998/07/28 00:00:00+00,,,1446096.74132459,544878.97410621,Mecklenburg
237,HEMS,Huntersville Elementary School,200 GILEAD RD,200,,GILEAD,RD,,HUNTERSVILLE,NC,28078,Town Park,Developed,North,,,,7047662220,,,,District 1,,,,1450080.01519918,610140.56953767,Huntersville
238,AMSG,Alexander Middle School Gymnasium,12010 HAMBRIGHT RD,12010,,HAMBRIGHT,RD,,HUNTERSVILLE,NC,28078,Recreation Center,Developed,North,,,,7047662220,,,,District 1,,,,1452055.59213567,596972.00058875,Huntersville
239,LTRC,Robert L. Smith Park,1604 LITTLE ROCK RD,0, ,NO ADDRESS, , ,CHARLOTTE,NC,28214,Regional,Developed,North,,,,9803141001,,,District 3,District 2,1998/09/02 00:00:00+00,,,1420685.09826332,553808.95696804,Mecklenburg
240,WEPK,Romare Bearden Park,300 S CHURCH ST,0, , , , ,CHARLOTTE,NC,28202,Neighborhood,Developed,Central,,,,9803141002,,,District 2,District 4,2009/04/24 00:00:00+00,,,1448476.75272107,542416.8191614,Mecklenburg
241,MBTL,Mary Beaty Tot Lot,128 S MAIN ST,128,S,MAIN,ST,,DAVIDSON,NC,28036,Town Park,Developed,North,,,,7048923349,,,,District 1,,,,1449576.10934444,641448.45853005,Davidson
242,RCNC,Reedy Creek Nature Center,2986 ROCKY RIVER RD,2986, ,ROCKY RIVER,RD, ,CHARLOTTE,NC,28215,Nature Center,Developed,North,,,,9803141001,,,District 5,District 3,2016/07/06 00:00:00+00,,,1486782.38002902,554634.27788732,Mecklenburg
243,ALEX,Alexander Park,739 E 12TH ST,739,E,12TH,ST, ,CHARLOTTE,NC,28206,Neighborhood,Developed,Central,,,,9803141002,,,District 1,District 4,2002/03/18 00:00:00+00,,,1454368.71044706,542959.23087533,Mecklenburg
244,NAOM,Naomi Drenan Recreation Center,750 BEAL ST,750, ,BEAL,ST, ,CHARLOTTE,NC,28211,Recreation Center,Developed,South,,,,9803141100,,,District 6,District 5,1998/07/28 00:00:00+00,,,1463345.98229094,528923.61070775,Mecklenburg
245,LHTP,Lincoln Heights Park,1819 CATHERINE SIMMONS AV,0, ,NO ADDRESS, , ,CHARLOTTE,NC,28216,Neighborhood,Developed,Central,,,,9803141002,,,District 2,District 3,1998/10/12 00:00:00+00,,,1447992.44946042,555882.63667747,Mecklenburg
246,ADMN,Meck Co Parks & Recreation Administration,5841 BROOKSHIRE BV,5841, ,BROOKSHIRE,BV, ,CHARLOTTE,NC,28216,Operational,Operational,North,,,,9803141001,,,District 2,District 2,2007/07/09 00:00:00+00,,,1432352.08494513,562959.61062852,Mecklenburg
247,INDP,Independence Park,1835 PARK DR,1835,,PARK,DR,,CHARLOTTE,NC,28204,Neighborhood,Under Construction,Central,,,,9803141002,,,District 1,District 4,1998/07/28 00:00:00+00,,,1455936.9592108,537357.19269666,Mecklenburg
248,DOWD,Dowd Park,2521 GREENLAND AV,2521, ,GREENLAND,AV, ,CHARLOTTE,NC,28208,Neighborhood,Developed,Central,,,,9803141002,,,District 2,District 2,1998/07/28 00:00:00+00,,,1437751.24011037,542495.82787202,Mecklenburg
249,DAVP,Clarks Creek Park,5435 HUCKS RD,0, , , , ,CHARLOTTE,NC,28269,Community,Developed,North,,,,9803141001,,,District 4,District 1,2003/07/11 00:00:00+00,,,1460042.41216129,587800.52529742,Mecklenburg
250,WING,Wingate Park,2721 MAYFAIR AV,2731, ,MAYFAIR,AV, ,CHARLOTTE,NC,28208,Neighborhood,Under Construction,Central,,,,9803141002,,,District 3,District 2,1998/11/24 00:00:00+00,,,1430094.12521984,538449.69929017,Mecklenburg
251,INDP,Independence Park,1631 PARK DR,1631, ,PARK,DR,NO,CHARLOTTE,NC,28204,Neighborhood,Under Construction,Central,,,,9803141002,,,District 1,District 4,1998/07/28 00:00:00+00,,,1455238.79121213,538372.31700939,Mecklenburg
252,BLUF,Bluff Hill Park,4845 ROCKY RIVER RD,,,ROCK RIVER,RD,,CHARLOTTE,NC,28215,Neighborhood,Undeveloped,North,,,,9803141001,,,District 5,District 3,,,,1495610.26677795,560285.14842369,Mecklenburg
253,MCCP,McAlpine Creek Park,8711 MONROE RD,8711, ,MONROE,RD, ,CHARLOTTE,NC,28212,Regional,Developed,South,,,,9803141003,,,District 6,District 4,2008/05/14 00:00:00+00,,,1478221.48914367,514435.24788445,Mecklenburg
254,OAKH,Oak Hills Park,4120 OAKDALE RD,4120,,OAKDALE,RD,,CHARLOTTE,NC,28216,Regional,Undeveloped,North,,,,9803141001,,,,District 1,2018/05/01 00:00:00+00,,,1430613.64837724,579807.89831959,Mecklenburg
255,RAMA,Rama Road Park,1035 RAMA RD,1035, ,RAMA,RD, ,CHARLOTTE,NC,28211,Neighborhood,Developed,South,,,,9803141003,,,District 5,District 5,1998/07/28 00:00:00+00,,,1470618.59772262,521106.15466614,Mecklenburg
256,AUTN,Auten Nature Preserve,5201 NECK RD,0, ,NO ADDRESS, , ,HUNTERSVILLE,NC,28078,Nature Preserve,Undeveloped,North,,,,9803141001,,,,District 1,2002/03/18 00:00:00+00,,,1423739.76122887,597954.16281657,Mecklenburg
257,SQLP,Squirrel Lake Park,1631 PLEASANT PLAINS RD,1631,,PLEASANT PLAINS,RD,,MATTHEWS,NC,28105,Town Park,Developed,South,,,,7043217275,,,,District 6,,,,1484177.34866445,495114.8623255,Matthews
258,LATC,Latta Recreation Center,510 E PARK AV,510, ,EAST PARK,AV, ,CHARLOTTE,NC,28203,Recreation Center,Developed,Central,,,,9803141002,,,District 1,District 4,1998/07/28 00:00:00+00,,,1446945.09617664,536587.88529377,Mecklenburg
259,TCES,Torrence Creek Elementary School,14550 RANSON RD,14550,,RANSON,RD,,HUNTERSVILLE,NC,28078,Town Park,Developed,North,,,,7047662220,,,,District 1,,,,1441909.030432,610500.39474918,Huntersville
260,FRST,First Ward Park,309 E 7TH ST,309,E,7TH,ST, ,CHARLOTTE,NC,28202,Neighborhood,Developed,Central,,,,9803141002,,,District 1,District 4,2015/12/08 00:00:00+00,,,1451815.42619325,542871.34286082,Mecklenburg
261,RENP,Reedy Creek Nature Preserve,2900 ROCKY RIVER RD,2900, ,ROCKY RIVER,RD, ,CHARLOTTE,NC,28215,Nature Preserve,Developed,North,,,,9803141001,,,District 5,District 3,1998/07/28 00:00:00+00,,,1487659.75081368,560034.73514879,Mecklenburg
262,MTHP,Methodist Home Park,3200 SHAMROCK DR,3200, ,SHAMROCK,DR, ,CHARLOTTE,NC,28205,Neighborhood,Developed,South,,,,9803141003,,,District 1,District 4,1998/07/28 00:00:00+00,,,1470191.8756512,544757.62557259,Mecklenburg
263,ERGP,East Region Gap Park,7709 PLOTT RD,7709,,PLOTT,RD,,CHARLOTTE,NC,28215,Neighborhood,Undeveloped,North,,,,9803141001,,,District 5,District 3,,,,1487340.6446564,548680.55610019,Mecklenburg
264,FIFP,Fisher Farm Park,21135 FISHER RD,21135,,FISHER,RD,,DAVIDSON,NC,28036,Town Park,Developed,North,,,,7048923349,,,,District 1,,,,1465396.67820463,639921.62446992,Davidson
265,SIXP,Sixteenth Street Park,620 E 16TH ST,620,E,16TH,ST, ,CHARLOTTE,NC,28206,Neighborhood,Developed,Central,,,,9803141002,,,District 1,District 4,1997/09/29 00:00:00+00,,,1455531.69220704,544477.23660906,Mecklenburg
266,METO,Second Ward Gymnasium,710 E MARTIN LUTHER KING JR BV,710,E,MARTIN LUTHER KING JR,BV,,CHARLOTTE,NC,28202,Recreation Center,Developed,Central,,,,9803141002,,,District 1,District 4,2018/10/09 00:00:00+00,,,1450307.35237797,539411.60438643,Mecklenburg
267,KLBN,Kilborne Park,2600 KILBORNE DR,2600, ,KILBORNE,DR, ,CHARLOTTE,NC,28205,Community,Developed,South,,,,9803141003,,,District 5,District 4,1998/07/28 00:00:00+00,,,1471109.58644849,539906.1002422,Mecklenburg
268,WILG,Park on Wilgrove,7750 JIM HARPER LN,7750,,JIM HARPER,LN,,MINT HILL,NC,28227,Town Park,Developed,South,,,,7045459726,,,,District 6,,,,1505268.29171869,528105.90264249,Mint Hill
269,FIVE,Five Points Park,200 FRENCH ST,200, ,FRENCH,ST,NO,CHARLOTTE,NC,28216,Neighborhood,Developed,Central,,,,9803141002,,,District 2,District 2,1998/07/28 00:00:00+00,,,1444767.37033577,550517.40283409,Mecklenburg
270,PKTN,Park Road Tennis Center,6215 PARK RD,6215, ,PARK,RD, ,CHARLOTTE,NC,28210,Tennis Center,Developed,South,,,,9803141003,,,District 6,District 5,1998/07/28 00:00:00+00,,,1447106.94458158,513334.50811994,Mecklenburg
271,DBWF,David B. Waymer Aeromodeller Park,15401 HOLBROOKS RD,15401, ,HOLBROOKS,RD, ,HUNTERSVILLE,NC,28078,Regional,Developed,North,,,,9803141001,,,,District 1,1998/07/28 00:00:00+00,,,1458548.65340827,606108.89385831,Mecklenburg
272,PENC,Hickory Grove Park,6709 PENCE RD,6709, ,PENCE,RD, ,CHARLOTTE,NC,28227,Neighborhood,Developed,South,,,,9803141003,,,District 5,District 4,2003/07/11 00:00:00+00,,,1487149.65749528,541545.55823176,Mecklenburg
273,UPST,Berewick Park,5920 DIXIE RIVER RD,0, ,NO ADDRESS, , ,CHARLOTTE,NC,28208,Regional,Developed,South,,,,9803141003,,,District 3,District 2,1998/10/06 00:00:00+00,,,1408120.60530096,523981.07222036,Mecklenburg
274,BRMS,Bradley Middle School,13345 BEATTIES FORD RD,13345,,BEATTIES FORD,RD,,HUNTERSVILLE,NC,28078,Town Park,Developed,North,,,,7047662220,,,,District 1,,,,1426810.05643365,604835.70666416,Huntersville
275,JACK,Jack Hughes Park,330 JACK HUGHES LN,330,,JACK HUGHES,LN,,PINEVILLE,NC,28134,Town Park,Developed,South,,,,7048892400,,,,District 6,,,,1433272.07645898,491510.14768398,Pineville
276,STMY,St. Marys Chapel,1129 E 3RD ST,1129,E,3RD,ST, ,CHARLOTTE,NC,28204,Event Venue,Developed,Central,,,,7043331235,,,District 1,District 4,1998/07/28 00:00:00+00,,,1452404.81152311,538524.24659932,Mecklenburg
277,ROCK,Theresea C. Elder Park,6325 ROCKWELL CHURCH RD,6325, ,ROCKWELL CHURCH,RD, ,CHARLOTTE,NC,28269,Neighborhood,Developed,North,,,,9803141001,,,District 2,District 3,1998/10/12 00:00:00+00,,,1463108.37585601,571111.24585602,Mecklenburg
278,BDHP,Beaver Dam Historic Park and House,19600 DAVIDSON-CONCORD RD,19600,,DAVIDSON-CONCORD,RD,,DAVIDSON,NC,28036,Historic Site,Developed,North,,,,7044175884,,,,District 1,,,,1458860.04739739,632966.9563756,Davidson
279,OLRC,Ivory-Baker Recreation Center,1920 STROUD PARK CT,1295, ,EUREKA,ST, ,CHARLOTTE,NC,28206,Recreation Center,Developed,Central,,,,9803141112,,,District 1,District 2,2008/02/26 00:00:00+00,,,1450576.28239293,550968.1707122,Mecklenburg
280,BAIL,Bailey Road Park,11536 BAILEY RD,11536,,BAILEY,RD,,CORNELIUS,NC,28031,Town Park,Developed,North,,,,7048926031,,,,District 1,2002/11/16 00:00:00+00,,,1450840.99998283,629579.99989067,Cornelius
281,TCEM,Torrence Creek Elementary Multipurpose Room,14550 RANSON RD,14550,,RANSON,RD,,HUNTERSVILLE,NC,28078,Recreation Center,Developed,North,,,,7047662220,,,,District 1,,,,1441886.37404844,610058.64158768,Huntersville
282,CLAG,Clanton Park Community Garden,3010 BARRINGER DR,3010,,BARRINGER,DR,,CHARLOTTE,NC,28217,Community Garden,Developed,Central,,,,9803141002,,,District 3,District 2,2019/03/25 16:29:41+00,,,1437598.02941209,535681.41514111,Mecklenburg
283,WOOD,Double Oaks Family Aquatic Center,2014 STATESVILLE AV,2014, ,STATESVILLE,AV, ,CHARLOTTE,NC,28206,Aquatic Center,Developed,Central,,,,7043340308,,,District 1,District 3,2017/01/10 00:00:00+00,,,1451993.0695186,550910.39545399,Mecklenburg
284,MARM,Marmac Road Park,6602 TUCKASEEGEE RD,0, , , ,NO,CHARLOTTE,NC,28266,Community,Undeveloped,North,,,,9803141001,,,District 2,District 2,2008/04/21 00:00:00+00,,,1425065.21142533,549557.64270806,Mecklenburg
285,PVLY,Pine Valley Park,1910 LONGLEAF DR,1910, ,LONGLEAF,DR, ,CHARLOTTE,NC,28210,Neighborhood,Developed,South,,,,9803141003,,,District 6,District 5,2000/08/18 00:00:00+00,,,1439096.09585604,500866.49523102,Mecklenburg
286,TRYH,Tryon Hills Park,220 W 30TH ST,220,W,30TH,ST, ,CHARLOTTE,NC,28206,Neighborhood,Developed,Central,,,,9803141002,,,District 1,District 3,1998/07/28 00:00:00+00,,,1457376.33372802,550990.94827913,Mecklenburg
287,HAWC,Hawthorne Recreation Center,345 HAWTHORNE LN,345, ,HAWTHORNE,LN, ,CHARLOTTE,NC,28204,Recreation Center,Developed,Central,,,,9803141002,,,District 1,District 4,1998/07/28 00:00:00+00,,,1455564.44969682,538311.8351156,Mecklenburg
288,FSPK,Firestone Park,3501 FIRESTONE DR,3501, ,FIRESTONE,DR, ,CHARLOTTE,NC,28216,Community,Developed,North,,,,9803141001,,,District 2,District 2,1998/07/28 00:00:00+00,,,1441270.35690401,564949.79455027,Mecklenburg
289,CTPP,Country Place Park,557 S TRADE ST,557,S,TRADE,ST,,MATTHEWS,NC,28105,Town Park,Developed,South,,,,7043217275,,,,District 6,,,,1483706.86485314,500003.80142586,Matthews
290,MCEF,McEver Athletic Field,626 SOUTH ST,626,,SOUTH,ST,,DAVIDSON,NC,28036,Town Park,Developed,North,,,,7048923349,,,,District 1,,,,1449550.49382198,638675.84321685,Davidson
291,WINT,Winterfield Park,3010 WINTERFIELD PL,0, , , ,NO,CHARLOTTE,NC,28205,Neighborhood,Developed,South,,,,9803141003,,,District 5,District 4,2008/04/21 00:00:00+00,,,1472619.60050797,535594.48662441,Mecklenburg
292,FRPP,Forest Park Playground,421 N FAULKNER WY,421,N,FAULKNER,WY,,DAVIDSON,NC,28036,Town Park,Developed,North,,,,7048923349,,,,District 1,,,,1455570.02491346,640015.7188917,Davidson
293,SUGP,Sugaw Creek Park,941 W SUGAR CREEK RD,941,W,SUGAR CREEK,RD, ,CHARLOTTE,NC,28213,Community,Developed,North,,,,9803141001,,,District 1,District 3,1998/07/28 00:00:00+00,,,1464549.7428548,558881.35640267,Mecklenburg
294,AMJP,Amay James Park,2415 LESTER ST,2414, ,LESTER,ST, ,CHARLOTTE,NC,28208,Community,Undeveloped,Central,,,,9803141002,,,District 3,District 2,2007/05/01 00:00:00+00,,,1432091.48092398,534479.22389659,Mecklenburg
295,BUCK,Buckthorn Park,9732 RESEARCH DR,9732,,RESEARCH,DR,,CHARLOTTE,NC,28262,Community,Undeveloped,North,,,,9803141001,,,District 4,District 3,,,,1472346.49951363,575737.24434432,Mecklenburg
296,LATP,Latta Park,601 E PARK AV,601, ,EAST PARK,AV, ,CHARLOTTE,NC,28203,Community,Developed,Central,,,,9803141002,,,District 1,District 4,1998/07/28 00:00:00+00,,,1447160.20310442,536339.03787497,Mecklenburg
297,KUCK,Kuck Road Park,7221 KUCK RD,7221,,KUCK,RD,,CHARLOTTE,NC,28227,Community,Undeveloped,South,,,,9803141003,,,,District 6,,,,1497796.1475959,528730.22281301,Mecklenburg
298,ENDP,Enderly Park,1501 ENDERLY RD,1501, ,ENDERLY,RD, ,CHARLOTTE,NC,28208,Neighborhood,Developed,Central,,,,9803141002,,,District 2,District 2,1998/07/28 00:00:00+00,,,1437471.94602053,547784.50669992,Mecklenburg
299,TRGL,Tradition Golf Course,3800 PROSPERITY CHURCH RD,3800, ,PROSPERITY CHURCH,RD, ,CHARLOTTE,NC,28269,Golf Course,Developed,North,,,,9803141001,,,District 4,District 1,1998/07/28 00:00:00+00,,,1470357.59591368,587398.52793188,Mecklenburg
300,ALHS,Alexandriana Historic Site,9921 OLD STATESVILLE RD,9921, ,OLD STATESVILLE,RD, ,CHARLOTTE,NC,28269,Historic,Developed,North,,,,9803141001,,,,District 1,2002/03/18 00:00:00+00,,,1456584.95819536,590193.80291852,Mecklenburg
301,FREE,Freedom Park,2435 CUMBERLAND AV,2435, ,CUMBERLAND,AV, ,CHARLOTTE,NC,28203,Regional,Developed,Central,,,,9803141002,,,District 1,District 5,2007/10/24 00:00:00+00,,,1448885.7145374,529821.92946027,Mecklenburg
302,SCES,Steele Creek Park,4000 GALLANT LN,4100, ,GALLANT,LN, ,CHARLOTTE,NC,28273,Neighborhood,Developed,South,,,,9803141003,,,District 3,District 2,1998/07/28 00:00:00+00,,,1415167.52753571,517582.41251783,Mecklenburg
303,THMP,Thompson Park,1125 E 3RD ST,1125,E,3RD,ST,NO,CHARLOTTE,NC,28204,Neighborhood,Developed,Central,,,,9803141002,,,District 1,District 4,1998/09/02 00:00:00+00,,,1452180.28784005,538692.21289629,Mecklenburg
304,MDLP,Marion Diehl Park,2219 TYVOLA RD,2219, ,TYVOLA,RD, ,CHARLOTTE,NC,28210,Community,Developed,South,,,,9803141003,,,District 6,District 5,1998/07/28 00:00:00+00,,,1444771.98787269,518024.40859166,Mecklenburg
305,REVG,Charles L. Sifford Golf Course,2661 BARRINGER DR,2661, ,BARRINGER,DR, ,CHARLOTTE,NC,28208,Golf Course,Developed,Central,,,,9803141002,,,District 3,District 2,1998/07/28 00:00:00+00,,,1438529.89826541,537556.82950771,Mecklenburg
306,CORP,Cordelia Park,600 E 24TH ST,600,E,24TH,ST, ,CHARLOTTE,NC,28205,Community,Developed,Central,,,,9803141002,,,District 1,District 3,1998/08/12 00:00:00+00,,,1457990.58175288,546282.87727021,Mecklenburg
307,MCTO,McIlwaine Park,8101 MCILWAINE RD,0, , , ,NO,HUNTERSVILLE,NC,28078,Regional,Undeveloped,North,,,,9803141001,,,,District 1,2012/07/25 00:00:00+00,,,1434385.49585602,603436.37585603,Mecklenburg
308,WIND,Windsor Park,10150 NORTHEAST PY,10150,,NORTHEAST,PY,,MATTHEWS,NC,28105,Town Park,Developed,South,,,,7043217275,,,,District 6,,,,1489748.23313747,507423.45735948,Matthews
309,RHMG,Robert Heywood Morrison Garden,1445 HARDING PL,1445, ,HARDING,PL, ,CHARLOTTE,NC,28204,Flower Garden,Developed,Central,,,,9803141002,,,District 1,District 4,,,,1451247.00015518,535080.99991274,Mecklenburg
310,FTRP,Fountain Rock Park,311 S TRADE ST,311,S,TRADE,ST,,MATTHEWS,NC,28105,Town Park,Developed,South,,,,7043217275,,,,District 6,,,,1485305.58268209,499137.34330002,Matthews
311,ECPK,East Charlotte Park,8035 E W T HARRIS BV,,E,W T HARRIS,BV,,CHARLOTTE,NC,28227,Community,Undeveloped,South,,,,9803141003,,,District 5,District 4,,,,1484508.31256941,536290.88758481,Mecklenburg
312,IBMD,IBM Drive Park,6920 IBM DR,6920,,IBM,DR,,CHARLOTTE,NC,28262,Community,Undeveloped,North,,,,9803141001,,,District 2,District 3,,,,1469769.08229811,572100.28659087,Mecklenburg
313,TYVS,Tyvola Senior Center,2225 TYVOLA RD,0, , , , ,CHARLOTTE,NC,28210,Senior Center,Developed,South,,,,9803141320,,,District 6,District 5,1998/11/17 00:00:00+00,,,1444246.53676856,518360.69520049,Mecklenburg
314,FRND,Friendship Sportsplex,2310 CINDY LN,2310, ,CINDY,LN, ,CHARLOTTE,NC,28216,Regional,Developed,North,,,,9803141001,,,District 2,District 2,,,,1447108.33457342,563216.1885064,Mecklenburg
315,FALK,Faulkner Square Park,266 CONROY AV,266,,CONROY,AV,,DAVIDSON,NC,28036,Town Park,Developed,North,,,,7048923349,,,,District 1,,,,1454541.51828277,640409.64925835,Davidson
316,MATH,Mecklenburg County Sports Complex,2425 SPORTS PY,0, ,NO ADDRESS, , ,MATTHEWS,NC,28105,Regional,Developed,South,,,,9803147539,,,,District 6,1998/10/06 00:00:00+00,,,1490721.29780278,498490.27042837,Mecklenburg
317,HACC,Huntersville Arts & Cultural Center,109 S OLD STATESVILLE RD,109,S,OLD STATESVILLE,RD,,HUNTERSVILLE,NC,28078,Arts Center,Developed,North,,,,7047662220,,,,District 1,,,,1450988.26230925,609278.64484783,Huntersville
318,SPRG,Springfield Park,6700 DEANWOOD PL,6700, ,DEANWOOD,PL, ,CHARLOTTE,NC,28217,Neighborhood,Developed,South,,,,9803141003,,,District 3,District 2,1998/07/28 00:00:00+00,,,1431135.07638188,518528.05935124,Mecklenburg
319,BUTL,Butler High School Tennis Courts,1810 MATTHEWS-MINT HILL RD,1810,,MATTHEWS-MINT HILL,RD,,MATTHEWS,NC,28105,Town Park,Developed,South,,,,7043217275,,,,District 6,,,,1493681.95558698,503064.34528963,Matthews
320,H521,Elon Park,11435 ARDREY KELL RD,11435, ,ARDREY KELL,RD, ,CHARLOTTE,NC,28277,Regional,Developed,South,,,,9803141003,,,District 7,District 6,1998/10/06 00:00:00+00,,,1447621.31854632,468246.04877774,Mecklenburg
321,MTLD,Rozzelles Ferry Nature Preserve,11840 MOUNTAIN ISLAND BROOK LN,11840, ,MOUNTAIN ISLAND BROOK,LN, ,CHARLOTTE,NC,28214,Nature Preserve,Undeveloped,North,,,,9803141001,,,,District 1,2014/05/23 00:00:00+00,,,1412864.09585604,587349.79585603,Mecklenburg
322,RRAP,River Run Athletic Park,13130 ROBERT WALKER DR,13130,,ROBERT WALKER,DR,,DAVIDSON,NC,28036,Town Park,Developed,North,,,,7048923349,,,,District 1,,,,1458398.85933377,633774.56458415,Davidson
323,UNTY,Unity Park,6401 KELSEY DR,6401, ,KELSEY,RD, ,CHARLOTTE,NC,28215,Neighborhood,Developed,North,,,,9803141001,,,District 5,District 3,1998/07/28 00:00:00+00,,,1476805.59585604,552276.89585602,Mecklenburg
324,GRAM,Graham Street Park,5430 N GRAHAM ST,5430,N,GRAHAM,ST,,CHARLOTTE,NC,28269,Neighborhood,Undeveloped,North,,,,9803141001,,,District 1,District 3,,,,1462877.74654974,564493.64219312,Mecklenburg
325,STPH,Buckeye Cove Nature Preserve,4918 CASHION RD,0, , , , ,HUNTERSVILLE,NC,28078,Nature Preserve,Developed,North,,,,9803141001,,,,District 1,1998/07/28 00:00:00+00,,,1420020.67790222,610417.12143555,Mecklenburg
326,CARM,Carmel Road Park,2365 CARMEL RD,2365, ,CARMEL,RD, ,CHARLOTTE,NC,28226,Neighborhood,Developed,South,,,,9803141003,,,District 6,District 5,1998/07/28 00:00:00+00,,,1459880.02071571,508712.68296185,Mecklenburg
327,JHWP,James Hoyt Wilhelm Park,19018 SMITH CR,19018,,SMITH,CR,,CORNELIUS,NC,28031,Town Park,Developed,North,,,,7048926031,,,,District 1,2016/09/09 00:00:00+00,,,1444958.72982845,634910.93526381,Cornelius
328,TOMH,Tom Hunter Park,919 TOM HUNTER RD,919, ,TOM HUNTER,RD, ,CHARLOTTE,NC,28213,Neighborhood,Developed,North,,,,9803141001,,,District 1,District 3,1998/07/28 00:00:00+00,,,1468324.17120452,560956.34764266,Mecklenburg
329,UNIV,University Meadows Park,1705 PAVILION BV,0, , , ,NO,CHARLOTTE,NC,28262,Neighborhood,Developed,North,,,,9803141001,,,District 4,District 3,1998/07/28 00:00:00+00,,,1489071.06171681,573532.34954229,Mecklenburg
330,CMGP,Camp Greene Park,1221 ALLEGHANY ST,1221, ,ALLEGHANY,ST, ,CHARLOTTE,NC,28208,Community,Developed,Central,,,,9803141002,,,District 2,District 2,1998/07/28 00:00:00+00,,,1435535.91090332,546692.18596114,Mecklenburg
331,MARS,Marshall Park,800 E 3RD ST,0, , , , ,CHARLOTTE,NC,28202,Neighborhood,Developed,Central,,,,9803141002,,,District 1,District 4,2009/04/24 00:00:00+00,,,1450791.70114774,540101.05587983,Mecklenburg
332,ARMY,Armory Training Center,1418 ARMORY DR,1418,,ARMORY,DR,,CHARLOTTE,NC,28204,Operational,Operational,Central,,,,7043362802,,,District 1,District 4,1997/09/29 00:00:00+00,,,1454807.16828242,539005.24236693,Mecklenburg
333,HOBP,Holbrook Park,100 SHERWOOD DR,100,,SHERWOOD,DR,,HUNTERSVILLE,NC,28078,Town Park,Developed,North,,,,7047662220,,,,District 1,,,,1450161.4940189,610322.06580691,Huntersville
334,SHRM,Sherman Branch Nature Preserve,12501 ROCKY RIVER CHURCH RD,0, ,NO ADDRESS, , ,MINT HILL,NC,28215,Nature Preserve,Developed,North,,,,9803141001,,,,District 4,1998/10/06 00:00:00+00,,,1512680.49572621,545396.31589623,Mecklenburg
335,GRNP,Greenville Park,1232 SPRING ST,1401, ,POLK,ST, ,CHARLOTTE,NC,28206,Neighborhood,Developed,Central,,,,9803141002,,,District 1,District 2,1998/07/28 00:00:00+00,,,1449720.39402698,549291.03819601,Mecklenburg
336,CATW,US National Whitewater Center,5000 WHITEWATER CENTER PY,5000, ,WHITEWATER CENTER,PY, ,CHARLOTTE,NC,28214,Regional,Developed,North,,,,7043913900,,,,District 2,2008/04/21 00:00:00+00,,,1402482.61939514,559750.50070059,USNWC
337,CCHG,Country Club Heights Community Garden,2909 DUNLAVIN WY,2909,,DUNLAVIN,WY,,CHARLOTTE,NC,28205,Community Garden,Developed,Central,,,,9803141000,,,District 1,District 4,2018/08/24 00:00:00+00,,,1468194.00005367,543629.99987501,Mecklenburg
338,MIDT,Midtown Park,510 S KINGS DR,510,S,KINGS,DR, ,CHARLOTTE,NC,28204,Neighborhood,Developed,Central,,,,9803141002,,,District 1,District 4,2004/08/03 00:00:00+00,,,1451630.38677025,536701.99483913,Mecklenburg
339,MCDP,McDowell Creek Park,8233 GILEAD RD,0, , , ,NO,HUNTERSVILLE,NC,28078,Neighborhood,Undeveloped,North,,,,9803141001,,,,District 1,2008/07/28 00:00:00+00,,,1437657.54485697,608366.99316941,Mecklenburg
340,PALI,York Road Palisades Park,15321 YORK RD,0, , , , ,CHARLOTTE,NC,28278,Neighborhood,Developed,South,,,,9803141003,,,,District 6,2015/07/07 00:00:00+00,,,1394552.99286804,495279.64324375,Mecklenburg
341,MHVP,Mint Hill Veterans Memorial Park,8850 FAIRVIEW RD,8850,,FAIRVIEW,RD,,MINT HILL,NC,28227,Town Park,Developed,South,,,,7045459726,,,,District 6,,,,1511681.90912287,524432.73462398,Mint Hill
342,FBNP,Flat Branch Nature Preserve,11833 TOM SHORT RD,0, ,NO ADDRESS, , ,CHARLOTTE,NC,28277,Nature Preserve,Developed,South,,,,9803141003,,,District 7,District 6,2007/02/08 00:00:00+00,,,1463138.02903886,476484.23690237,Mecklenburg
343,MACC,Matthews Community Center,100 E MCDOWELL ST,100,E,MCDOWELL,ST,,MATTHEWS,NC,28105,Community Center,Developed,South,,,,7043217275,,,,District 6,,,,1485035.914606,500644.51835603,Matthews
344,EASP,Eastway Park,423 EASTWAY DR,423, ,EASTWAY,DR, ,CHARLOTTE,NC,28215,Community,Developed,North,,,,9803141001,,,District 1,District 3,2003/07/11 00:00:00+00,,,1468679.96446426,551894.88769855,Mecklenburg
345,NEWP,Newell Park,9130 NEWELL BAPTIST CHURCH RD,9130, ,NEWELL BAPTIST CHURCH,RD, ,CHARLOTTE,NC,28213,Community,Developed,North,,,,9803141001,,,District 4,District 3,1998/08/12 00:00:00+00,,,1482307.75023103,563623.75023104,Mecklenburg
346,CLAP,Dorothy D. Waddy Pavilion,3132 MANCHESTER DR,3132,,MANCHESTER,DR,,CHARLOTTE,NC,28217,Pavilion,Developed,Central,,,,9803141002,,,District 3,District 2,2019/02/25 16:36:18+00,,,1437385.00064817,535127.00014874,Mecklenburg
347,TRWD,Williams-Olmstead Park,1738 WEDDINGTON RD,1738,,WEDDINGTON,RD,,MATTHEWS,NC,28105,Neighborhood,Undeveloped,South,,,,9803141003,,,,District 6,,,,1482277.09200622,495761.97747803,Mecklenburg
348,BIGR,Big Rock Nature Preserve,6500 ELMSTONE DR,0, ,NO ADDRESS, , ,CHARLOTTE,NC,28277,Nature Preserve,Developed,South,,,,9803141003,,,District 7,District 6,2002/03/18 00:00:00+00,,,1453468.37997213,482058.1874498,Mecklenburg
349,ENDC,Bette Rae Thomas Recreation Center,2921 TUCKASEEGEE RD,1220, ,CLAY,AV, ,CHARLOTTE,NC,28208,Recreation Center,Developed,Central,,,,9803141111,,,District 2,District 2,1998/07/28 00:00:00+00,,,1439430.5908764,548073.46003644,Mecklenburg
350,RGLF,Harry L. Jones Sr. Golf Course,1525 W TYVOLA RD,1525,W,TYVOLA,RD, ,CHARLOTTE,NC,28217,Golf Course,Developed,South,,,,9803141003,,,District 3,District 2,1998/07/28 00:00:00+00,,,1429241.28048983,524383.12844375,Mecklenburg
351,WCPK,West Charlotte Park,2401 KENDALL DR,2401, ,KENDALL,DR, ,CHARLOTTE,NC,28216,Neighborhood,Developed,Central,,,,9803141002,,,District 2,District 2,1998/07/28 00:00:00+00,,,1445799.3305285,557465.4290237,Mecklenburg
352,MDNC,McDowell Nature Center,15222 YORK RD,15222,S,YORK,RD, ,CHARLOTTE,NC,28278,Nature Center,Developed,South,,,,9803141128,,,,District 2,2016/07/06 00:00:00+00,,,1395753.30802515,497445.46991105,Mecklenburg
353,DWPK,Pottstown Park,612 DELLWOOD DR,612,,DELLWOOD,DR,,HUNTERSVILLE,NC,28078,Community,Undeveloped,North,,,,9803141001,,,,District 1,,,,1453839.44465318,607521.80637148,Mecklenburg
354,LOAK,Large Oak Park,8515 FAIRVIEW RD,8515,,FAIRVIEW,RD,,CHARLOTTE,NC,28227,Community,Undeveloped,South,,,,9803141003,,,,District 6,,,,1510363.96881631,524082.29969199,Mecklenburg
355,BLYT,Blythe Landing Park,15901 N C 73 HY,15901, ,NC 73,HY, ,HUNTERSVILLE,NC,28078,Community,Developed,North,,,,9803141001,,,,District 1,2007/09/11 00:00:00+00,,,1432786.65021694,618983.98806484,Mecklenburg
356,SHLD,Sheffield Park,1311 TARRINGTON AV,1311, ,TARRINGTON,AV, ,CHARLOTTE,NC,28205,Neighborhood,Developed,South,,,,9803141003,,,District 5,District 4,1998/07/28 00:00:00+00,,,1472235.77026607,534645.35929897,Mecklenburg
357,MCKE,McKee Road Park,4201 MCKEE RD,4201, ,MCKEE,RD, ,CHARLOTTE,NC,28270,Community,Developed,South,,,,9803141003,,,District 7,District 6,1998/10/07 00:00:00+00,,,1474330.29341434,484449.01842475,Mecklenburg
358,JRNP,Jetton Road Neighborhood Park,16000 JETTON RD,16000,,JETTON,RD,,CORNELIUS,NC,28031,Town Park,Developed,North,,,,7048926031,,,,District 1,2005/01/11 00:00:00+00,,,1422973.34617707,633131.29483245,Cornelius
359,REDY,Reedy Creek Park,2900 ROCKY RIVER RD,2900, ,ROCKY RIVER,RD, ,CHARLOTTE,NC,28215,Regional,Developed,North,,,,9803141001,,,District 5,District 3,2008/05/14 00:00:00+00,,,1487582.49572553,559996.49568534,Mecklenburg
360,CLKD,Eastfield Park,13729 EASTFIELD RD,0, ,NO ADDRESS, , ,HUNTERSVILLE,NC,28078,Regional,Undeveloped,North,,,,9803141001,,,,District 1,1998/10/09 00:00:00+00,,,1470575.23692437,602282.22707759,Mecklenburg
361,FRED,Fred Alexander Park,1832 GRIERS GROVE RD,1832, ,GRIERS GROVE,RD, ,CHARLOTTE,NC,28216,Neighborhood,Developed,North,,,,9803141001,,,District 2,District 2,1998/07/28 00:00:00+00,,,1445217.18097499,563028.35563226,Mecklenburg
362,RAMS,Ramsey Creek Park,18445 NANTZ RD,18445, ,NANTZ,RD, ,CORNELIUS,NC,28078,Community,Developed,North,,,,9803141001,,,,District 1,2008/05/14 00:00:00+00,,,1435742.00585605,630032.31648105,Mecklenburg
363,RCCG,Reedy Creek Community Garden,8832 GRIER RD,8832,,GRIER,RD,,CHARLOTTE,NC,28215,Community Garden,Developed,North,,,,9803141001,,,District 5,District 3,2009/05/14 10:25:41+00,,,1486564.67558268,559132.89997158,Mecklenburg
364,STHW,Southwest Park,1729 VILMA ST,1729, ,VILMA,ST,NO,CHARLOTTE,NC,28203,Community,Developed,Central,,,,9803141002,,,District 3,District 2,1999/04/01 00:00:00+00,,,1427454.67628101,537079.53329577,Mecklenburg
365,OMCH,Old Moores Chapel Park,9226 OLD MOORES CHAPEL RD,9226,,OLD MOORES CHAPEL,RD,,CHARLOTTE,NC,28214,Neighborhood,Undeveloped,North,,,,9803141001,,,District 3,District 2,,,,1415190.25106244,561261.74426705,Mecklenburg
